{
  "type": "FeatureCollection",
  "features": [
    {
      "type": "Feature",
      "properties": {
        "source_fid": 395,
        "authority": "USGS_2019_2020_lidar_hydrobreakline",
        "vertical_datum": "NAVD88",
        "z_units": "metres",
        "is_bathymetry": false
      },
      "geometry": {
        "type": "Polygon",
        "coordinates": [
          [
            [
              -120.84647212143079,
              38.769475323520076,
              263.5391398780755
            ],
            [
              -120.84652440116696,
              38.76947924231327,
              263.47913987807766
            ],
            [
              -120.84657350058743,
              38.76947403982878,
              263.4183398780751
            ],
            [
              -120.84661268951601,
              38.76945865725522,
              263.3642398780747
            ],
            [
              -120.84669679765294,
              38.76941693853205,
              263.2952398780783
            ],
            [
              -120.84675380319813,
              38.76939789399501,
              263.26613987807747
            ],
            [
              -120.84680725315297,
              38.76938691181627,
              263.23413987807567
            ],
            [
              -120.84687337519627,
              38.769375768097746,
              263.19493987807584
            ],
            [
              -120.8469187118885,
              38.76936889647411,
              263.1680398780757
            ],
            [
              -120.8469856278428,
              38.7693600327662,
              263.1286398780759
            ],
            [
              -120.84705530533421,
              38.769340828353656,
              263.0863398780751
            ],
            [
              -120.8471044069217,
              38.76933562566739,
              263.059539878075
            ],
            [
              -120.84714894732929,
              38.76932647295689,
              262.993139878075
            ],
            [
              -120.84719131415838,
              38.76932021050265,
              262.9305398780763
            ],
            [
              -120.8472465624744,
              38.769323519682175,
              262.8509398780763
            ],
            [
              -120.84727312059296,
              38.76934494215915,
              262.81633987807805
            ],
            [
              -120.84728324056276,
              38.76936485537628,
              262.80533987807877
            ],
            [
              -120.84729356997536,
              38.76939449999597,
              262.79583987807564
            ],
            [
              -120.84731092583397,
              38.76942382247794,
              262.7761398780779
            ],
            [
              -120.84734429984913,
              38.76943050376068,
              262.72893987807544
            ],
            [
              -120.84738905088622,
              38.769431082372904,
              262.66413987807596
            ],
            [
              -120.8474397404325,
              38.769430439687476,
              262.590439878078
            ],
            [
              -120.84745935558189,
              38.76944107101557,
              262.563939878078
            ],
            [
              -120.84747244429008,
              38.76946037401998,
              262.54843987807726
            ],
            [
              -120.84752058294127,
              38.76947980609204,
              262.46113987807917
            ],
            [
              -120.84754019813093,
              38.76949043650563,
              262.4390398780762
            ],
            [
              -120.84756257251108,
              38.769490726215075,
              262.40953987807524
            ],
            [
              -120.84757880008368,
              38.76948250401497,
              262.3850398780759
            ],
            [
              -120.84759105438594,
              38.76946288052774,
              262.36153987807694
            ],
            [
              -120.84759578225783,
              38.76943991728732,
              262.3468398780764
            ],
            [
              -120.84760009003239,
              38.769397490328544,
              262.3255398780782
            ],
            [
              -120.84759055560696,
              38.76937012581755,
              262.32813987807907
            ],
            [
              -120.84759130906255,
              38.76933576128065,
              262.32513987807806
            ],
            [
              -120.84759423723283,
              38.7692985055734,
              262.2969398780775
            ],
            [
              -120.84761142769797,
              38.76926564933369,
              262.2621398780748
            ],
            [
              -120.84763794307042,
              38.76925042709733,
              262.2214398780789
            ],
            [
              -120.84769356750208,
              38.76923655243851,
              262.14263987807476
            ],
            [
              -120.84775337466102,
              38.76924381223698,
              262.0885398780789
            ],
            [
              -120.84782744299068,
              38.76925547143434,
              262.08663987807824
            ],
            [
              -120.84787457697519,
              38.76926289097668,
              262.08273987807695
            ],
            [
              -120.84800409974241,
              38.76928759028383,
              262.0722398780779
            ],
            [
              -120.84806825751853,
              38.76928906757546,
              262.0670398780761
            ],
            [
              -120.84813655507287,
              38.76927503467192,
              262.0613398780787
            ],
            [
              -120.84819673835167,
              38.76926510971386,
              262.056339878077
            ],
            [
              -120.8482945617921,
              38.76927188694842,
              262.0189398780778
            ],
            [
              -120.8483670411118,
              38.76927898565969,
              261.96833987807867
            ],
            [
              -120.8484169353855,
              38.76927606337229,
              261.93393987807605
            ],
            [
              -120.84847573907545,
              38.76927131043183,
              261.8934398780758
            ],
            [
              -120.84854010415268,
              38.76928251884128,
              261.84823987807846
            ],
            [
              -120.84861873043697,
              38.7692981283491,
              261.7928398780777
            ],
            [
              -120.84869003877185,
              38.7693201295123,
              261.7427398780787
            ],
            [
              -120.84874650043,
              38.76934518084243,
              261.7427398780787
            ],
            [
              -120.84880613927862,
              38.76937935330394,
              261.7427398780787
            ],
            [
              -120.84891429417581,
              38.769415774511735,
              261.7022398780785
            ],
            [
              -120.84902976598623,
              38.76944580477855,
              261.66033987807776
            ],
            [
              -120.84909969398015,
              38.769472975145476,
              261.6329398780775
            ],
            [
              -120.84917200635014,
              38.76950698747204,
              261.60323987807647
            ],
            [
              -120.84921796970471,
              38.76952930912769,
              261.5936398780777
            ],
            [
              -120.84927919927729,
              38.76956804148615,
              261.5695398780785
            ],
            [
              -120.84935209611956,
              38.76959460325971,
              261.5272398780777
            ],
            [
              -120.8494162956206,
              38.769632726213366,
              261.4830398780762
            ],
            [
              -120.84944979558097,
              38.769664940057126,
              261.45413987807547
            ],
            [
              -120.84949400283112,
              38.76970961379391,
              261.4150398780757
            ],
            [
              -120.8495225692741,
              38.769755061370255,
              261.4059398780771
            ],
            [
              -120.84955648771434,
              38.769806736168285,
              261.3671398780774
            ],
            [
              -120.84957476419726,
              38.769859183006815,
              261.33243987807913
            ],
            [
              -120.84961085846949,
              38.76990797019583,
              261.293539878075
            ],
            [
              -120.84963800180986,
              38.769921939887155,
              261.2765398780782
            ],
            [
              -120.84966949441815,
              38.76993012985656,
              261.26113987807753
            ],
            [
              -120.84970730233337,
              38.76991991660272,
              261.2534398780749
            ],
            [
              -120.84972214914751,
              38.76991686536832,
              261.2499398780782
            ],
            [
              -120.84974176478661,
              38.769927495409526,
              261.23733987807844
            ],
            [
              -120.84974494436928,
              38.76993661746595,
              261.2355398780778
            ],
            [
              -120.84975150988917,
              38.769964591141324,
              261.2355398780778
            ],
            [
              -120.84974937801267,
              38.77000412696761,
              261.2355398780778
            ],
            [
              -120.84972231780404,
              38.77006344831247,
              261.21653987807593
            ],
            [
              -120.8497108591921,
              38.77008535118968,
              261.20563987807674
            ],
            [
              -120.84970456325044,
              38.77010305456104,
              261.1964398780781
            ],
            [
              -120.84970870499012,
              38.77012897078378,
              261.18073987807725
            ],
            [
              -120.84971725881826,
              38.7701402398965,
              261.172739878079
            ],
            [
              -120.84974599032404,
              38.77015877147451,
              261.15733987807835
            ],
            [
              -120.84976857585193,
              38.770168792168654,
              261.14773987807513
            ],
            [
              -120.84977949069594,
              38.77019098432102,
              261.13313987807913
            ],
            [
              -120.84977614637621,
              38.77020877730687,
              261.12333987807585
            ],
            [
              -120.84975933347437,
              38.77022445114576,
              261.11693987807814
            ],
            [
              -120.84976430978742,
              38.770247864698426,
              261.1098398780758
            ],
            [
              -120.84977384633184,
              38.77027522813967,
              261.1098398780758
            ],
            [
              -120.84979408910694,
              38.77031505324472,
              261.0990398780766
            ],
            [
              -120.84982880318039,
              38.770369009828705,
              261.06733987807485
            ],
            [
              -120.84984135009663,
              38.770432409412194,
              261.0295398780755
            ],
            [
              -120.84986163578395,
              38.7705088791193,
              260.9840398780781
            ],
            [
              -120.8498581233413,
              38.770553586212664,
              260.95713987807795
            ],
            [
              -120.84983679407858,
              38.77060195570311,
              260.92773987807703
            ],
            [
              -120.84980735045806,
              38.7706544341881,
              260.89803987807596
            ],
            [
              -120.84978813435636,
              38.77068186048848,
              260.89803987807596
            ],
            [
              -120.84977032342623,
              38.77071355768095,
              260.8756398780774
            ],
            [
              -120.84975185130507,
              38.770778246378946,
              260.8057398780762
            ],
            [
              -120.84974047576254,
              38.77087344206496,
              260.72573987807607
            ],
            [
              -120.84972571193914,
              38.77094978430657,
              260.62513987807796
            ],
            [
              -120.84971429475979,
              38.77100833358578,
              260.5464398780783
            ],
            [
              -120.84969631194467,
              38.77103891008868,
              260.51933987807814
            ],
            [
              -120.84965912927788,
              38.77107831749776,
              260.45253987807797
            ],
            [
              -120.84962550301883,
              38.77110966423629,
              260.39753987807734
            ],
            [
              -120.84959484777053,
              38.77114039983649,
              260.34473987807746
            ],
            [
              -120.84958618942385,
              38.77118860745366,
              260.2790398780777
            ],
            [
              -120.84958744449433,
              38.77124699670814,
              260.23453987807613
            ],
            [
              -120.84959601881046,
              38.771298995110335,
              260.19653987807675
            ],
            [
              -120.84957765674311,
              38.771346753387554,
              260.1650398780751
            ],
            [
              -120.84955055669174,
              38.77136942830706,
              260.1606398780781
            ],
            [
              -120.84948008383928,
              38.77138635415763,
              260.15583987807645
            ],
            [
              -120.84943374232674,
              38.77138121532541,
              260.15523987807626
            ],
            [
              -120.84937334773208,
              38.7713814077233,
              260.1533398780756
            ],
            [
              -120.84932742567277,
              38.77139573164512,
              260.1496398780788
            ],
            [
              -120.8493006989939,
              38.77140122285507,
              260.1480398780783
            ],
            [
              -120.84928744105706,
              38.77140883596422,
              260.14643987807773
            ],
            [
              -120.84928865338016,
              38.77143057880759,
              260.1430398780766
            ],
            [
              -120.84930475652084,
              38.771485916894996,
              260.13493987807834
            ],
            [
              -120.84931905959068,
              38.77152696254257,
              260.1289398780763
            ],
            [
              -120.84933336381314,
              38.77156800910049,
              260.12313987807886
            ],
            [
              -120.84935239437812,
              38.771586090535266,
              260.1230398780788
            ],
            [
              -120.84937932856448,
              38.771590329787955,
              260.12313987807886
            ],
            [
              -120.84941851806666,
              38.77157494536884,
              260.12453987807487
            ],
            [
              -120.84943909642662,
              38.771560943215796,
              260.1273398780758
            ],
            [
              -120.84949254760652,
              38.77154995890167,
              260.1306398780769
            ],
            [
              -120.84951789139913,
              38.77154963708546,
              260.1315398780772
            ],
            [
              -120.8495616826423,
              38.771574848917936,
              260.1289398780763
            ],
            [
              -120.84956724558437,
              38.77159081115776,
              260.1266398780756
            ],
            [
              -120.84957402094268,
              38.77162851623733,
              260.12313987807886
            ],
            [
              -120.84957682373694,
              38.77165482101374,
              260.1221398780785
            ],
            [
              -120.84956159972177,
              38.77167505404483,
              260.11843987807725
            ],
            [
              -120.84952517149559,
              38.771680096888396,
              260.1161398780765
            ],
            [
              -120.84948397438342,
              38.77167145753371,
              260.1157398780764
            ],
            [
              -120.84945327506105,
              38.771665548472676,
              260.1153398780762
            ],
            [
              -120.84943466280092,
              38.77166692803744,
              260.1143398780759
            ],
            [
              -120.84942023391345,
              38.77168944291989,
              260.110339878079
            ],
            [
              -120.84942541995296,
              38.771722587882394,
              260.1055398780774
            ],
            [
              -120.84943299043515,
              38.771762573939,
              260.09973987807547
            ],
            [
              -120.8494360017837,
              38.77179860920417,
              260.09483987807823
            ],
            [
              -120.8494249599598,
              38.771839975723886,
              260.09393987807795
            ],
            [
              -120.84937472960178,
              38.77189672667097,
              260.0829398780787
            ],
            [
              -120.84936188988463,
              38.771923802572665,
              260.0783398780772
            ],
            [
              -120.8493270921555,
              38.771970050979945,
              260.06973987807874
            ],
            [
              -120.84929011851547,
              38.77201918966595,
              260.0623398780763
            ],
            [
              -120.84925670136258,
              38.77206026769329,
              260.0505398780768
            ],
            [
              -120.84919814758494,
              38.77211139883798,
              259.97953987807523
            ],
            [
              -120.8491427699055,
              38.77217165018849,
              259.9026398780762
            ],
            [
              -120.84907196158852,
              38.77224240491598,
              259.80933987807606
            ],
            [
              -120.84894397853786,
              38.77235911844741,
              259.6258398780769
            ],
            [
              -120.84891443986396,
              38.7723875837489,
              259.5739398780772
            ],
            [
              -120.84886174614891,
              38.77242866782268,
              259.4920398780765
            ],
            [
              -120.84882883394101,
              38.77244875598511,
              259.44713987807484
            ],
            [
              -120.8487925659553,
              38.772470893846624,
              259.397639878076
            ],
            [
              -120.84873716857808,
              38.77251994965377,
              259.3050398780762
            ],
            [
              -120.84872955878176,
              38.7725282985677,
              259.2905097810324
            ],
            [
              -120.84797123371052,
              38.77251433126303,
              258.939330625439
            ],
            [
              -120.84800275435849,
              38.77248899403148,
              258.9719398780758
            ],
            [
              -120.84809418475876,
              38.77244088355405,
              259.047939878079
            ],
            [
              -120.84817766685192,
              38.77236996956807,
              259.13713987807773
            ],
            [
              -120.84826508146784,
              38.77227381128184,
              259.25523987807725
            ],
            [
              -120.84834521842237,
              38.7722206901139,
              259.36933987807544
            ],
            [
              -120.84839309328564,
              38.77218310729447,
              259.44403987807823
            ],
            [
              -120.848418191207,
              38.772145733658334,
              259.5028398780757
            ],
            [
              -120.84843397127817,
              38.77208271584102,
              259.5837398780761
            ],
            [
              -120.84843392919745,
              38.77204607032984,
              259.6245398780764
            ],
            [
              -120.8484465198868,
              38.771972618543806,
              259.71493987807554
            ],
            [
              -120.84849177502629,
              38.77189245439474,
              259.8149398780779
            ],
            [
              -120.84861992544307,
              38.77174882634416,
              259.9966398780765
            ],
            [
              -120.84874297409176,
              38.77164534508309,
              260.08243987807856
            ],
            [
              -120.84897120973683,
              38.77140539890729,
              260.13723987807913
            ],
            [
              -120.8491321483818,
              38.77119149906471,
              260.176739878079
            ],
            [
              -120.84924185246007,
              38.77102233843218,
              260.33203987807764
            ],
            [
              -120.84929747735697,
              38.7708349668578,
              260.60333987807513
            ],
            [
              -120.84934511450093,
              38.77058814641385,
              260.9269398780768
            ],
            [
              -120.84934130851605,
              38.770376334029436,
              261.0538398780748
            ],
            [
              -120.8493456164424,
              38.77033390792115,
              261.0793398780789
            ],
            [
              -120.84933407258416,
              38.77028251972922,
              261.15293987807684
            ],
            [
              -120.8493108602357,
              38.77024330477584,
              261.17953987807687
            ],
            [
              -120.84923787889275,
              38.770143452857496,
              261.296439878076
            ],
            [
              -120.84919605475729,
              38.77010561921269,
              261.3314398780788
            ],
            [
              -120.84907673312912,
              38.7700006282459,
              261.4482398780779
            ],
            [
              -120.84900061409837,
              38.7699282996074,
              261.5134398780775
            ],
            [
              -120.84880028179282,
              38.769800859801954,
              261.64743987807793
            ],
            [
              -120.84872647526636,
              38.769769636172214,
              261.6769398780789
            ],
            [
              -120.84867600139998,
              38.76975651149427,
              261.6952398780761
            ],
            [
              -120.84864637265028,
              38.769751848026345,
              261.70533987807505
            ],
            [
              -120.84859791943187,
              38.76975246206941,
              261.7198398780755
            ],
            [
              -120.8485398615639,
              38.76974524078572,
              261.82103987807824
            ],
            [
              -120.84851111761806,
              38.7697381012495,
              261.8414398780762
            ],
            [
              -120.84843805111372,
              38.76973845394268,
              261.8919398780753
            ],
            [
              -120.84834796424043,
              38.76974474794558,
              261.95403987807833
            ],
            [
              -120.84822182602738,
              38.76973890158774,
              262.04173987807656
            ],
            [
              -120.84818301444733,
              38.76973710289048,
              262.05983987807815
            ],
            [
              -120.84813596517648,
              38.76973566029647,
              262.063739878075
            ],
            [
              -120.84808972292392,
              38.76973732765101,
              262.0675398780763
            ],
            [
              -120.84807167184454,
              38.76973677282357,
              262.0690398780768
            ],
            [
              -120.84803826330041,
              38.769732637484665,
              262.0717398780777
            ],
            [
              -120.84800438787094,
              38.76971760685992,
              262.0744398780786
            ],
            [
              -120.84792040721932,
              38.769695765105595,
              262.0812398780764
            ],
            [
              -120.84785969768467,
              38.769684580025796,
              262.0861398780781
            ],
            [
              -120.84784474931274,
              38.76967954582018,
              262.08733987807847
            ],
            [
              -120.84780237812949,
              38.76966958242206,
              262.15783987807544
            ],
            [
              -120.84777444549255,
              38.76966955652167,
              262.1948398780789
            ],
            [
              -120.84774475064856,
              38.769675658478995,
              262.236339878075
            ],
            [
              -120.84770544448071,
              38.7696925322371,
              262.29463987807674
            ],
            [
              -120.84767252101312,
              38.769714936288686,
              262.3464398780763
            ],
            [
              -120.84764086090065,
              38.769733660793605,
              262.39523987807485
            ],
            [
              -120.84755039664068,
              38.76975713689042,
              262.52363987807786
            ],
            [
              -120.84739736547779,
              38.76978369636642,
              262.71743987807605
            ],
            [
              -120.84718929379477,
              38.769816676951315,
              263.0255398780769
            ],
            [
              -120.84706654304009,
              38.76982968285649,
              263.14183987807587
            ],
            [
              -120.84693805965608,
              38.76985363945472,
              263.21843987807483
            ],
            [
              -120.84681907373361,
              38.769868315012594,
              263.3245398780748
            ],
            [
              -120.84674701153023,
              38.76988067903277,
              263.4160398780787
            ],
            [
              -120.84667218880723,
              38.76990338457691,
              263.51603987807664
            ],
            [
              -120.84659715784372,
              38.76991635867986,
              263.6114398780775
            ],
            [
              -120.84649874678641,
              38.769917030418775,
              263.7283398780766
            ],
            [
              -120.84644211834795,
              38.769918892121225,
              263.79633987807716
            ],
            [
              -120.84642345831762,
              38.76992415707217,
              263.8210718992856
            ],
            [
              -120.8464369566179,
              38.76947539575523,
              263.58083873414466
            ],
            [
              -120.84647212143079,
              38.769475323520076,
              263.5391398780755
            ]
          ]
        ]
      }
    }
  ]
}