{
  "feature_count": 50,
  "features": [
    {
      "geometry": {
        "coordinates": [
          -83.73899122,
          9.93687567
        ],
        "type": "Point"
      },
      "properties": {
        "difficulty_label": "III",
        "display_name": "Bienvenidos",
        "feature_id": "pacuare_river_costa_rica__bienvenidos",
        "geometry_source": "physics/data/real_world/pacuare_river_costa_rica/hydrography/production_import_pilot/centerline.geojson",
        "geometry_source_status": "preview_scaffold_not_official_hydrography",
        "geometry_status": "candidate_centerline_projection_not_exact",
        "guide_review_status": "required",
        "portfolio_role": "runnable_river",
        "production_authoritative": false,
        "review_priority": "medium",
        "river_id": "pacuare_river_costa_rica",
        "station_kind": "provisional_downstream_order_interpolation",
        "station_m": 1640.625
      },
      "type": "Feature"
    },
    {
      "geometry": {
        "coordinates": [
          -83.7290566,
          9.92583535
        ],
        "type": "Point"
      },
      "properties": {
        "difficulty_label": "III",
        "display_name": "Pyramid Rock",
        "feature_id": "pacuare_river_costa_rica__pyramid_rock",
        "geometry_source": "physics/data/real_world/pacuare_river_costa_rica/hydrography/production_import_pilot/centerline.geojson",
        "geometry_source_status": "preview_scaffold_not_official_hydrography",
        "geometry_status": "candidate_centerline_projection_not_exact",
        "guide_review_status": "required",
        "portfolio_role": "runnable_river",
        "production_authoritative": false,
        "review_priority": "high",
        "river_id": "pacuare_river_costa_rica",
        "station_kind": "provisional_downstream_order_interpolation",
        "station_m": 3281.25
      },
      "type": "Feature"
    },
    {
      "geometry": {
        "coordinates": [
          -83.71919125,
          9.91473419
        ],
        "type": "Point"
      },
      "properties": {
        "difficulty_label": "III",
        "display_name": "Pele El Ojo",
        "feature_id": "pacuare_river_costa_rica__pele_el_ojo",
        "geometry_source": "physics/data/real_world/pacuare_river_costa_rica/hydrography/production_import_pilot/centerline.geojson",
        "geometry_source_status": "preview_scaffold_not_official_hydrography",
        "geometry_status": "candidate_centerline_projection_not_exact",
        "guide_review_status": "required",
        "portfolio_role": "runnable_river",
        "production_authoritative": false,
        "review_priority": "high",
        "river_id": "pacuare_river_costa_rica",
        "station_kind": "provisional_downstream_order_interpolation",
        "station_m": 4921.875
      },
      "type": "Feature"
    },
    {
      "geometry": {
        "coordinates": [
          -83.70841754,
          9.9045032
        ],
        "type": "Point"
      },
      "properties": {
        "difficulty_label": "IV",
        "display_name": "Upper Huacas",
        "feature_id": "pacuare_river_costa_rica__upper_huacas",
        "geometry_source": "physics/data/real_world/pacuare_river_costa_rica/hydrography/production_import_pilot/centerline.geojson",
        "geometry_source_status": "preview_scaffold_not_official_hydrography",
        "geometry_status": "candidate_centerline_projection_not_exact",
        "guide_review_status": "required",
        "portfolio_role": "runnable_river",
        "production_authoritative": false,
        "review_priority": "critical",
        "river_id": "pacuare_river_costa_rica",
        "station_kind": "provisional_downstream_order_interpolation",
        "station_m": 6562.5
      },
      "type": "Feature"
    },
    {
      "geometry": {
        "coordinates": [
          -83.69548044,
          9.89725675
        ],
        "type": "Point"
      },
      "properties": {
        "difficulty_label": "III",
        "display_name": "Bobo Falls",
        "feature_id": "pacuare_river_costa_rica__bobo_falls",
        "geometry_source": "physics/data/real_world/pacuare_river_costa_rica/hydrography/production_import_pilot/centerline.geojson",
        "geometry_source_status": "preview_scaffold_not_official_hydrography",
        "geometry_status": "candidate_centerline_projection_not_exact",
        "guide_review_status": "required",
        "portfolio_role": "runnable_river",
        "production_authoritative": false,
        "review_priority": "high",
        "river_id": "pacuare_river_costa_rica",
        "station_kind": "provisional_downstream_order_interpolation",
        "station_m": 8203.125
      },
      "type": "Feature"
    },
    {
      "geometry": {
        "coordinates": [
          -83.68075211,
          9.89750434
        ],
        "type": "Point"
      },
      "properties": {
        "difficulty_label": "IV",
        "display_name": "Lower Huacas",
        "feature_id": "pacuare_river_costa_rica__lower_huacas",
        "geometry_source": "physics/data/real_world/pacuare_river_costa_rica/hydrography/production_import_pilot/centerline.geojson",
        "geometry_source_status": "preview_scaffold_not_official_hydrography",
        "geometry_status": "candidate_centerline_projection_not_exact",
        "guide_review_status": "required",
        "portfolio_role": "runnable_river",
        "production_authoritative": false,
        "review_priority": "critical",
        "river_id": "pacuare_river_costa_rica",
        "station_kind": "provisional_downstream_order_interpolation",
        "station_m": 9843.75
      },
      "type": "Feature"
    },
    {
      "geometry": {
        "coordinates": [
          -83.66772321,
          9.90464612
        ],
        "type": "Point"
      },
      "properties": {
        "difficulty_label": "III",
        "display_name": "Rodeo",
        "feature_id": "pacuare_river_costa_rica__rodeo",
        "geometry_source": "physics/data/real_world/pacuare_river_costa_rica/hydrography/production_import_pilot/centerline.geojson",
        "geometry_source_status": "preview_scaffold_not_official_hydrography",
        "geometry_status": "candidate_centerline_projection_not_exact",
        "guide_review_status": "required",
        "portfolio_role": "runnable_river",
        "production_authoritative": false,
        "review_priority": "medium",
        "river_id": "pacuare_river_costa_rica",
        "station_kind": "provisional_downstream_order_interpolation",
        "station_m": 11484.375
      },
      "type": "Feature"
    },
    {
      "geometry": {
        "coordinates": [
          -83.65631984,
          9.9142032
        ],
        "type": "Point"
      },
      "properties": {
        "difficulty_label": "III",
        "display_name": "Guatemala",
        "feature_id": "pacuare_river_costa_rica__guatemala",
        "geometry_source": "physics/data/real_world/pacuare_river_costa_rica/hydrography/production_import_pilot/centerline.geojson",
        "geometry_source_status": "preview_scaffold_not_official_hydrography",
        "geometry_status": "candidate_centerline_projection_not_exact",
        "guide_review_status": "required",
        "portfolio_role": "runnable_river",
        "production_authoritative": false,
        "review_priority": "medium",
        "river_id": "pacuare_river_costa_rica",
        "station_kind": "provisional_downstream_order_interpolation",
        "station_m": 13125.0
      },
      "type": "Feature"
    },
    {
      "geometry": {
        "coordinates": [
          -83.64517436,
          9.92405846
        ],
        "type": "Point"
      },
      "properties": {
        "difficulty_label": "IV-",
        "display_name": "Double Drop",
        "feature_id": "pacuare_river_costa_rica__double_drop",
        "geometry_source": "physics/data/real_world/pacuare_river_costa_rica/hydrography/production_import_pilot/centerline.geojson",
        "geometry_source_status": "preview_scaffold_not_official_hydrography",
        "geometry_status": "candidate_centerline_projection_not_exact",
        "guide_review_status": "required",
        "portfolio_role": "runnable_river",
        "production_authoritative": false,
        "review_priority": "critical",
        "river_id": "pacuare_river_costa_rica",
        "station_kind": "provisional_downstream_order_interpolation",
        "station_m": 14765.625
      },
      "type": "Feature"
    },
    {
      "geometry": {
        "coordinates": [
          -83.63299604,
          9.93260076
        ],
        "type": "Point"
      },
      "properties": {
        "difficulty_label": "III-IV",
        "display_name": "Cimarrones",
        "feature_id": "pacuare_river_costa_rica__cimarrones",
        "geometry_source": "physics/data/real_world/pacuare_river_costa_rica/hydrography/production_import_pilot/centerline.geojson",
        "geometry_source_status": "preview_scaffold_not_official_hydrography",
        "geometry_status": "candidate_centerline_projection_not_exact",
        "guide_review_status": "required",
        "portfolio_role": "runnable_river",
        "production_authoritative": false,
        "review_priority": "critical",
        "river_id": "pacuare_river_costa_rica",
        "station_kind": "provisional_downstream_order_interpolation",
        "station_m": 16406.25
      },
      "type": "Feature"
    },
    {
      "geometry": {
        "coordinates": [
          -83.61873291,
          9.93654597
        ],
        "type": "Point"
      },
      "properties": {
        "difficulty_label": "III",
        "display_name": "Upper Pinball",
        "feature_id": "pacuare_river_costa_rica__upper_pinball",
        "geometry_source": "physics/data/real_world/pacuare_river_costa_rica/hydrography/production_import_pilot/centerline.geojson",
        "geometry_source_status": "preview_scaffold_not_official_hydrography",
        "geometry_status": "candidate_centerline_projection_not_exact",
        "guide_review_status": "required",
        "portfolio_role": "runnable_river",
        "production_authoritative": false,
        "review_priority": "high",
        "river_id": "pacuare_river_costa_rica",
        "station_kind": "provisional_downstream_order_interpolation",
        "station_m": 18046.875
      },
      "type": "Feature"
    },
    {
      "geometry": {
        "coordinates": [
          -83.60452727,
          9.93242372
        ],
        "type": "Point"
      },
      "properties": {
        "difficulty_label": "III",
        "display_name": "Lower Pinball",
        "feature_id": "pacuare_river_costa_rica__lower_pinball",
        "geometry_source": "physics/data/real_world/pacuare_river_costa_rica/hydrography/production_import_pilot/centerline.geojson",
        "geometry_source_status": "preview_scaffold_not_official_hydrography",
        "geometry_status": "candidate_centerline_projection_not_exact",
        "guide_review_status": "required",
        "portfolio_role": "runnable_river",
        "production_authoritative": false,
        "review_priority": "high",
        "river_id": "pacuare_river_costa_rica",
        "station_kind": "provisional_downstream_order_interpolation",
        "station_m": 19687.5
      },
      "type": "Feature"
    },
    {
      "geometry": {
        "coordinates": [
          -83.59253902,
          9.92362816
        ],
        "type": "Point"
      },
      "properties": {
        "difficulty_label": "IV",
        "display_name": "Wall of Sorrow",
        "feature_id": "pacuare_river_costa_rica__wall_of_sorrow",
        "geometry_source": "physics/data/real_world/pacuare_river_costa_rica/hydrography/production_import_pilot/centerline.geojson",
        "geometry_source_status": "preview_scaffold_not_official_hydrography",
        "geometry_status": "candidate_centerline_projection_not_exact",
        "guide_review_status": "required",
        "portfolio_role": "runnable_river",
        "production_authoritative": false,
        "review_priority": "critical",
        "river_id": "pacuare_river_costa_rica",
        "station_kind": "provisional_downstream_order_interpolation",
        "station_m": 21328.125
      },
      "type": "Feature"
    },
    {
      "geometry": {
        "coordinates": [
          -83.58175949,
          9.91338663
        ],
        "type": "Point"
      },
      "properties": {
        "difficulty_label": "IV",
        "display_name": "Dos Montanas",
        "feature_id": "pacuare_river_costa_rica__dos_montanas",
        "geometry_source": "physics/data/real_world/pacuare_river_costa_rica/hydrography/production_import_pilot/centerline.geojson",
        "geometry_source_status": "preview_scaffold_not_official_hydrography",
        "geometry_status": "candidate_centerline_projection_not_exact",
        "guide_review_status": "required",
        "portfolio_role": "runnable_river",
        "production_authoritative": false,
        "review_priority": "critical",
        "river_id": "pacuare_river_costa_rica",
        "station_kind": "provisional_downstream_order_interpolation",
        "station_m": 22968.75
      },
      "type": "Feature"
    },
    {
      "geometry": {
        "coordinates": [
          -83.57096693,
          9.90315955
        ],
        "type": "Point"
      },
      "properties": {
        "difficulty_label": "III",
        "display_name": "Las Ranitas",
        "feature_id": "pacuare_river_costa_rica__las_ranitas",
        "geometry_source": "physics/data/real_world/pacuare_river_costa_rica/hydrography/production_import_pilot/centerline.geojson",
        "geometry_source_status": "preview_scaffold_not_official_hydrography",
        "geometry_status": "candidate_centerline_projection_not_exact",
        "guide_review_status": "required",
        "portfolio_role": "runnable_river",
        "production_authoritative": false,
        "review_priority": "medium",
        "river_id": "pacuare_river_costa_rica",
        "station_kind": "provisional_downstream_order_interpolation",
        "station_m": 24609.375
      },
      "type": "Feature"
    },
    {
      "geometry": {
        "coordinates": [
          25.85856697,
          -17.9274934
        ],
        "type": "Point"
      },
      "properties": {
        "difficulty_label": "IV",
        "display_name": "Against the Wall",
        "feature_id": "zambezi_batoka_gorge__against_the_wall",
        "geometry_source": "physics/data/real_world/zambezi_batoka_gorge/production_corridor/boiling_pot_to_mukuni_beach/hydrography/route_stationing.json",
        "geometry_source_status": "osm_boundary_trace_low_precision_not_surveyed_centerline",
        "geometry_status": "candidate_centerline_projection_not_exact",
        "guide_review_status": "required",
        "portfolio_role": "runnable_river",
        "production_authoritative": false,
        "review_priority": "critical",
        "river_id": "zambezi_batoka_gorge",
        "station_kind": "observed_whitewater_landmarks_and_outfitter_km",
        "station_m": 160.0
      },
      "type": "Feature"
    },
    {
      "geometry": {
        "coordinates": [
          25.8566678,
          -17.92850791
        ],
        "type": "Point"
      },
      "properties": {
        "difficulty_label": "II-III",
        "display_name": "The Bridge",
        "feature_id": "zambezi_batoka_gorge__the_bridge",
        "geometry_source": "physics/data/real_world/zambezi_batoka_gorge/production_corridor/boiling_pot_to_mukuni_beach/hydrography/route_stationing.json",
        "geometry_source_status": "osm_boundary_trace_low_precision_not_surveyed_centerline",
        "geometry_status": "candidate_centerline_projection_not_exact",
        "guide_review_status": "required",
        "portfolio_role": "runnable_river",
        "production_authoritative": false,
        "review_priority": "high",
        "river_id": "zambezi_batoka_gorge",
        "station_kind": "observed_whitewater_landmarks_and_outfitter_km",
        "station_m": 417.9
      },
      "type": "Feature"
    },
    {
      "geometry": {
        "coordinates": [
          25.85486439,
          -17.9289398
        ],
        "type": "Point"
      },
      "properties": {
        "difficulty_label": "III-IV",
        "display_name": "Rapid 3",
        "feature_id": "zambezi_batoka_gorge__rapid_3",
        "geometry_source": "physics/data/real_world/zambezi_batoka_gorge/production_corridor/boiling_pot_to_mukuni_beach/hydrography/route_stationing.json",
        "geometry_source_status": "osm_boundary_trace_low_precision_not_surveyed_centerline",
        "geometry_status": "candidate_centerline_projection_not_exact",
        "guide_review_status": "required",
        "portfolio_role": "runnable_river",
        "production_authoritative": false,
        "review_priority": "high",
        "river_id": "zambezi_batoka_gorge",
        "station_kind": "observed_whitewater_landmarks_and_outfitter_km",
        "station_m": 615.7
      },
      "type": "Feature"
    },
    {
      "geometry": {
        "coordinates": [
          25.84910035,
          -17.93112248
        ],
        "type": "Point"
      },
      "properties": {
        "difficulty_label": "IV-V",
        "display_name": "Morning Glory",
        "feature_id": "zambezi_batoka_gorge__morning_glory",
        "geometry_source": "physics/data/real_world/zambezi_batoka_gorge/production_corridor/boiling_pot_to_mukuni_beach/hydrography/route_stationing.json",
        "geometry_source_status": "osm_boundary_trace_low_precision_not_surveyed_centerline",
        "geometry_status": "candidate_centerline_projection_not_exact",
        "guide_review_status": "required",
        "portfolio_role": "runnable_river",
        "production_authoritative": false,
        "review_priority": "critical",
        "river_id": "zambezi_batoka_gorge",
        "station_kind": "observed_whitewater_landmarks_and_outfitter_km",
        "station_m": 1609.1
      },
      "type": "Feature"
    },
    {
      "geometry": {
        "coordinates": [
          25.85696156,
          -17.93355343
        ],
        "type": "Point"
      },
      "properties": {
        "difficulty_label": "V",
        "display_name": "Stairway to Heaven",
        "feature_id": "zambezi_batoka_gorge__stairway_to_heaven",
        "geometry_source": "physics/data/real_world/zambezi_batoka_gorge/production_corridor/boiling_pot_to_mukuni_beach/hydrography/route_stationing.json",
        "geometry_source_status": "osm_boundary_trace_low_precision_not_surveyed_centerline",
        "geometry_status": "candidate_centerline_projection_not_exact",
        "guide_review_status": "required",
        "portfolio_role": "runnable_river",
        "production_authoritative": false,
        "review_priority": "critical",
        "river_id": "zambezi_batoka_gorge",
        "station_kind": "observed_whitewater_landmarks_and_outfitter_km",
        "station_m": 3136.3
      },
      "type": "Feature"
    },
    {
      "geometry": {
        "coordinates": [
          25.84657499,
          -17.94045312
        ],
        "type": "Point"
      },
      "properties": {
        "difficulty_label": "III-IV",
        "display_name": "Devil's Toilet Bowl",
        "feature_id": "zambezi_batoka_gorge__devil_s_toilet_bowl",
        "geometry_source": "physics/data/real_world/zambezi_batoka_gorge/production_corridor/boiling_pot_to_mukuni_beach/hydrography/route_stationing.json",
        "geometry_source_status": "osm_boundary_trace_low_precision_not_surveyed_centerline",
        "geometry_status": "candidate_centerline_projection_not_exact",
        "guide_review_status": "required",
        "portfolio_role": "runnable_river",
        "production_authoritative": false,
        "review_priority": "high",
        "river_id": "zambezi_batoka_gorge",
        "station_kind": "observed_whitewater_landmarks_and_outfitter_km",
        "station_m": 4710.0
      },
      "type": "Feature"
    },
    {
      "geometry": {
        "coordinates": [
          25.8547873,
          -17.9472791
        ],
        "type": "Point"
      },
      "properties": {
        "difficulty_label": "V",
        "display_name": "Gulliver's Travels",
        "feature_id": "zambezi_batoka_gorge__gulliver_s_travels",
        "geometry_source": "physics/data/real_world/zambezi_batoka_gorge/production_corridor/boiling_pot_to_mukuni_beach/hydrography/route_stationing.json",
        "geometry_source_status": "osm_boundary_trace_low_precision_not_surveyed_centerline",
        "geometry_status": "candidate_centerline_projection_not_exact",
        "guide_review_status": "required",
        "portfolio_role": "runnable_river",
        "production_authoritative": false,
        "review_priority": "critical",
        "river_id": "zambezi_batoka_gorge",
        "station_kind": "observed_whitewater_landmarks_and_outfitter_km",
        "station_m": 6140.0
      },
      "type": "Feature"
    },
    {
      "geometry": {
        "coordinates": [
          25.85840302,
          -17.95704116
        ],
        "type": "Point"
      },
      "properties": {
        "difficulty_label": "III-V",
        "display_name": "Midnight Diner",
        "feature_id": "zambezi_batoka_gorge__midnight_diner",
        "geometry_source": "physics/data/real_world/zambezi_batoka_gorge/production_corridor/boiling_pot_to_mukuni_beach/hydrography/route_stationing.json",
        "geometry_source_status": "osm_boundary_trace_low_precision_not_surveyed_centerline",
        "geometry_status": "candidate_centerline_projection_not_exact",
        "guide_review_status": "required",
        "portfolio_role": "runnable_river",
        "production_authoritative": false,
        "review_priority": "critical",
        "river_id": "zambezi_batoka_gorge",
        "station_kind": "observed_whitewater_landmarks_and_outfitter_km",
        "station_m": 7770.0
      },
      "type": "Feature"
    },
    {
      "geometry": {
        "coordinates": [
          25.85717763,
          -17.96416314
        ],
        "type": "Point"
      },
      "properties": {
        "difficulty_label": "V-VI",
        "display_name": "Commercial Suicide",
        "feature_id": "zambezi_batoka_gorge__commercial_suicide",
        "geometry_source": "physics/data/real_world/zambezi_batoka_gorge/production_corridor/boiling_pot_to_mukuni_beach/hydrography/route_stationing.json",
        "geometry_source_status": "osm_boundary_trace_low_precision_not_surveyed_centerline",
        "geometry_status": "candidate_centerline_projection_not_exact",
        "guide_review_status": "required",
        "portfolio_role": "runnable_river",
        "production_authoritative": false,
        "review_priority": "critical",
        "river_id": "zambezi_batoka_gorge",
        "station_kind": "observed_whitewater_landmarks_and_outfitter_km",
        "station_m": 8590.0
      },
      "type": "Feature"
    },
    {
      "geometry": {
        "coordinates": [
          25.86069698,
          -17.96859858
        ],
        "type": "Point"
      },
      "properties": {
        "difficulty_label": "III-IV",
        "display_name": "Gnashing Jaws of Death",
        "feature_id": "zambezi_batoka_gorge__gnashing_jaws_of_death",
        "geometry_source": "physics/data/real_world/zambezi_batoka_gorge/production_corridor/boiling_pot_to_mukuni_beach/hydrography/route_stationing.json",
        "geometry_source_status": "osm_boundary_trace_low_precision_not_surveyed_centerline",
        "geometry_status": "candidate_centerline_projection_not_exact",
        "guide_review_status": "required",
        "portfolio_role": "runnable_river",
        "production_authoritative": false,
        "review_priority": "high",
        "river_id": "zambezi_batoka_gorge",
        "station_kind": "observed_whitewater_landmarks_and_outfitter_km",
        "station_m": 9310.0
      },
      "type": "Feature"
    },
    {
      "geometry": {
        "coordinates": [
          25.858664,
          -17.97572715
        ],
        "type": "Point"
      },
      "properties": {
        "difficulty_label": "IV-V",
        "display_name": "Overland Truck Eater",
        "feature_id": "zambezi_batoka_gorge__overland_truck_eater",
        "geometry_source": "physics/data/real_world/zambezi_batoka_gorge/production_corridor/boiling_pot_to_mukuni_beach/hydrography/route_stationing.json",
        "geometry_source_status": "osm_boundary_trace_low_precision_not_surveyed_centerline",
        "geometry_status": "candidate_centerline_projection_not_exact",
        "guide_review_status": "required",
        "portfolio_role": "runnable_river",
        "production_authoritative": false,
        "review_priority": "critical",
        "river_id": "zambezi_batoka_gorge",
        "station_kind": "observed_whitewater_landmarks_and_outfitter_km",
        "station_m": 10560.0
      },
      "type": "Feature"
    },
    {
      "geometry": {
        "coordinates": [
          25.87239127,
          -17.97488883
        ],
        "type": "Point"
      },
      "properties": {
        "difficulty_label": "III",
        "display_name": "Three Ugly Sisters",
        "feature_id": "zambezi_batoka_gorge__three_ugly_sisters",
        "geometry_source": "physics/data/real_world/zambezi_batoka_gorge/production_corridor/boiling_pot_to_mukuni_beach/hydrography/route_stationing.json",
        "geometry_source_status": "osm_boundary_trace_low_precision_not_surveyed_centerline",
        "geometry_status": "candidate_centerline_projection_not_exact",
        "guide_review_status": "required",
        "portfolio_role": "runnable_river",
        "production_authoritative": false,
        "review_priority": "critical",
        "river_id": "zambezi_batoka_gorge",
        "station_kind": "observed_whitewater_landmarks_and_outfitter_km",
        "station_m": 12040.0
      },
      "type": "Feature"
    },
    {
      "geometry": {
        "coordinates": [
          25.8786879,
          -17.97503275
        ],
        "type": "Point"
      },
      "properties": {
        "difficulty_label": "IV",
        "display_name": "The Mother",
        "feature_id": "zambezi_batoka_gorge__the_mother",
        "geometry_source": "physics/data/real_world/zambezi_batoka_gorge/production_corridor/boiling_pot_to_mukuni_beach/hydrography/route_stationing.json",
        "geometry_source_status": "osm_boundary_trace_low_precision_not_surveyed_centerline",
        "geometry_status": "candidate_centerline_projection_not_exact",
        "guide_review_status": "required",
        "portfolio_role": "runnable_river",
        "production_authoritative": false,
        "review_priority": "critical",
        "river_id": "zambezi_batoka_gorge",
        "station_kind": "observed_whitewater_landmarks_and_outfitter_km",
        "station_m": 12710.0
      },
      "type": "Feature"
    },
    {
      "geometry": {
        "coordinates": [
          25.88142278,
          -17.97802778
        ],
        "type": "Point"
      },
      "properties": {
        "difficulty_label": "III",
        "display_name": "Surprise Surprise",
        "feature_id": "zambezi_batoka_gorge__surprise_surprise",
        "geometry_source": "physics/data/real_world/zambezi_batoka_gorge/production_corridor/boiling_pot_to_mukuni_beach/hydrography/route_stationing.json",
        "geometry_source_status": "osm_boundary_trace_low_precision_not_surveyed_centerline",
        "geometry_status": "candidate_centerline_projection_not_exact",
        "guide_review_status": "required",
        "portfolio_role": "runnable_river",
        "production_authoritative": false,
        "review_priority": "medium",
        "river_id": "zambezi_batoka_gorge",
        "station_kind": "observed_whitewater_landmarks_and_outfitter_km",
        "station_m": 13640.0
      },
      "type": "Feature"
    },
    {
      "geometry": {
        "coordinates": [
          25.89949318,
          -17.98218634
        ],
        "type": "Point"
      },
      "properties": {
        "difficulty_label": "IV-V",
        "display_name": "The Washing Machine",
        "feature_id": "zambezi_batoka_gorge__the_washing_machine",
        "geometry_source": "physics/data/real_world/zambezi_batoka_gorge/production_corridor/boiling_pot_to_mukuni_beach/hydrography/route_stationing.json",
        "geometry_source_status": "osm_boundary_trace_low_precision_not_surveyed_centerline",
        "geometry_status": "candidate_centerline_projection_not_exact",
        "guide_review_status": "required",
        "portfolio_role": "runnable_river",
        "production_authoritative": false,
        "review_priority": "critical",
        "river_id": "zambezi_batoka_gorge",
        "station_kind": "observed_whitewater_landmarks_and_outfitter_km",
        "station_m": 15820.0
      },
      "type": "Feature"
    },
    {
      "geometry": {
        "coordinates": [
          25.90180862,
          -17.98374447
        ],
        "type": "Point"
      },
      "properties": {
        "difficulty_label": "III",
        "display_name": "The Terminators",
        "feature_id": "zambezi_batoka_gorge__the_terminators",
        "geometry_source": "physics/data/real_world/zambezi_batoka_gorge/production_corridor/boiling_pot_to_mukuni_beach/hydrography/route_stationing.json",
        "geometry_source_status": "osm_boundary_trace_low_precision_not_surveyed_centerline",
        "geometry_status": "candidate_centerline_projection_not_exact",
        "guide_review_status": "required",
        "portfolio_role": "runnable_river",
        "production_authoritative": false,
        "review_priority": "critical",
        "river_id": "zambezi_batoka_gorge",
        "station_kind": "observed_whitewater_landmarks_and_outfitter_km",
        "station_m": 16120.0
      },
      "type": "Feature"
    },
    {
      "geometry": {
        "coordinates": [
          25.9103223,
          -17.98537967
        ],
        "type": "Point"
      },
      "properties": {
        "difficulty_label": "IV-V",
        "display_name": "Double Trouble",
        "feature_id": "zambezi_batoka_gorge__double_trouble",
        "geometry_source": "physics/data/real_world/zambezi_batoka_gorge/production_corridor/boiling_pot_to_mukuni_beach/hydrography/route_stationing.json",
        "geometry_source_status": "osm_boundary_trace_low_precision_not_surveyed_centerline",
        "geometry_status": "candidate_centerline_projection_not_exact",
        "guide_review_status": "required",
        "portfolio_role": "runnable_river",
        "production_authoritative": false,
        "review_priority": "critical",
        "river_id": "zambezi_batoka_gorge",
        "station_kind": "observed_whitewater_landmarks_and_outfitter_km",
        "station_m": 17170.0
      },
      "type": "Feature"
    },
    {
      "geometry": {
        "coordinates": [
          25.9144593,
          -17.99483929
        ],
        "type": "Point"
      },
      "properties": {
        "difficulty_label": "IV-V",
        "display_name": "Oblivion",
        "feature_id": "zambezi_batoka_gorge__oblivion",
        "geometry_source": "physics/data/real_world/zambezi_batoka_gorge/production_corridor/boiling_pot_to_mukuni_beach/hydrography/route_stationing.json",
        "geometry_source_status": "osm_boundary_trace_low_precision_not_surveyed_centerline",
        "geometry_status": "candidate_centerline_projection_not_exact",
        "guide_review_status": "required",
        "portfolio_role": "runnable_river",
        "production_authoritative": false,
        "review_priority": "critical",
        "river_id": "zambezi_batoka_gorge",
        "station_kind": "observed_whitewater_landmarks_and_outfitter_km",
        "station_m": 18370.0
      },
      "type": "Feature"
    },
    {
      "geometry": {
        "coordinates": [
          25.95026736,
          -17.99687344
        ],
        "type": "Point"
      },
      "properties": {
        "difficulty_label": "II-III",
        "display_name": "Rapid 19",
        "feature_id": "zambezi_batoka_gorge__rapid_19",
        "geometry_source": "physics/data/real_world/zambezi_batoka_gorge/production_corridor/boiling_pot_to_mukuni_beach/hydrography/route_stationing.json",
        "geometry_source_status": "osm_boundary_trace_low_precision_not_surveyed_centerline",
        "geometry_status": "candidate_centerline_projection_not_exact",
        "guide_review_status": "required",
        "portfolio_role": "runnable_river",
        "production_authoritative": false,
        "review_priority": "medium",
        "river_id": "zambezi_batoka_gorge",
        "station_kind": "observed_whitewater_landmarks_and_outfitter_km",
        "station_m": 22470.0
      },
      "type": "Feature"
    },
    {
      "geometry": {
        "coordinates": [
          25.9547528,
          -17.99621545
        ],
        "type": "Point"
      },
      "properties": {
        "difficulty_label": "II-III",
        "display_name": "Rapid 20",
        "feature_id": "zambezi_batoka_gorge__rapid_20",
        "geometry_source": "physics/data/real_world/zambezi_batoka_gorge/production_corridor/boiling_pot_to_mukuni_beach/hydrography/route_stationing.json",
        "geometry_source_status": "osm_boundary_trace_low_precision_not_surveyed_centerline",
        "geometry_status": "candidate_centerline_projection_not_exact",
        "guide_review_status": "required",
        "portfolio_role": "runnable_river",
        "production_authoritative": false,
        "review_priority": "medium",
        "river_id": "zambezi_batoka_gorge",
        "station_kind": "observed_whitewater_landmarks_and_outfitter_km",
        "station_m": 22950.0
      },
      "type": "Feature"
    },
    {
      "geometry": {
        "coordinates": [
          25.96325613,
          -17.99737216
        ],
        "type": "Point"
      },
      "properties": {
        "difficulty_label": "II-III",
        "display_name": "Rapid 21",
        "feature_id": "zambezi_batoka_gorge__rapid_21",
        "geometry_source": "physics/data/real_world/zambezi_batoka_gorge/production_corridor/boiling_pot_to_mukuni_beach/hydrography/route_stationing.json",
        "geometry_source_status": "osm_boundary_trace_low_precision_not_surveyed_centerline",
        "geometry_status": "candidate_centerline_projection_not_exact",
        "guide_review_status": "required",
        "portfolio_role": "runnable_river",
        "production_authoritative": false,
        "review_priority": "medium",
        "river_id": "zambezi_batoka_gorge",
        "station_kind": "observed_whitewater_landmarks_and_outfitter_km",
        "station_m": 23960.0
      },
      "type": "Feature"
    },
    {
      "geometry": {
        "coordinates": [
          25.96544404,
          -18.00086832
        ],
        "type": "Point"
      },
      "properties": {
        "difficulty_label": "II-III",
        "display_name": "Morning Shave",
        "feature_id": "zambezi_batoka_gorge__morning_shave",
        "geometry_source": "physics/data/real_world/zambezi_batoka_gorge/production_corridor/boiling_pot_to_mukuni_beach/hydrography/route_stationing.json",
        "geometry_source_status": "osm_boundary_trace_low_precision_not_surveyed_centerline",
        "geometry_status": "candidate_centerline_projection_not_exact",
        "guide_review_status": "required",
        "portfolio_role": "runnable_river",
        "production_authoritative": false,
        "review_priority": "medium",
        "river_id": "zambezi_batoka_gorge",
        "station_kind": "observed_whitewater_landmarks_and_outfitter_km",
        "station_m": 24470.0
      },
      "type": "Feature"
    },
    {
      "geometry": {
        "coordinates": [
          25.97183218,
          -18.00148466
        ],
        "type": "Point"
      },
      "properties": {
        "difficulty_label": "III",
        "display_name": "Morning Shower",
        "feature_id": "zambezi_batoka_gorge__morning_shower",
        "geometry_source": "physics/data/real_world/zambezi_batoka_gorge/production_corridor/boiling_pot_to_mukuni_beach/hydrography/route_stationing.json",
        "geometry_source_status": "osm_boundary_trace_low_precision_not_surveyed_centerline",
        "geometry_status": "candidate_centerline_projection_not_exact",
        "guide_review_status": "required",
        "portfolio_role": "runnable_river",
        "production_authoritative": false,
        "review_priority": "medium",
        "river_id": "zambezi_batoka_gorge",
        "station_kind": "observed_whitewater_landmarks_and_outfitter_km",
        "station_m": 25250.0
      },
      "type": "Feature"
    },
    {
      "geometry": {
        "coordinates": [
          25.99008171,
          -17.99486109
        ],
        "type": "Point"
      },
      "properties": {
        "difficulty_label": "II-III",
        "display_name": "Rapid 24",
        "feature_id": "zambezi_batoka_gorge__rapid_24",
        "geometry_source": "physics/data/real_world/zambezi_batoka_gorge/production_corridor/boiling_pot_to_mukuni_beach/hydrography/route_stationing.json",
        "geometry_source_status": "osm_boundary_trace_low_precision_not_surveyed_centerline",
        "geometry_status": "candidate_centerline_projection_not_exact",
        "guide_review_status": "required",
        "portfolio_role": "runnable_river",
        "production_authoritative": false,
        "review_priority": "medium",
        "river_id": "zambezi_batoka_gorge",
        "station_kind": "observed_whitewater_landmarks_and_outfitter_km",
        "station_m": 27450.0
      },
      "type": "Feature"
    },
    {
      "geometry": {
        "coordinates": [
          25.98807362,
          -17.98796036
        ],
        "type": "Point"
      },
      "properties": {
        "difficulty_label": "II-III",
        "display_name": "Rapid 25",
        "feature_id": "zambezi_batoka_gorge__rapid_25",
        "geometry_source": "physics/data/real_world/zambezi_batoka_gorge/production_corridor/boiling_pot_to_mukuni_beach/hydrography/route_stationing.json",
        "geometry_source_status": "osm_boundary_trace_low_precision_not_surveyed_centerline",
        "geometry_status": "candidate_centerline_projection_not_exact",
        "guide_review_status": "required",
        "portfolio_role": "runnable_river",
        "production_authoritative": false,
        "review_priority": "medium",
        "river_id": "zambezi_batoka_gorge",
        "station_kind": "observed_whitewater_landmarks_and_outfitter_km",
        "station_m": 28270.0
      },
      "type": "Feature"
    },
    {
      "geometry": {
        "coordinates": [
          -72.00129139,
          -43.31022185
        ],
        "type": "Point"
      },
      "properties": {
        "difficulty_label": "III-IV",
        "display_name": "Asleep at the Wheel",
        "feature_id": "futaleufu_river_chile__asleep_at_the_wheel",
        "geometry_source": "physics/data/real_world/futaleufu_river_chile/production_corridor/rio_azul_swinging_bridge_to_pasarela/hydrography/route_stationing.json",
        "geometry_source_status": "osm_route_trace_review_gated_not_guide_stationing",
        "geometry_status": "candidate_centerline_projection_not_exact",
        "guide_review_status": "required",
        "portfolio_role": "runnable_river",
        "production_authoritative": false,
        "review_priority": "high",
        "river_id": "futaleufu_river_chile",
        "station_kind": "provisional_downstream_order_interpolation",
        "station_m": 1666.667
      },
      "type": "Feature"
    },
    {
      "geometry": {
        "coordinates": [
          -71.98608042,
          -43.31445862
        ],
        "type": "Point"
      },
      "properties": {
        "difficulty_label": "V",
        "display_name": "Terminator",
        "feature_id": "futaleufu_river_chile__terminator",
        "geometry_source": "physics/data/real_world/futaleufu_river_chile/production_corridor/rio_azul_swinging_bridge_to_pasarela/hydrography/route_stationing.json",
        "geometry_source_status": "osm_route_trace_review_gated_not_guide_stationing",
        "geometry_status": "candidate_centerline_projection_not_exact",
        "guide_review_status": "required",
        "portfolio_role": "runnable_river",
        "production_authoritative": false,
        "review_priority": "critical",
        "river_id": "futaleufu_river_chile",
        "station_kind": "provisional_downstream_order_interpolation",
        "station_m": 3333.333
      },
      "type": "Feature"
    },
    {
      "geometry": {
        "coordinates": [
          -71.97414559,
          -43.31625981
        ],
        "type": "Point"
      },
      "properties": {
        "difficulty_label": "IV-V",
        "display_name": "Son of Terminator",
        "feature_id": "futaleufu_river_chile__son_of_terminator",
        "geometry_source": "physics/data/real_world/futaleufu_river_chile/production_corridor/rio_azul_swinging_bridge_to_pasarela/hydrography/route_stationing.json",
        "geometry_source_status": "osm_route_trace_review_gated_not_guide_stationing",
        "geometry_status": "candidate_centerline_projection_not_exact",
        "guide_review_status": "required",
        "portfolio_role": "runnable_river",
        "production_authoritative": false,
        "review_priority": "critical",
        "river_id": "futaleufu_river_chile",
        "station_kind": "provisional_downstream_order_interpolation",
        "station_m": 5000.0
      },
      "type": "Feature"
    },
    {
      "geometry": {
        "coordinates": [
          -71.9739467,
          -43.3262478
        ],
        "type": "Point"
      },
      "properties": {
        "difficulty_label": "IV+",
        "display_name": "Khyber Pass",
        "feature_id": "futaleufu_river_chile__khyber_pass",
        "geometry_source": "physics/data/real_world/futaleufu_river_chile/production_corridor/rio_azul_swinging_bridge_to_pasarela/hydrography/route_stationing.json",
        "geometry_source_status": "osm_route_trace_review_gated_not_guide_stationing",
        "geometry_status": "candidate_centerline_projection_not_exact",
        "guide_review_status": "required",
        "portfolio_role": "runnable_river",
        "production_authoritative": false,
        "review_priority": "critical",
        "river_id": "futaleufu_river_chile",
        "station_kind": "provisional_downstream_order_interpolation",
        "station_m": 6666.667
      },
      "type": "Feature"
    },
    {
      "geometry": {
        "coordinates": [
          -71.98264298,
          -43.33935226
        ],
        "type": "Point"
      },
      "properties": {
        "difficulty_label": "IV",
        "display_name": "Himalayas",
        "feature_id": "futaleufu_river_chile__himalayas",
        "geometry_source": "physics/data/real_world/futaleufu_river_chile/production_corridor/rio_azul_swinging_bridge_to_pasarela/hydrography/route_stationing.json",
        "geometry_source_status": "osm_route_trace_review_gated_not_guide_stationing",
        "geometry_status": "candidate_centerline_projection_not_exact",
        "guide_review_status": "required",
        "portfolio_role": "runnable_river",
        "production_authoritative": false,
        "review_priority": "critical",
        "river_id": "futaleufu_river_chile",
        "station_kind": "provisional_downstream_order_interpolation",
        "station_m": 8333.333
      },
      "type": "Feature"
    },
    {
      "geometry": {
        "coordinates": [
          -124.08128908,
          51.76144057
        ],
        "type": "Point"
      },
      "properties": {
        "difficulty_label": "IV (guide-published, all reviewed levels)",
        "display_name": "Bidwell Rapids",
        "feature_id": "chilko_river_lava_canyon__bidwell_rapids",
        "geometry_source": "physics/data/real_world/chilko_river_bc/production_corridor/chilko_river_lodge_to_taseko_junction/hydrography/route_stationing.json",
        "geometry_source_status": "official_fwa_stitched_centerline_source_scale_candidate_not_exact_rapid_stationing",
        "geometry_status": "candidate_centerline_projection_not_exact",
        "guide_review_status": "required",
        "portfolio_role": "runnable_river",
        "production_authoritative": false,
        "review_priority": "critical",
        "river_id": "chilko_river_lava_canyon",
        "station_kind": "provisional_downstream_order_interpolation",
        "station_m": 9307.616
      },
      "type": "Feature"
    },
    {
      "geometry": {
        "coordinates": [
          -124.02574247,
          51.82075055
        ],
        "type": "Point"
      },
      "properties": {
        "difficulty_label": "III-V (flow-dependent reach, exact feature scope pending)",
        "display_name": "Lava Canyon",
        "feature_id": "chilko_river_lava_canyon__lava_canyon",
        "geometry_source": "physics/data/real_world/chilko_river_bc/production_corridor/chilko_river_lodge_to_taseko_junction/hydrography/route_stationing.json",
        "geometry_source_status": "official_fwa_stitched_centerline_source_scale_candidate_not_exact_rapid_stationing",
        "geometry_status": "candidate_centerline_projection_not_exact",
        "guide_review_status": "required",
        "portfolio_role": "runnable_river",
        "production_authoritative": false,
        "review_priority": "critical",
        "river_id": "chilko_river_lava_canyon",
        "station_kind": "provisional_downstream_order_interpolation",
        "station_m": 18615.232
      },
      "type": "Feature"
    },
    {
      "geometry": {
        "coordinates": [
          -123.93848526,
          51.87278684
        ],
        "type": "Point"
      },
      "properties": {
        "difficulty_label": "IV-V (flow-dependent)",
        "display_name": "White Mile",
        "feature_id": "chilko_river_lava_canyon__white_mile",
        "geometry_source": "physics/data/real_world/chilko_river_bc/production_corridor/chilko_river_lodge_to_taseko_junction/hydrography/route_stationing.json",
        "geometry_source_status": "official_fwa_stitched_centerline_source_scale_candidate_not_exact_rapid_stationing",
        "geometry_status": "candidate_centerline_projection_not_exact",
        "guide_review_status": "required",
        "portfolio_role": "runnable_river",
        "production_authoritative": false,
        "review_priority": "critical",
        "river_id": "chilko_river_lava_canyon",
        "station_kind": "provisional_downstream_order_interpolation",
        "station_m": 27922.848
      },
      "type": "Feature"
    },
    {
      "geometry": {
        "coordinates": [
          -123.83243131,
          51.90410396
        ],
        "type": "Point"
      },
      "properties": {
        "difficulty_label": "guide review required",
        "display_name": "Green Mile",
        "feature_id": "chilko_river_lava_canyon__green_mile",
        "geometry_source": "physics/data/real_world/chilko_river_bc/production_corridor/chilko_river_lodge_to_taseko_junction/hydrography/route_stationing.json",
        "geometry_source_status": "official_fwa_stitched_centerline_source_scale_candidate_not_exact_rapid_stationing",
        "geometry_status": "candidate_centerline_projection_not_exact",
        "guide_review_status": "required",
        "portfolio_role": "runnable_river",
        "production_authoritative": false,
        "review_priority": "high",
        "river_id": "chilko_river_lava_canyon",
        "station_kind": "provisional_downstream_order_interpolation",
        "station_m": 37230.464
      },
      "type": "Feature"
    },
    {
      "geometry": {
        "coordinates": [
          -123.77376543,
          51.96236425
        ],
        "type": "Point"
      },
      "properties": {
        "difficulty_label": "guide review required",
        "display_name": "Miracle Canyon",
        "feature_id": "chilko_river_lava_canyon__miracle_canyon",
        "geometry_source": "physics/data/real_world/chilko_river_bc/production_corridor/chilko_river_lodge_to_taseko_junction/hydrography/route_stationing.json",
        "geometry_source_status": "official_fwa_stitched_centerline_source_scale_candidate_not_exact_rapid_stationing",
        "geometry_status": "candidate_centerline_projection_not_exact",
        "guide_review_status": "required",
        "portfolio_role": "runnable_river",
        "production_authoritative": false,
        "review_priority": "high",
        "river_id": "chilko_river_lava_canyon",
        "station_kind": "provisional_downstream_order_interpolation",
        "station_m": 46538.08
      },
      "type": "Feature"
    }
  ],
  "portfolio": {
    "additional_active_environment_count": 0,
    "additional_active_environment_river_ids": [],
    "runnable_river_count": 6,
    "runnable_river_ids": [
      "south_fork_american_chili_bar",
      "colorado_river_grand_canyon_rowing",
      "pacuare_river_costa_rica",
      "futaleufu_river_chile",
      "chilko_river_lava_canyon",
      "zambezi_batoka_gorge"
    ],
    "source": "physics/data/real_world/river_portfolio_plan.json",
    "status": "six_runnable_rivers",
    "total_river_count": 6,
    "zambezi_evidence_retained": true
  },
  "production_promoted": false,
  "schema": "raftsim.unreal.named_rapid_editor_geometry.geojson.v1",
  "source_markers": "unreal/Content/RaftSim/River/named_rapid_editor_markers.json",
  "status": "candidate_centerline_projections_for_editor_review_not_exact_geometry",
  "type": "FeatureCollection"
}
