{
  "type": "FeatureCollection",
  "features": [
    {
      "type": "Feature",
      "properties": {
        "source_fid": 480,
        "authority": "USGS_2019_2020_lidar_hydrobreakline",
        "vertical_datum": "NAVD88",
        "z_units": "metres",
        "is_bathymetry": false
      },
      "geometry": {
        "type": "Polygon",
        "coordinates": [
          [
            [
              -120.98565814776966,
              38.779871382973155,
              166.7701398780784
            ],
            [
              -120.9857367149147,
              38.77974334817252,
              166.718839878079
            ],
            [
              -120.9857412413923,
              38.7797416750504,
              166.7176398780786
            ],
            [
              -120.98578934413764,
              38.7796858961951,
              166.6930398780748
            ],
            [
              -120.9858421568161,
              38.77963220087154,
              166.66843987807547
            ],
            [
              -120.98586942300783,
              38.77956239717975,
              166.64293987807582
            ],
            [
              -120.98589951065212,
              38.779518879325096,
              166.6249398780787
            ],
            [
              -120.98591591650768,
              38.77950282121232,
              166.61743987807617
            ],
            [
              -120.98594864289252,
              38.77948185594166,
              166.60593987807678
            ],
            [
              -120.98599089188303,
              38.77945479075524,
              166.59113987807626
            ],
            [
              -120.98603385487353,
              38.77941840987085,
              166.57323987807916
            ],
            [
              -120.98614375891009,
              38.77933458322401,
              166.52773987807726
            ],
            [
              -120.98621184549322,
              38.77925634285706,
              166.46743987807486
            ],
            [
              -120.98631865133125,
              38.77912594786994,
              166.3129398780765
            ],
            [
              -120.986323324979,
              38.779120243449604,
              166.3129398780765
            ],
            [
              -120.98642352460989,
              38.77902008714711,
              166.28503987807602
            ],
            [
              -120.98660294238711,
              38.77883938906872,
              166.14143987807685
            ],
            [
              -120.98674224785279,
              38.77873726206212,
              166.04753987807655
            ],
            [
              -120.9869043866652,
              38.77865486179734,
              165.97123987807768
            ],
            [
              -120.98691966514379,
              38.778649239985754,
              165.97123987807768
            ],
            [
              -120.98694915415632,
              38.77863838975325,
              165.97123987807768
            ],
            [
              -120.98700065173827,
              38.77862164307292,
              165.9532398780761
            ],
            [
              -120.98703739607225,
              38.77860766142928,
              165.939739878076
            ],
            [
              -120.9870759021982,
              38.778597985372386,
              165.92693987807618
            ],
            [
              -120.98711798298856,
              38.77859406229431,
              165.91473987807655
            ],
            [
              -120.98713811924394,
              38.77859137752335,
              165.90873987807896
            ],
            [
              -120.9871638182764,
              38.77858302037752,
              165.89963987807593
            ],
            [
              -120.98717494383091,
              38.778571675633984,
              165.8937398780784
            ],
            [
              -120.98718068756503,
              38.77855313235891,
              165.88723987807623
            ],
            [
              -120.98719751189627,
              38.77852672423664,
              165.8757398780768
            ],
            [
              -120.98721059130206,
              38.77850619624244,
              165.86683987807828
            ],
            [
              -120.9872492206609,
              38.77848793984975,
              165.85173987807767
            ],
            [
              -120.98728091386184,
              38.77847529519094,
              165.83993987807816
            ],
            [
              -120.98728781041929,
              38.77847254445115,
              165.8373398780773
            ],
            [
              -120.98732258232356,
              38.77846855664144,
              165.8270398780783
            ],
            [
              -120.9873519566359,
              38.77845880083741,
              165.81663987807482
            ],
            [
              -120.98737781844251,
              38.77843900416028,
              165.80453987807522
            ],
            [
              -120.98740662490864,
              38.77840655708269,
              165.78823987807863
            ],
            [
              -120.98744046880383,
              38.77837906129756,
              165.77193987807763
            ],
            [
              -120.98749599174127,
              38.778321749118795,
              165.74203987807653
            ],
            [
              -120.98759156933835,
              38.77822696339893,
              165.69893987807544
            ],
            [
              -120.98762187990825,
              38.77820405941839,
              165.6852398780753
            ],
            [
              -120.98774205394837,
              38.7781608878959,
              165.6411398780783
            ],
            [
              -120.9879148917337,
              38.77809766391517,
              165.57743987807476
            ],
            [
              -120.98815410392977,
              38.7779753271218,
              165.52173987807834
            ],
            [
              -120.98819471535714,
              38.77794472423824,
              165.51923987807749
            ],
            [
              -120.9882212515864,
              38.77791260043023,
              165.51723987807682
            ],
            [
              -120.98825395405146,
              38.77788237365672,
              165.51513987807613
            ],
            [
              -120.98829761693608,
              38.777861615660655,
              165.51283987807537
            ],
            [
              -120.98833086423568,
              38.7778547421024,
              165.5114398780749
            ],
            [
              -120.98836712643131,
              38.777849203857016,
              165.5098398780788
            ],
            [
              -120.98855404963514,
              38.77780530228291,
              165.50153987807602
            ],
            [
              -120.98860853108388,
              38.77778318072226,
              165.4987398780751
            ],
            [
              -120.9887027289524,
              38.77774537668167,
              165.49613987807865
            ],
            [
              -120.98887855877659,
              38.77769743368348,
              165.48883987807622
            ],
            [
              -120.98889703411776,
              38.77769546209512,
              165.48813987807597
            ],
            [
              -120.98897760850558,
              38.77770078469294,
              165.485139878075
            ],
            [
              -120.98910130507136,
              38.777699077097694,
              165.4803398780778
            ],
            [
              -120.98922731693213,
              38.77768759642652,
              165.47543987807617
            ],
            [
              -120.98935386802835,
              38.7776576818925,
              165.47023987807887
            ],
            [
              -120.98949709864989,
              38.77761932835098,
              165.46393987807676
            ],
            [
              -120.98952121523686,
              38.77761262093065,
              165.46293987807644
            ],
            [
              -120.98961421207046,
              38.77758728717763,
              165.45903987807515
            ],
            [
              -120.98962939710168,
              38.777582378636595,
              165.45843987807493
            ],
            [
              -120.9896570582212,
              38.7775675918707,
              165.45713987807892
            ],
            [
              -120.98974660277378,
              38.77749269667365,
              165.4525398780774
            ],
            [
              -120.98983464493261,
              38.7774229236331,
              165.4480398780759
            ],
            [
              -120.98986793704867,
              38.77738636530645,
              165.44613987807526
            ],
            [
              -120.98987761178834,
              38.77736197213774,
              165.445339878075
            ],
            [
              -120.9899003622646,
              38.77730435114576,
              165.4434398780788
            ],
            [
              -120.98992997771047,
              38.77728039094005,
              165.4419398780783
            ],
            [
              -120.98996816879306,
              38.77726380466715,
              165.44023987807773
            ],
            [
              -120.99001862197545,
              38.77725337570226,
              165.43823987807704
            ],
            [
              -120.99009726147914,
              38.7772279544988,
              165.43493987807597
            ],
            [
              -120.99015506444049,
              38.77718850471028,
              165.43213987807502
            ],
            [
              -120.99022057272461,
              38.77715968441087,
              165.42913987807844
            ],
            [
              -120.99033018082399,
              38.77714314079501,
              165.42103987807573
            ],
            [
              -120.99040882010723,
              38.777117718479474,
              165.41083987807679
            ],
            [
              -120.99045016440853,
              38.77709303218826,
              165.40483987807477
            ],
            [
              -120.99048795583508,
              38.77708277580355,
              165.4000398780776
            ],
            [
              -120.9905154734737,
              38.77707953299706,
              165.3967398780765
            ],
            [
              -120.99053716610952,
              38.77708238206945,
              165.39443987807573
            ],
            [
              -120.99055358823624,
              38.777087772778344,
              165.3928398780752
            ],
            [
              -120.99058021144049,
              38.7770906241733,
              165.3900398780787
            ],
            [
              -120.99066314506523,
              38.77707125993638,
              165.3796398780752
            ],
            [
              -120.99077733813927,
              38.77702024566769,
              165.36403987807887
            ],
            [
              -120.9908051604155,
              38.77701134670444,
              165.36043987807767
            ],
            [
              -120.99092032657788,
              38.77698754071103,
              165.3360398780784
            ],
            [
              -120.99110043638585,
              38.77695642129365,
              165.29453987807784
            ],
            [
              -120.99130974007961,
              38.776926145369195,
              165.1975398780765
            ],
            [
              -120.99141561012947,
              38.77690662311691,
              165.14133987807546
            ],
            [
              -120.99155861330655,
              38.77687211024243,
              165.06343987807605
            ],
            [
              -120.99167963304389,
              38.77684169648069,
              164.92673987807476
            ],
            [
              -120.99172276584356,
              38.776824909197984,
              164.84264056461365
            ],
            [
              -120.99170619778916,
              38.777415453720685,
              165.1261495294534
            ],
            [
              -120.99163094801797,
              38.77744053836195,
              165.16883987807577
            ],
            [
              -120.99157398947096,
              38.77746292811131,
              165.20193987807795
            ],
            [
              -120.99152076694263,
              38.77747962758539,
              165.23193987807912
            ],
            [
              -120.9914382926925,
              38.77749750358767,
              165.27633987807621
            ],
            [
              -120.9913321504789,
              38.777509453895696,
              165.29763987807888
            ],
            [
              -120.99124987892795,
              38.77751303017604,
              165.31553987807598
            ],
            [
              -120.99119324585516,
              38.77751253806577,
              165.3276398780756
            ],
            [
              -120.99111283269308,
              38.777511839272115,
              165.3448398780769
            ],
            [
              -120.99111188445305,
              38.7775122355487,
              165.34503987807696
            ],
            [
              -120.9911110351466,
              38.777511823650734,
              165.34523987807705
            ],
            [
              -120.99103590889268,
              38.777526902774824,
              165.36163987807808
            ],
            [
              -120.99100641491543,
              38.77754523981457,
              165.3659398780751
            ],
            [
              -120.99096587957456,
              38.777569201780295,
              165.37173987807702
            ],
            [
              -120.99091429939683,
              38.777598788630456,
              165.37913987807505
            ],
            [
              -120.99087731520474,
              38.777629932107715,
              165.38503987807704
            ],
            [
              -120.99079806719323,
              38.77767787088011,
              165.39653987807642
            ],
            [
              -120.9907864307766,
              38.77768592943922,
              165.398239878077
            ],
            [
              -120.99073153910857,
              38.77771300626276,
              165.4058398780751
            ],
            [
              -120.99069100522259,
              38.77773360768043,
              165.411539878077
            ],
            [
              -120.99065889366766,
              38.777755524691926,
              165.41633987807862
            ],
            [
              -120.99064533450075,
              38.77777360557461,
              165.418839878075
            ],
            [
              -120.99062506753094,
              38.777783906270166,
              165.42163987807595
            ],
            [
              -120.99057582919271,
              38.777791028842195,
              165.42763987807794
            ],
            [
              -120.99049833406606,
              38.77778565755273,
              165.4304398780789
            ],
            [
              -120.99040342568274,
              38.77775332672786,
              165.4332398780754
            ],
            [
              -120.99032153458216,
              38.777740535776864,
              165.43603987807631
            ],
            [
              -120.99024686471947,
              38.77771540718642,
              165.4383398780771
            ],
            [
              -120.99020005217085,
              38.77770674839841,
              165.43983987807758
            ],
            [
              -120.99013368953179,
              38.77769907542308,
              165.44213987807836
            ],
            [
              -120.99005048452415,
              38.777688772028284,
              165.44493987807485
            ],
            [
              -120.98997577015209,
              38.77769207890685,
              165.4477398780758
            ],
            [
              -120.98993886567087,
              38.77770525554912,
              165.44933987807633
            ],
            [
              -120.98989648933272,
              38.777734985093744,
              165.45143987807703
            ],
            [
              -120.98976685435571,
              38.77780019521785,
              165.457339878079
            ],
            [
              -120.98974578683011,
              38.77781547543849,
              165.45843987807493
            ],
            [
              -120.98973803957234,
              38.777827405696485,
              165.45893987807509
            ],
            [
              -120.98962568638329,
              38.777890787612414,
              165.46413987807682
            ],
            [
              -120.98958506567614,
              38.7779204692595,
              165.4661398780775
            ],
            [
              -120.9895410371976,
              38.777932958527835,
              165.46663987807767
            ],
            [
              -120.98947516714603,
              38.77793953586069,
              165.4691398780785
            ],
            [
              -120.9894276473601,
              38.77794055289354,
              165.47103987807915
            ],
            [
              -120.98937286061023,
              38.77793864529427,
              165.47303987807538
            ],
            [
              -120.98930910131158,
              38.77792521865348,
              165.47533987807614
            ],
            [
              -120.9892653177782,
              38.77792054634471,
              165.47693987807668
            ],
            [
              -120.98921599085143,
              38.77792011688155,
              165.4788398780773
            ],
            [
              -120.9891775237243,
              38.77792693353174,
              165.4803398780778
            ],
            [
              -120.98914811038921,
              38.77793954990499,
              165.48163987807825
            ],
            [
              -120.98911680861761,
              38.77795643915205,
              165.4830398780787
            ],
            [
              -120.98907273938808,
              38.777971788339634,
              165.48493987807493
            ],
            [
              -120.98902873111841,
              38.77798284691481,
              165.48673987807553
            ],
            [
              -120.98899030458931,
              38.777986803406115,
              165.488239878076
            ],
            [
              -120.9889501545264,
              38.777983592396,
              165.4897398780765
            ],
            [
              -120.9889302827451,
              38.77796768730243,
              165.4902398780767
            ],
            [
              -120.98892508602813,
              38.77794761888727,
              165.4902398780767
            ],
            [
              -120.98890870430334,
              38.777943185988875,
              165.49073987807685
            ],
            [
              -120.9888935763532,
              38.77794220736007,
              165.49133987807704
            ],
            [
              -120.98888314800311,
              38.7779415327321,
              165.4917398780772
            ],
            [
              -120.98883920071307,
              38.777948300639835,
              165.49343987807774
            ],
            [
              -120.98882056029697,
              38.77795313573732,
              165.49423987807802
            ],
            [
              -120.98878051735616,
              38.77796352242823,
              165.4959398780786
            ],
            [
              -120.98875296977202,
              38.77797329450258,
              165.49703987807897
            ],
            [
              -120.98873267109872,
              38.77798742084163,
              165.50023987807558
            ],
            [
              -120.98871401580327,
              38.77801443126953,
              165.5018398780761
            ],
            [
              -120.98869174732015,
              38.77803855157033,
              165.50333987807662
            ],
            [
              -120.98866038323183,
              38.7780597321805,
              165.50523987807725
            ],
            [
              -120.98862532698847,
              38.77808373836542,
              165.5072398780779
            ],
            [
              -120.98860482376733,
              38.7781121660562,
              165.50883987807845
            ],
            [
              -120.98859158982071,
              38.778143515722874,
              165.51033987807895
            ],
            [
              -120.98856737177118,
              38.778176200368506,
              165.51223987807515
            ],
            [
              -120.98855064434711,
              38.77819607779077,
              165.51343987807556
            ],
            [
              -120.98850474851315,
              38.77821141085077,
              165.51563987807629
            ],
            [
              -120.98846626199476,
              38.77821965597228,
              165.51733987807685
            ],
            [
              -120.98840404539749,
              38.77822626453327,
              165.51993987807774
            ],
            [
              -120.98834371611778,
              38.778228600182246,
              165.5222398780785
            ],
            [
              -120.98827063743207,
              38.77822796334038,
              165.52493987807497
            ],
            [
              -120.9882066973361,
              38.778227405197754,
              165.52733987807576
            ],
            [
              -120.98815000153266,
              38.77823120218815,
              165.53903987807524
            ],
            [
              -120.98808764363814,
              38.77824782137774,
              165.560639878078
            ],
            [
              -120.98804907336148,
              38.778261787434595,
              165.57483987807834
            ],
            [
              -120.98785598678332,
              38.778348778185006,
              165.64953987807667
            ],
            [
              -120.98770707013836,
              38.7784132710622,
              165.7103398780748
            ],
            [
              -120.9877049802785,
              38.778413898805894,
              165.71103987807504
            ],
            [
              -120.9876052153487,
              38.77847836245642,
              165.7546398780763
            ],
            [
              -120.98751530167301,
              38.77856018365812,
              165.8002398780782
            ],
            [
              -120.9874725782733,
              38.77858798942162,
              165.8190398780756
            ],
            [
              -120.9872696619678,
              38.77867910892646,
              165.8971398780751
            ],
            [
              -120.98710901412431,
              38.778772737477425,
              165.97123987807768
            ],
            [
              -120.98707469538573,
              38.7787927395975,
              165.97123987807768
            ],
            [
              -120.98689599397724,
              38.77896412362825,
              166.10073987807658
            ],
            [
              -120.98668189500663,
              38.77913671019183,
              166.25213987807834
            ],
            [
              -120.98665092067111,
              38.779163095636,
              166.27473987807704
            ],
            [
              -120.98663773988963,
              38.77918037843624,
              166.28713987807674
            ],
            [
              -120.98662044891194,
              38.77921786474067,
              166.3129398780765
            ],
            [
              -120.98661951780295,
              38.77921988280372,
              166.3129398780765
            ],
            [
              -120.98658797275564,
              38.779266126044114,
              166.3455398780785
            ],
            [
              -120.98656613240951,
              38.779281606163465,
              166.360339878079
            ],
            [
              -120.98652846553648,
              38.77929301466113,
              166.3784398780762
            ],
            [
              -120.98647753790563,
              38.77932755586762,
              166.41213987807856
            ],
            [
              -120.98644330638682,
              38.77936394196996,
              166.44103987807492
            ],
            [
              -120.98640119298491,
              38.77942544833831,
              166.48463987807617
            ],
            [
              -120.98637043335738,
              38.77952454780844,
              166.5529398780768
            ],
            [
              -120.98634945583868,
              38.77955070873389,
              166.5641398780761
            ],
            [
              -120.98629464616897,
              38.77959870468479,
              166.587339878075
            ],
            [
              -120.98626181728817,
              38.77962993434912,
              166.60203987807546
            ],
            [
              -120.986225561778,
              38.7796740957562,
              166.6211398780774
            ],
            [
              -120.98620985680708,
              38.77972012134697,
              166.6376398780785
            ],
            [
              -120.98618130743617,
              38.779774912531465,
              166.6588398780767
            ],
            [
              -120.98616707651556,
              38.77980222426643,
              166.66933987807576
            ],
            [
              -120.98615662720385,
              38.77983724224102,
              166.68163987807543
            ],
            [
              -120.98615294732242,
              38.77986115951634,
              166.68953987807808
            ],
            [
              -120.98615345597753,
              38.779861407209346,
              166.68953987807808
            ],
            [
              -120.98615266317604,
              38.7798630066434,
              166.69013987807827
            ],
            [
              -120.98615233016179,
              38.77986367943246,
              166.69033987807836
            ],
            [
              -120.986136523654,
              38.77989558475826,
              166.702539878078
            ],
            [
              -120.98610690628178,
              38.779922500846055,
              166.71543987807786
            ],
            [
              -120.98607003995699,
              38.77994506068837,
              166.72803987807762
            ],
            [
              -120.98602950042215,
              38.77996902181675,
              166.74173987807777
            ],
            [
              -120.98598900165743,
              38.77999012103399,
              166.75453987807762
            ],
            [
              -120.98595028846195,
              38.7800140971858,
              166.7678398780776
            ],
            [
              -120.98590231986323,
              38.78004657383404,
              166.785239878079
            ],
            [
              -120.9858708124985,
              38.780077763580394,
              166.7874398780753
            ],
            [
              -120.9858301505121,
              38.78011030312312,
              166.79113987807654
            ],
            [
              -120.98578762016214,
              38.78014568768231,
              166.7958398780781
            ],
            [
              -120.98575239877026,
              38.78018113517832,
              166.80023987807513
            ],
            [
              -120.98570432801675,
              38.78022076153194,
              166.8055398780769
            ],
            [
              -120.98565083462081,
              38.78025605026118,
              166.8109398780787
            ],
            [
              -120.98562866813013,
              38.780270351074265,
              166.81313172150274
            ],
            [
              -120.98563947510056,
              38.77988635655251,
              166.77990551747027
            ],
            [
              -120.98565814776966,
              38.779871382973155,
              166.7701398780784
            ]
          ]
        ]
      }
    }
  ]
}