{
  "type": "FeatureCollection",
  "features": [
    {
      "type": "Feature",
      "properties": {
        "source_fid": 395,
        "authority": "USGS_2019_2020_lidar_hydrobreakline",
        "vertical_datum": "NAVD88",
        "z_units": "metres",
        "is_bathymetry": false
      },
      "geometry": {
        "type": "Polygon",
        "coordinates": [
          [
            [
              -120.85439592451856,
              38.78235007293729,
              248.76113987807602
            ],
            [
              -120.85452968876409,
              38.78236474117677,
              248.7493398780765
            ],
            [
              -120.85467341226914,
              38.7823661591116,
              248.73673987807675
            ],
            [
              -120.85479274490523,
              38.78236924357824,
              248.72613987807765
            ],
            [
              -120.85491432975556,
              38.78238379123445,
              248.71413987807807
            ],
            [
              -120.8550674281456,
              38.78240818604506,
              248.68423987807697
            ],
            [
              -120.85514263588165,
              38.782427997094466,
              248.66943987807645
            ],
            [
              -120.85524732207838,
              38.782432843061784,
              248.6493398780786
            ],
            [
              -120.85530834473568,
              38.782425816438064,
              248.6379398780748
            ],
            [
              -120.85535971511086,
              38.782412974520774,
              248.62853987807608
            ],
            [
              -120.85543045135812,
              38.782407950900875,
              248.6152398780761
            ],
            [
              -120.85551080804042,
              38.782410649473924,
              248.5998398780754
            ],
            [
              -120.85564216691705,
              38.782423387218266,
              248.53143987807914
            ],
            [
              -120.85578308613087,
              38.78244766013335,
              248.44183987807583
            ],
            [
              -120.85578376132861,
              38.78244861908632,
              248.44133987807567
            ],
            [
              -120.85578483151632,
              38.78244870801578,
              248.44063987807542
            ],
            [
              -120.85583789888815,
              38.78245923780271,
              248.40673987807742
            ],
            [
              -120.85588663234708,
              38.782471215018795,
              248.3753398780758
            ],
            [
              -120.85593695573047,
              38.782487752246894,
              248.37373987807527
            ],
            [
              -120.85598706960857,
              38.78249455898748,
              248.34013987807734
            ],
            [
              -120.85606777838622,
              38.782509510788415,
              248.28143987807547
            ],
            [
              -120.85621843819337,
              38.782537423462415,
              248.1718398780788
            ],
            [
              -120.85627194156291,
              38.78256308060222,
              248.12883987807774
            ],
            [
              -120.85631256097474,
              38.782579168898444,
              248.1085398780754
            ],
            [
              -120.8563496036944,
              38.78259134608376,
              248.08483987807634
            ],
            [
              -120.85664612213054,
              38.78262302114495,
              247.69893987807606
            ],
            [
              -120.85671212409612,
              38.782633403121565,
              247.61073987807765
            ],
            [
              -120.85678124559203,
              38.78265136479294,
              247.51353987807624
            ],
            [
              -120.85682461793246,
              38.78266941974974,
              247.4977398780754
            ],
            [
              -120.85690824036793,
              38.7827084368534,
              247.4134398780783
            ],
            [
              -120.8570423986775,
              38.78277372293313,
              247.27463987807627
            ],
            [
              -120.85714487464803,
              38.782831632680626,
              247.2004398780781
            ],
            [
              -120.85718423158104,
              38.782862845009745,
              247.16783987807608
            ],
            [
              -120.85728340092956,
              38.78291723813127,
              247.07353987807565
            ],
            [
              -120.85739078790617,
              38.78296968761897,
              246.9752398780783
            ],
            [
              -120.85745737951407,
              38.78301547578231,
              246.9064398780775
            ],
            [
              -120.85755658058807,
              38.783134782027204,
              246.82373987807648
            ],
            [
              -120.85758298056729,
              38.78318311710159,
              246.73643987807836
            ],
            [
              -120.85763494284551,
              38.783240859990016,
              246.61473987807764
            ],
            [
              -120.85772020329445,
              38.78332108289197,
              246.48153987807748
            ],
            [
              -120.85774552931193,
              38.78334119068191,
              246.4806398780772
            ],
            [
              -120.85777748847012,
              38.783377594238424,
              246.35883987807642
            ],
            [
              -120.85780826911592,
              38.78342760847112,
              246.20453987807812
            ],
            [
              -120.85786801684046,
              38.78353506897876,
              245.87933987807594
            ],
            [
              -120.85793487358885,
              38.783626405808924,
              245.74473987807534
            ],
            [
              -120.85799939186175,
              38.78374754716171,
              245.6069398780781
            ],
            [
              -120.8580153226186,
              38.783778872029984,
              245.57153987807516
            ],
            [
              -120.85803375826434,
              38.78383391727144,
              245.51183987807738
            ],
            [
              -120.85803935553642,
              38.78387129124294,
              245.48243987807643
            ],
            [
              -120.85807555569795,
              38.78399336578049,
              245.41003987807886
            ],
            [
              -120.85810237448285,
              38.78407057650821,
              245.3601398780755
            ],
            [
              -120.85810899428385,
              38.78412578301279,
              245.32613987807747
            ],
            [
              -120.85812452250447,
              38.78418857118715,
              245.3121398780772
            ],
            [
              -120.85814025941555,
              38.784261090708995,
              245.27843987807483
            ],
            [
              -120.8581472974034,
              38.78434517388522,
              245.2267398780753
            ],
            [
              -120.85815252439518,
              38.78437765568329,
              245.20673987807749
            ],
            [
              -120.85816191360654,
              38.78446642707106,
              245.16583987807715
            ],
            [
              -120.85815585353691,
              38.78453402118079,
              245.07653987807836
            ],
            [
              -120.85814285103416,
              38.78458801032401,
              245.00403987807633
            ],
            [
              -120.85813582241154,
              38.78460608891889,
              244.97933987807693
            ],
            [
              -120.85813264339431,
              38.78464156476886,
              244.93473987807536
            ],
            [
              -120.85813541321865,
              38.784657963068604,
              244.93473987807536
            ],
            [
              -120.85814537569804,
              38.78470478852404,
              244.9125398780768
            ],
            [
              -120.85814446213735,
              38.78476606807591,
              244.78223987807763
            ],
            [
              -120.85812636036508,
              38.78486020539786,
              244.57313987807876
            ],
            [
              -120.85810348828176,
              38.7849406600084,
              244.139939878076
            ],
            [
              -120.85806279730731,
              38.785024777380166,
              243.8599398780756
            ],
            [
              -120.85803711861628,
              38.785078929234615,
              243.68033987807772
            ],
            [
              -120.85802051382004,
              38.78510433561231,
              243.67583987807623
            ],
            [
              -120.85792105225123,
              38.78522985706178,
              243.6531398780775
            ],
            [
              -120.85790126836628,
              38.785246141623276,
              243.65013987807652
            ],
            [
              -120.85786939311741,
              38.78525513662194,
              243.64843987807595
            ],
            [
              -120.85780267335159,
              38.78527373705287,
              243.64483987807475
            ],
            [
              -120.8577718034495,
              38.785294744295065,
              243.6410398780779
            ],
            [
              -120.8577567897472,
              38.78532471065219,
              243.6356398780761
            ],
            [
              -120.8577566257377,
              38.78535162384822,
              243.63183987807483
            ],
            [
              -120.85778064212846,
              38.78539311796422,
              243.6295398780785
            ],
            [
              -120.85781118289844,
              38.785425939802884,
              243.62763987807787
            ],
            [
              -120.85782072342252,
              38.78545330253895,
              243.62613987807737
            ],
            [
              -120.85782682629596,
              38.78547539246533,
              243.62493987807696
            ],
            [
              -120.85787807904151,
              38.78564066313991,
              243.61573987807833
            ],
            [
              -120.85789410647101,
              38.78586462976503,
              243.51453987807557
            ],
            [
              -120.85789589822588,
              38.78587885044582,
              243.50505429957
            ],
            [
              -120.85733851372822,
              38.7858686274113,
              243.51442407449412
            ],
            [
              -120.85732467821921,
              38.78582894625207,
              243.53493987807795
            ],
            [
              -120.85732750743854,
              38.78580667392313,
              243.54643987807736
            ],
            [
              -120.85733630237227,
              38.785780127665774,
              243.5601398780775
            ],
            [
              -120.85733956516073,
              38.78577579199905,
              243.56233987807823
            ],
            [
              -120.8573528857565,
              38.785745188280934,
              243.57813987807907
            ],
            [
              -120.85736214602414,
              38.78569906187388,
              243.60193987807816
            ],
            [
              -120.8573760624064,
              38.78558379327009,
              243.61923987807506
            ],
            [
              -120.85737777109829,
              38.78552479372846,
              243.62243987807614
            ],
            [
              -120.85740992930805,
              38.785425323413605,
              243.62793987807797
            ],
            [
              -120.85744204066934,
              38.785289209421215,
              243.6407398780778
            ],
            [
              -120.85746227263886,
              38.78515553720088,
              243.66443987807685
            ],
            [
              -120.85747702998535,
              38.785079192248105,
              243.67803987807696
            ],
            [
              -120.85749496852162,
              38.78501197092791,
              243.76403987807907
            ],
            [
              -120.8575282957558,
              38.784897599652915,
              244.13943987807582
            ],
            [
              -120.85753629065302,
              38.784838580879146,
              244.33083987807765
            ],
            [
              -120.85754704846968,
              38.78479501976576,
              244.42493987807805
            ],
            [
              -120.85757462587684,
              38.78472923838917,
              244.55953987807865
            ],
            [
              -120.85760205778755,
              38.78465273253491,
              244.73613987807553
            ],
            [
              -120.85762626499083,
              38.78453046120763,
              245.00803987807765
            ],
            [
              -120.85762958420088,
              38.78450913427758,
              245.03643987807828
            ],
            [
              -120.85762693422646,
              38.78444543396062,
              245.119539878075
            ],
            [
              -120.85761997637084,
              38.784412013439926,
              245.16233987807598
            ],
            [
              -120.85759591474778,
              38.7843338738266,
              245.24363987807652
            ],
            [
              -120.85757545272742,
              38.78428431875246,
              245.27433987807788
            ],
            [
              -120.85755838170844,
              38.78425361596811,
              245.29353987807545
            ],
            [
              -120.85753834151643,
              38.784223522733505,
              245.34183987807828
            ],
            [
              -120.85751564474386,
              38.78417135364026,
              245.37613987807643
            ],
            [
              -120.8575099293635,
              38.784151165796075,
              245.3890398780763
            ],
            [
              -120.85747034148326,
              38.78401023700844,
              245.48973987807886
            ],
            [
              -120.85743259904024,
              38.78392024774455,
              245.5894398780767
            ],
            [
              -120.85737975091307,
              38.78378693294249,
              245.7361398780769
            ],
            [
              -120.85731644978196,
              38.78368753489636,
              246.05293987807627
            ],
            [
              -120.8572393853647,
              38.78358879777932,
              246.373839878077
            ],
            [
              -120.8571917472386,
              38.78354755933627,
              246.58133987807534
            ],
            [
              -120.85705790839907,
              38.78345720691196,
              246.81643987807848
            ],
            [
              -120.85692512911822,
              38.78338675040902,
              247.02043987807565
            ],
            [
              -120.85685677445812,
              38.78336414390449,
              247.0766398780767
            ],
            [
              -120.85680289628111,
              38.78335566887056,
              247.11543987807633
            ],
            [
              -120.85672090715991,
              38.7833578580681,
              247.16553987807532
            ],
            [
              -120.85664133132786,
              38.783361436805876,
              247.26723987807824
            ],
            [
              -120.85658797897176,
              38.78335512461246,
              247.3118398780754
            ],
            [
              -120.85650480639924,
              38.783331405251104,
              247.38883987807895
            ],
            [
              -120.85639307245367,
              38.78330305293689,
              247.54533987807798
            ],
            [
              -120.85632651869325,
              38.78329473842315,
              247.63273987807614
            ],
            [
              -120.85628308106801,
              38.78329182301486,
              247.6881398780769
            ],
            [
              -120.85623165791863,
              38.783283151167815,
              247.7572398780778
            ],
            [
              -120.85619102573047,
              38.78327126923258,
              247.815239878075
            ],
            [
              -120.85613948597823,
              38.783232988452006,
              247.9047398780783
            ],
            [
              -120.85608301300915,
              38.783207939866905,
              247.99123987807613
            ],
            [
              -120.85597504528718,
              38.7831812567662,
              248.1685398780777
            ],
            [
              -120.85588924686992,
              38.783145129402364,
              248.23623987807812
            ],
            [
              -120.85579315831686,
              38.78311600360967,
              248.30913987807585
            ],
            [
              -120.85568096095453,
              38.783059829368504,
              248.44043987807535
            ],
            [
              -120.85560910219782,
              38.78303814348667,
              248.48713987807764
            ],
            [
              -120.85553459283892,
              38.783022524520604,
              248.5347398780758
            ],
            [
              -120.8554280060373,
              38.782990670482484,
              248.59943987807523
            ],
            [
              -120.85530978022666,
              38.78294642441659,
              248.62323987807875
            ],
            [
              -120.85524139776602,
              38.78293025122452,
              248.6366398780788
            ],
            [
              -120.85520120309116,
              38.782923176189534,
              248.644539878077
            ],
            [
              -120.85512447963912,
              38.782920981726974,
              248.65913987807744
            ],
            [
              -120.85507678933094,
              38.78292356203589,
              248.668139878076
            ],
            [
              -120.85499241645856,
              38.782918909051745,
              248.684339878077
            ],
            [
              -120.85491456922125,
              38.782905583906434,
              248.69953987807764
            ],
            [
              -120.85486524949064,
              38.78290105762175,
              248.70903987807637
            ],
            [
              -120.85477414282069,
              38.782895345219245,
              248.72703987807796
            ],
            [
              -120.85464601526192,
              38.78290212761727,
              248.73833987807728
            ],
            [
              -120.85456243678233,
              38.7828997543399,
              248.7457398780753
            ],
            [
              -120.85449450425052,
              38.78289661010475,
              248.75173987807733
            ],
            [
              -120.85443330555754,
              38.7828945251146,
              248.75713987807913
            ],
            [
              -120.85429764865475,
              38.78289796781121,
              248.76903987807867
            ],
            [
              -120.85428691185301,
              38.78289727339806,
              248.76998954195284
            ],
            [
              -120.85430334593255,
              38.78234915938241,
              248.7692709947726
            ],
            [
              -120.85439592451856,
              38.78235007293729,
              248.76113987807602
            ]
          ]
        ]
      }
    }
  ]
}