{
  "type": "FeatureCollection",
  "features": [
    {
      "type": "Feature",
      "properties": {
        "source_fid": 395,
        "authority": "USGS_2019_2020_lidar_hydrobreakline",
        "vertical_datum": "NAVD88",
        "z_units": "metres",
        "is_bathymetry": false
      },
      "geometry": {
        "type": "Polygon",
        "coordinates": [
          [
            [
              -120.84933336381314,
              38.77156800910049,
              260.12313987807886
            ],
            [
              -120.84935239437812,
              38.771586090535266,
              260.1230398780788
            ],
            [
              -120.84937932856448,
              38.771590329787955,
              260.12313987807886
            ],
            [
              -120.84941851806666,
              38.77157494536884,
              260.12453987807487
            ],
            [
              -120.84943909642662,
              38.771560943215796,
              260.1273398780758
            ],
            [
              -120.84949254760652,
              38.77154995890167,
              260.1306398780769
            ],
            [
              -120.84951789139913,
              38.77154963708546,
              260.1315398780772
            ],
            [
              -120.8495616826423,
              38.771574848917936,
              260.1289398780763
            ],
            [
              -120.84956724558437,
              38.77159081115776,
              260.1266398780756
            ],
            [
              -120.84957402094268,
              38.77162851623733,
              260.12313987807886
            ],
            [
              -120.84957682373694,
              38.77165482101374,
              260.1221398780785
            ],
            [
              -120.84956159972177,
              38.77167505404483,
              260.11843987807725
            ],
            [
              -120.84952517149559,
              38.771680096888396,
              260.1161398780765
            ],
            [
              -120.84948397438342,
              38.77167145753371,
              260.1157398780764
            ],
            [
              -120.84945327506105,
              38.771665548472676,
              260.1153398780762
            ],
            [
              -120.84943466280092,
              38.77166692803744,
              260.1143398780759
            ],
            [
              -120.84942023391345,
              38.77168944291989,
              260.110339878079
            ],
            [
              -120.84942541995296,
              38.771722587882394,
              260.1055398780774
            ],
            [
              -120.84943299043515,
              38.771762573939,
              260.09973987807547
            ],
            [
              -120.8494360017837,
              38.77179860920417,
              260.09483987807823
            ],
            [
              -120.8494249599598,
              38.771839975723886,
              260.09393987807795
            ],
            [
              -120.84937472960178,
              38.77189672667097,
              260.0829398780787
            ],
            [
              -120.84936188988463,
              38.771923802572665,
              260.0783398780772
            ],
            [
              -120.8493270921555,
              38.771970050979945,
              260.06973987807874
            ],
            [
              -120.84929011851547,
              38.77201918966595,
              260.0623398780763
            ],
            [
              -120.84925670136258,
              38.77206026769329,
              260.0505398780768
            ],
            [
              -120.84919814758494,
              38.77211139883798,
              259.97953987807523
            ],
            [
              -120.8491427699055,
              38.77217165018849,
              259.9026398780762
            ],
            [
              -120.84907196158852,
              38.77224240491598,
              259.80933987807606
            ],
            [
              -120.84894397853786,
              38.77235911844741,
              259.6258398780769
            ],
            [
              -120.84891443986396,
              38.7723875837489,
              259.5739398780772
            ],
            [
              -120.84886174614891,
              38.77242866782268,
              259.4920398780765
            ],
            [
              -120.84882883394101,
              38.77244875598511,
              259.44713987807484
            ],
            [
              -120.8487925659553,
              38.772470893846624,
              259.397639878076
            ],
            [
              -120.84873716857808,
              38.77251994965377,
              259.3050398780762
            ],
            [
              -120.84871092987476,
              38.77254873683617,
              259.25493987807715
            ],
            [
              -120.84861895753812,
              38.772640943744,
              259.13513987807704
            ],
            [
              -120.84855934902623,
              38.772689702731654,
              259.0728398780784
            ],
            [
              -120.84852325289445,
              38.772712160249355,
              259.0402398780764
            ],
            [
              -120.8484313712619,
              38.77276013054505,
              258.9641398780776
            ],
            [
              -120.84833458056931,
              38.77282717825645,
              258.87193987807785
            ],
            [
              -120.84830001629226,
              38.77285900903329,
              258.83323987807825
            ],
            [
              -120.84824621071768,
              38.77292280276828,
              258.76243987807675
            ],
            [
              -120.84815026371186,
              38.773003609844324,
              258.6605398780782
            ],
            [
              -120.84806539893593,
              38.773079693238486,
              258.566939878078
            ],
            [
              -120.84801897437276,
              38.773126171849626,
              258.54183987807846
            ],
            [
              -120.84798212626113,
              38.773149911895025,
              258.5144398780782
            ],
            [
              -120.84793160739727,
              38.773195211944675,
              258.4702398780767
            ],
            [
              -120.84791030914747,
              38.77321908016319,
              258.44913987807854
            ],
            [
              -120.84782879109743,
              38.77327737137886,
              258.38543987807503
            ],
            [
              -120.84777182447183,
              38.773333061946055,
              258.3333398780754
            ],
            [
              -120.84769624498318,
              38.77339013357252,
              258.27263987807726
            ],
            [
              -120.84759531975999,
              38.77344752563928,
              258.1431398780784
            ],
            [
              -120.84749476941361,
              38.77348773578861,
              258.00443987807637
            ],
            [
              -120.8474617984652,
              38.77350024242422,
              257.9596398780747
            ],
            [
              -120.84742166466687,
              38.77352380912528,
              257.8965398780758
            ],
            [
              -120.8474019575803,
              38.773541016136946,
              257.8596398780768
            ],
            [
              -120.84732499788501,
              38.77360325786766,
              257.72593987807653
            ],
            [
              -120.84721482723803,
              38.773716308370254,
              257.7177398780782
            ],
            [
              -120.84712761769214,
              38.77382219814478,
              257.7106398780758
            ],
            [
              -120.84702949221682,
              38.773905892735584,
              257.69043987807794
            ],
            [
              -120.84696855104467,
              38.773950181605706,
              257.64753987807694
            ],
            [
              -120.84693927314896,
              38.77397574615625,
              257.6248398780782
            ],
            [
              -120.84692952830828,
              38.77399911451169,
              257.6102398780778
            ],
            [
              -120.84690318437221,
              38.774026362334006,
              257.5879398780748
            ],
            [
              -120.84688468840073,
              38.77403827651735,
              257.5756398780751
            ],
            [
              -120.84681488619646,
              38.77405814272438,
              257.54103987807684
            ],
            [
              -120.84674054595514,
              38.774113432266894,
              257.48813987807694
            ],
            [
              -120.8466935331266,
              38.774146549785904,
              257.46073987807665
            ],
            [
              -120.8466566583609,
              38.774179540071884,
              257.45603987807505
            ],
            [
              -120.84662975557649,
              38.77420461730677,
              257.4525398780783
            ],
            [
              -120.84657680369483,
              38.77425059804695,
              257.44593987807616
            ],
            [
              -120.84655684972957,
              38.77429379477116,
              257.44113987807896
            ],
            [
              -120.84651301058717,
              38.77440543330891,
              257.3387398780758
            ],
            [
              -120.8464730945208,
              38.77448656782719,
              257.25133987807766
            ],
            [
              -120.84643976705458,
              38.77453258854702,
              257.2088398780768
            ],
            [
              -120.84639953307412,
              38.77457292142144,
              257.13203987807776
            ],
            [
              -120.84635900133715,
              38.77463012154588,
              256.9244398780749
            ],
            [
              -120.84633490775842,
              38.77468883103433,
              256.8884398780762
            ],
            [
              -120.84632641739614,
              38.77471012431482,
              256.8754398780763
            ],
            [
              -120.84628968938743,
              38.7748056398295,
              256.817139878079
            ],
            [
              -120.84626283377976,
              38.77487469174713,
              256.77503987807825
            ],
            [
              -120.84624547299619,
              38.774934460974784,
              256.7461398780775
            ],
            [
              -120.84623442996644,
              38.7749758280932,
              256.73793987807915
            ],
            [
              -120.84622058523713,
              38.77499089035991,
              256.7347398780781
            ],
            [
              -120.84619444393411,
              38.774988930454,
              256.7342398780779
            ],
            [
              -120.8461407406293,
              38.7749535354521,
              256.7372398780789
            ],
            [
              -120.84611321952428,
              38.774956746760004,
              256.73793987807915
            ],
            [
              -120.8460779996249,
              38.774983531379696,
              256.73503987807817
            ],
            [
              -120.84606515809591,
              38.77501060691026,
              256.7263398780753
            ],
            [
              -120.84604976507079,
              38.77505775448984,
              256.7169398780766
            ],
            [
              -120.84602943399176,
              38.775118133832606,
              256.704839878077
            ],
            [
              -120.84601521146965,
              38.77515037877506,
              256.6704398780788
            ],
            [
              -120.84601366319745,
              38.7751824641074,
              256.6208398780755
            ],
            [
              -120.84600935299034,
              38.77522489007612,
              256.5547398780756
            ],
            [
              -120.84601692192516,
              38.775264876344686,
              256.4951398780779
            ],
            [
              -120.84601804538359,
              38.77538682521196,
              256.3083398780776
            ],
            [
              -120.8460220595547,
              38.77543487294874,
              256.23543987807545
            ],
            [
              -120.84601226739302,
              38.77553462840577,
              256.08023987807684
            ],
            [
              -120.8460073713092,
              38.775584505683305,
              256.0026398780775
            ],
            [
              -120.84601138433351,
              38.775632553408236,
              255.92983987807537
            ],
            [
              -120.84599757909162,
              38.775684262038794,
              255.91893987807617
            ],
            [
              -120.8459679223972,
              38.775727009040466,
              255.86843987807703
            ],
            [
              -120.84594420471572,
              38.775768535732,
              255.82093987807892
            ],
            [
              -120.84591258108767,
              38.7758239052468,
              255.7576398780755
            ],
            [
              -120.84589342371284,
              38.775869381966295,
              255.70773987807658
            ],
            [
              -120.84587606237612,
              38.775929151134065,
              255.64453987807767
            ],
            [
              -120.84587078839395,
              38.77599621200385,
              255.57813987807765
            ],
            [
              -120.84585660636523,
              38.77606510332627,
              255.46953987807686
            ],
            [
              -120.84584200695758,
              38.77611453095509,
              255.3996398780757
            ],
            [
              -120.84583690259281,
              38.7761546777344,
              255.23703987807903
            ],
            [
              -120.84584000633788,
              38.77616928153796,
              255.2172673019102
            ],
            [
              -120.84526945922745,
              38.77615875888695,
              255.21391642461091
            ],
            [
              -120.84527106232954,
              38.776125624310794,
              255.25903987807752
            ],
            [
              -120.84526830186373,
              38.77610126589103,
              255.29213987807526
            ],
            [
              -120.84525485264122,
              38.77607910486958,
              255.30173987807848
            ],
            [
              -120.84524674779763,
              38.77605584559848,
              255.30173987807848
            ],
            [
              -120.84524672377181,
              38.776033857759664,
              255.30453987807496
            ],
            [
              -120.84525073956104,
              38.77601250653218,
              255.3339398780759
            ],
            [
              -120.84526057816593,
              38.775991424947094,
              255.36503987807743
            ],
            [
              -120.84528110779361,
              38.77596814688492,
              255.40253987807665
            ],
            [
              -120.84529260315102,
              38.775940861642,
              255.44233987807664
            ],
            [
              -120.84530480187027,
              38.775904633391306,
              255.49403987807617
            ],
            [
              -120.84530643460612,
              38.77587644099606,
              255.53163987807542
            ],
            [
              -120.84530332417887,
              38.77585655409705,
              255.54373987807503
            ],
            [
              -120.84529700234478,
              38.77583292785985,
              255.5583398780755
            ],
            [
              -120.84529567260539,
              38.77581267486949,
              255.57743987807743
            ],
            [
              -120.84531085666978,
              38.77579049504063,
              255.6036398780773
            ],
            [
              -120.84531891337863,
              38.77576978043094,
              255.62613987807595
            ],
            [
              -120.84532210075103,
              38.77575153102841,
              255.64473987807773
            ],
            [
              -120.84532719616209,
              38.7757387540335,
              255.65873987807797
            ],
            [
              -120.84533964490242,
              38.77571420543397,
              255.68623987807828
            ],
            [
              -120.8453504380283,
              38.77569586050066,
              255.70733987807645
            ],
            [
              -120.84535184354425,
              38.77567797807849,
              255.72503987807792
            ],
            [
              -120.84534564561822,
              38.775660190308685,
              255.7403398780786
            ],
            [
              -120.8453572671118,
              38.77563874354661,
              255.76463987807784
            ],
            [
              -120.84536770683023,
              38.77562486919714,
              255.781339878079
            ],
            [
              -120.845383368119,
              38.77560405813875,
              255.80623987807843
            ],
            [
              -120.84538417359207,
              38.77557896758151,
              255.83073987807774
            ],
            [
              -120.8453822414841,
              38.77555150733498,
              255.85673987807758
            ],
            [
              -120.84538766502517,
              38.77551227280131,
              255.97363987807668
            ],
            [
              -120.8454034261074,
              38.775475313266156,
              256.03383987807905
            ],
            [
              -120.84542252595139,
              38.775447930662196,
              256.0801398780768
            ],
            [
              -120.84544232793463,
              38.7754116077383,
              256.14033987807915
            ],
            [
              -120.84544453888584,
              38.77536863385573,
              256.20683987807473
            ],
            [
              -120.84544878174543,
              38.77533697354639,
              256.256339878078
            ],
            [
              -120.84544981205794,
              38.77530157389134,
              256.3108398780784
            ],
            [
              -120.84544740379687,
              38.77527274487686,
              256.3545398780753
            ],
            [
              -120.8454469035449,
              38.77524939006985,
              256.3902398780783
            ],
            [
              -120.84546110989957,
              38.77520248663335,
              256.46543987807684
            ],
            [
              -120.84547556750923,
              38.775167261060304,
              256.52273987807826
            ],
            [
              -120.84548789105781,
              38.77513687216564,
              256.572139878077
            ],
            [
              -120.84548596122326,
              38.775109411942765,
              256.6138398780776
            ],
            [
              -120.84546784499005,
              38.775076267938076,
              256.6536398780776
            ],
            [
              -120.84548126972662,
              38.77505759419251,
              256.6922398780772
            ],
            [
              -120.84548706836931,
              38.77503587598332,
              256.7041398780767
            ],
            [
              -120.84550403402119,
              38.775013330045205,
              256.70893987807835
            ],
            [
              -120.84551813932848,
              38.77498257596482,
              256.715139878076
            ],
            [
              -120.84552215612767,
              38.774961224737645,
              256.7193398780774
            ],
            [
              -120.84552724771515,
              38.77492740248535,
              256.72343987807875
            ],
            [
              -120.8455440294101,
              38.77490867202271,
              256.72653987807536
            ],
            [
              -120.84558250121532,
              38.774905763452416,
              256.72923987807627
            ],
            [
              -120.84561712115479,
              38.77491205847563,
              256.73143987807697
            ],
            [
              -120.84564066899269,
              38.77489744683932,
              256.73493987807814
            ],
            [
              -120.84564857601228,
              38.77488360404002,
              256.7378398780791
            ],
            [
              -120.84566141766226,
              38.774856529456066,
              256.74333987807654
            ],
            [
              -120.8456607911234,
              38.774827335260454,
              256.74883987807834
            ],
            [
              -120.84565719568883,
              38.77479875031374,
              256.7541398780757
            ],
            [
              -120.84565201118075,
              38.77476560519086,
              256.75693987807665
            ],
            [
              -120.84564005195429,
              38.774694754756496,
              256.7951398780761
            ],
            [
              -120.84564766956598,
              38.77459789045695,
              256.8503398780768
            ],
            [
              -120.84567828851206,
              38.774530509512886,
              256.8920398780774
            ],
            [
              -120.84573563552111,
              38.774457637277855,
              256.9403398780758
            ],
            [
              -120.84576491521298,
              38.77443207214241,
              256.9584398780774
            ],
            [
              -120.84586241629935,
              38.77431918352748,
              257.0352398780764
            ],
            [
              -120.84589960047626,
              38.77427977642067,
              257.11613987807686
            ],
            [
              -120.84592829301874,
              38.774261663443234,
              257.16253987807903
            ],
            [
              -120.84602047255447,
              38.77419491602685,
              257.2930398780783
            ],
            [
              -120.84609646278875,
              38.77414997990028,
              257.365939878076
            ],
            [
              -120.8461764118553,
              38.774078730387124,
              257.4419398780748
            ],
            [
              -120.84620687346535,
              38.77403824820609,
              257.4469398780765
            ],
            [
              -120.84625633233674,
              38.77391868594812,
              257.4599398780764
            ],
            [
              -120.84628362040284,
              38.77388844660063,
              257.4638398780777
            ],
            [
              -120.84632586158347,
              38.7738373764138,
              257.4697398780752
            ],
            [
              -120.84635330421959,
              38.7737976020675,
              257.49843987807594
            ],
            [
              -120.84638059106199,
              38.7737673617847,
              257.52263987807515
            ],
            [
              -120.84643238968863,
              38.77372782856007,
              257.55993987807875
            ],
            [
              -120.84648159873277,
              38.77369780609944,
              257.5919398780761
            ],
            [
              -120.84653083750607,
              38.77366587660995,
              257.6247398780782
            ],
            [
              -120.84657514343921,
              38.77363771179355,
              257.6540398780791
            ],
            [
              -120.84663409431239,
              38.77360778516358,
              257.6894398780776
            ],
            [
              -120.84670331373002,
              38.773545540863154,
              257.70703987807906
            ],
            [
              -120.84674789885126,
              38.77350021662568,
              257.71033987807573
            ],
            [
              -120.84683489495373,
              38.77348034828472,
              257.714139878077
            ],
            [
              -120.84683911771127,
              38.77347828201815,
              257.71433987807706
            ],
            [
              -120.84686584307362,
              38.77347279045212,
              257.71543987807746
            ],
            [
              -120.84691724323574,
              38.773451703540076,
              257.7180398780783
            ],
            [
              -120.84695271638427,
              38.77342073088668,
              257.7204398780791
            ],
            [
              -120.84697657468615,
              38.773398491052404,
              257.72213987807527
            ],
            [
              -120.84704099118642,
              38.773324442398106,
              257.7373398780759
            ],
            [
              -120.8470679405065,
              38.77330108003431,
              257.78763987807497
            ],
            [
              -120.84709078488099,
              38.77328728548962,
              257.8239398780782
            ],
            [
              -120.84714105603115,
              38.773268102679374,
              257.8923398780789
            ],
            [
              -120.84717867797457,
              38.77324038029078,
              257.95743987807845
            ],
            [
              -120.8472492630003,
              38.773166751359355,
              258.102139878078
            ],
            [
              -120.84738415327217,
              38.773024187114245,
              258.3294398780785
            ],
            [
              -120.84746090396949,
              38.77295221395246,
              258.39813987807486
            ],
            [
              -120.84764769722221,
              38.7728307486409,
              258.53793987807717
            ],
            [
              -120.8476888542214,
              38.772802744049386,
              258.60213987807646
            ],
            [
              -120.84770927026912,
              38.772791913719516,
              258.61923987807774
            ],
            [
              -120.84774183353065,
              38.77276291655107,
              258.65493987807633
            ],
            [
              -120.84781859590177,
              38.77266367793179,
              258.7619398780766
            ],
            [
              -120.84788840349711,
              38.772580912515124,
              258.8536398780762
            ],
            [
              -120.84800275435849,
              38.77248899403148,
              258.9719398780758
            ],
            [
              -120.84809418475876,
              38.77244088355405,
              259.047939878079
            ],
            [
              -120.84817766685192,
              38.77236996956807,
              259.13713987807773
            ],
            [
              -120.84826508146784,
              38.77227381128184,
              259.25523987807725
            ],
            [
              -120.84834521842237,
              38.7722206901139,
              259.36933987807544
            ],
            [
              -120.84839309328564,
              38.77218310729447,
              259.44403987807823
            ],
            [
              -120.848418191207,
              38.772145733658334,
              259.5028398780757
            ],
            [
              -120.84843397127817,
              38.77208271584102,
              259.5837398780761
            ],
            [
              -120.84843392919745,
              38.77204607032984,
              259.6245398780764
            ],
            [
              -120.8484465198868,
              38.771972618543806,
              259.71493987807554
            ],
            [
              -120.84849177502629,
              38.77189245439474,
              259.8149398780779
            ],
            [
              -120.84861992544307,
              38.77174882634416,
              259.9966398780765
            ],
            [
              -120.84874297409176,
              38.77164534508309,
              260.08243987807856
            ],
            [
              -120.84885229759524,
              38.77153041257094,
              260.1086887026608
            ],
            [
              -120.8493232839254,
              38.77153908445047,
              260.1272270166718
            ],
            [
              -120.84933336381314,
              38.77156800910049,
              260.12313987807886
            ]
          ]
        ]
      }
    }
  ]
}