{
  "type": "FeatureCollection",
  "features": [
    {
      "type": "Feature",
      "properties": {
        "source_fid": 479,
        "authority": "USGS_2019_2020_lidar_hydrobreakline",
        "vertical_datum": "NAVD88",
        "z_units": "metres",
        "is_bathymetry": false
      },
      "geometry": {
        "type": "Polygon",
        "coordinates": [
          [
            [
              -121.0074778179319,
              38.763539433923974,
              148.1336398780764
            ],
            [
              -121.00755623873657,
              38.76354868672519,
              148.0977398780777
            ],
            [
              -121.00764387261924,
              38.76355229644634,
              148.05433987807652
            ],
            [
              -121.00771336195676,
              38.76354716964115,
              147.983439878075
            ],
            [
              -121.0077610900897,
              38.76353041497743,
              147.95393987807844
            ],
            [
              -121.00783810649993,
              38.763504554513254,
              147.9070398780761
            ],
            [
              -121.00787273326486,
              38.76346613039954,
              147.86993987807702
            ],
            [
              -121.0080197191526,
              38.763316586612135,
              147.6589398780775
            ],
            [
              -121.00809698480755,
              38.76317526243104,
              147.5170398780789
            ],
            [
              -121.00813520156001,
              38.76305734307488,
              147.41653987807638
            ],
            [
              -121.00823220002174,
              38.762902814951396,
              147.282639878076
            ],
            [
              -121.00826557160009,
              38.762816456916774,
              147.21543987807573
            ],
            [
              -121.00832862234029,
              38.76272395856288,
              147.13473987807538
            ],
            [
              -121.0083925190087,
              38.76258850303094,
              147.04523987807656
            ],
            [
              -121.00846556309637,
              38.762524496250926,
              146.9798398780769
            ],
            [
              -121.00867700186926,
              38.76240129491061,
              146.82963987807548
            ],
            [
              -121.00893553310661,
              38.762298909442244,
              146.62433987807788
            ],
            [
              -121.00904585335844,
              38.76228056610909,
              146.62433987807788
            ],
            [
              -121.00908592229219,
              38.76227390438381,
              146.62433987807788
            ],
            [
              -121.00924630537706,
              38.76227738980735,
              146.46983987807508
            ],
            [
              -121.0094666201857,
              38.76229292287503,
              146.09203987807751
            ],
            [
              -121.00957849068092,
              38.76229422349302,
              145.89873987807505
            ],
            [
              -121.00991809302032,
              38.76230951944739,
              145.7612398780779
            ],
            [
              -121.0103484602683,
              38.76237937736441,
              145.61923987807484
            ],
            [
              -121.01049116045417,
              38.762423191694175,
              145.57043987807626
            ],
            [
              -121.01058265383878,
              38.762444247051135,
              145.5397398780749
            ],
            [
              -121.01073148347878,
              38.76246103954289,
              145.5053398780767
            ],
            [
              -121.01080508370559,
              38.76245602251413,
              145.48493987807876
            ],
            [
              -121.01085045875568,
              38.762465476157125,
              145.47013987807824
            ],
            [
              -121.01094693046011,
              38.76251101492913,
              145.433839878075
            ],
            [
              -121.010976616388,
              38.762536654240066,
              145.42053987807498
            ],
            [
              -121.01109763532197,
              38.76260940106281,
              145.37223987807658
            ],
            [
              -121.01132130233746,
              38.7626761931331,
              145.2952398780775
            ],
            [
              -121.01147222578463,
              38.762760647782294,
              145.24753987807486
            ],
            [
              -121.01159197584286,
              38.76286159583383,
              145.1914398780783
            ],
            [
              -121.01176208828522,
              38.762960855386545,
              145.12283987807757
            ],
            [
              -121.01190794228565,
              38.76305902256375,
              145.0713398780781
            ],
            [
              -121.01205921799874,
              38.763149955303106,
              145.0113398780758
            ],
            [
              -121.01213456746805,
              38.76318325886864,
              144.98523987807596
            ],
            [
              -121.01224701533906,
              38.76320888416642,
              144.9539398780788
            ],
            [
              -121.01234377770399,
              38.76328053852753,
              144.91133987807788
            ],
            [
              -121.01244169568061,
              38.763400849138556,
              144.88283987807725
            ],
            [
              -121.01249109813673,
              38.76351897478272,
              144.86133987807892
            ],
            [
              -121.01248029856995,
              38.763692342139784,
              144.79043987807742
            ],
            [
              -121.0124338246044,
              38.7638547552003,
              144.71953987807592
            ],
            [
              -121.01239876675614,
              38.76402702963388,
              144.65223987807562
            ],
            [
              -121.012390591057,
              38.76406879915715,
              144.63593987807906
            ],
            [
              -121.01239034886814,
              38.76410116833353,
              144.62293987807914
            ],
            [
              -121.01240941231848,
              38.76418651055827,
              144.5878398780763
            ],
            [
              -121.01242564283407,
              38.7642170477607,
              144.57473987807634
            ],
            [
              -121.01250387943838,
              38.76437199007709,
              144.50873987807648
            ],
            [
              -121.0125818488256,
              38.764594218555125,
              144.11603987807837
            ],
            [
              -121.01268750646841,
              38.76480251450472,
              143.63383987807697
            ],
            [
              -121.0127530873658,
              38.76488124491853,
              143.42803987807477
            ],
            [
              -121.01284193228652,
              38.76494989356459,
              143.2195398780761
            ],
            [
              -121.01289578721291,
              38.764983844458136,
              143.1073889387328
            ],
            [
              -121.01232703779355,
              38.76497416982996,
              143.6466444793885
            ],
            [
              -121.01223547539317,
              38.76492259123654,
              143.8260398780791
            ],
            [
              -121.01211587342884,
              38.764831215718026,
              144.10473987807904
            ],
            [
              -121.01199454080977,
              38.7646668546936,
              144.45203987807528
            ],
            [
              -121.01192772363508,
              38.76452177349654,
              144.47753987807494
            ],
            [
              -121.0118857407606,
              38.764402111635754,
              144.52753987807833
            ],
            [
              -121.01183861388137,
              38.76424577603964,
              144.59253987807784
            ],
            [
              -121.01183730939267,
              38.76424557934281,
              144.5927398780779
            ],
            [
              -121.01183744458207,
              38.76424189389691,
              144.59413987807838
            ],
            [
              -121.01183756118411,
              38.76423871821797,
              144.59543987807882
            ],
            [
              -121.01184220875997,
              38.76411213327461,
              144.64593987807794
            ],
            [
              -121.01188921260338,
              38.76401599270154,
              144.68213987807673
            ],
            [
              -121.01190532737223,
              38.76395177030182,
              144.7070398780762
            ],
            [
              -121.01192122697304,
              38.76390303932474,
              144.72583987807803
            ],
            [
              -121.01193537378624,
              38.76387097950974,
              144.73193987807562
            ],
            [
              -121.01194824660377,
              38.76382103173637,
              144.75213987807794
            ],
            [
              -121.01195795798104,
              38.76377939964202,
              144.76893987807912
            ],
            [
              -121.01195986690735,
              38.763732921706655,
              144.78803987807663
            ],
            [
              -121.0119440492695,
              38.76363828873277,
              144.82733987807643
            ],
            [
              -121.01193089988224,
              38.763555442786306,
              144.90833987807687
            ],
            [
              -121.01191148517373,
              38.76352279005257,
              144.92273987807727
            ],
            [
              -121.01185439622168,
              38.76347348456457,
              144.95013987807755
            ],
            [
              -121.01182556330112,
              38.76343666862903,
              144.96783987807902
            ],
            [
              -121.01178131389688,
              38.763378594670726,
              144.99543987807493
            ],
            [
              -121.01172649254043,
              38.763267701169966,
              145.0420398780772
            ],
            [
              -121.01165541076554,
              38.76317850947757,
              145.09423987807688
            ],
            [
              -121.01157890668951,
              38.7630965501613,
              145.13453987807705
            ],
            [
              -121.01148814234459,
              38.76304198999134,
              145.1715398780761
            ],
            [
              -121.01138853557438,
              38.76300759468247,
              145.20553987807858
            ],
            [
              -121.0112771141474,
              38.76294383920668,
              145.25013987807574
            ],
            [
              -121.01119904723197,
              38.76290996596578,
              145.2880398780751
            ],
            [
              -121.0111025564205,
              38.76289563899852,
              145.31863987807643
            ],
            [
              -121.01091875989077,
              38.7628481057657,
              145.38053987807493
            ],
            [
              -121.01076406497558,
              38.76277010222904,
              145.43953987807689
            ],
            [
              -121.01055557815933,
              38.76269528509159,
              145.52803987807542
            ],
            [
              -121.01049008121639,
              38.76269233476833,
              145.54893987807796
            ],
            [
              -121.01038763161631,
              38.76269519836481,
              145.58123987807545
            ],
            [
              -121.01031628126059,
              38.76267329115871,
              145.60553987807913
            ],
            [
              -121.01023493650388,
              38.76262289241775,
              145.6354398780758
            ],
            [
              -121.01016161564799,
              38.7625992106012,
              145.66053987807533
            ],
            [
              -121.00994489709144,
              38.76257464530001,
              145.73123987807676
            ],
            [
              -121.00985907957349,
              38.7625723150018,
              145.758539878077
            ],
            [
              -121.00954373241272,
              38.762558110579256,
              146.018139878075
            ],
            [
              -121.00919328703353,
              38.76255727997953,
              146.62433987807788
            ],
            [
              -121.00916135102234,
              38.76256204444537,
              146.62433987807788
            ],
            [
              -121.00908741366547,
              38.762573073954485,
              146.65103987807794
            ],
            [
              -121.0088335729298,
              38.76264160149264,
              146.87523987807742
            ],
            [
              -121.00878489571954,
              38.76265914310491,
              146.94403987807823
            ],
            [
              -121.00876862903895,
              38.762672306393526,
              146.95833987807856
            ],
            [
              -121.00869463200337,
              38.762738894491605,
              147.02783987807516
            ],
            [
              -121.00865393058248,
              38.76277573268103,
              147.0737398780772
            ],
            [
              -121.00861501521013,
              38.76281544655918,
              147.11163987807655
            ],
            [
              -121.00859627177641,
              38.76284961273203,
              147.13983987807708
            ],
            [
              -121.00858280805377,
              38.76289812533531,
              147.17573987807577
            ],
            [
              -121.00857859705839,
              38.7629381356293,
              147.20353987807619
            ],
            [
              -121.0085781387319,
              38.76297102730934,
              147.2255398780791
            ],
            [
              -121.0085775608556,
              38.763012498409196,
              147.25313987807502
            ],
            [
              -121.00856775127667,
              38.76306104312397,
              147.28823987807786
            ],
            [
              -121.00855450670323,
              38.763093824684944,
              147.31383987807754
            ],
            [
              -121.00855255328916,
              38.76309866220071,
              147.3176398780788
            ],
            [
              -121.00854126326809,
              38.76312660625414,
              147.3475398780755
            ],
            [
              -121.00853345011755,
              38.76314063453712,
              147.36033987807534
            ],
            [
              -121.00851421018017,
              38.763162279859095,
              147.3821398780782
            ],
            [
              -121.00841890761012,
              38.763230893061476,
              147.46143987807807
            ],
            [
              -121.00836327584408,
              38.763321855700234,
              147.55283987807755
            ],
            [
              -121.0083347501259,
              38.76337665149888,
              147.6057398780775
            ],
            [
              -121.00831479510231,
              38.76347856969635,
              147.694239878076
            ],
            [
              -121.00831698135056,
              38.76353091879507,
              147.73933987807774
            ],
            [
              -121.00827312582072,
              38.763616665627815,
              147.83053987807716
            ],
            [
              -121.00823121164441,
              38.763648657127675,
              147.8421398780766
            ],
            [
              -121.00814874808891,
              38.763708501168644,
              147.9009398780785
            ],
            [
              -121.00803060961223,
              38.76375739039517,
              147.97843987807778
            ],
            [
              -121.00793473018284,
              38.763801675015216,
              148.02243987807915
            ],
            [
              -121.00779348338976,
              38.76389812650275,
              148.14063987807873
            ],
            [
              -121.00775432985958,
              38.76392760982331,
              148.17463987807676
            ],
            [
              -121.00764145741853,
              38.76398047082236,
              148.2136398780765
            ],
            [
              -121.00744598431581,
              38.764024639422544,
              148.34443335625724
            ],
            [
              -121.00745960186731,
              38.76353519028164,
              148.1607403048124
            ],
            [
              -121.0074778179319,
              38.763539433923974,
              148.1336398780764
            ]
          ]
        ]
      }
    }
  ]
}