{
  "type": "FeatureCollection",
  "features": [
    {
      "type": "Feature",
      "properties": {
        "source_fid": 479,
        "authority": "USGS_2019_2020_lidar_hydrobreakline",
        "vertical_datum": "NAVD88",
        "z_units": "metres",
        "is_bathymetry": false
      },
      "geometry": {
        "type": "Polygon",
        "coordinates": [
          [
            [
              -121.01299521239072,
              38.76504652332365,
              142.90033987807593
            ],
            [
              -121.0130603001312,
              38.76511862123926,
              142.70723987807796
            ],
            [
              -121.0131144704798,
              38.765295531211024,
              142.43083987807879
            ],
            [
              -121.0131151866831,
              38.765295748117474,
              142.43063987807872
            ],
            [
              -121.0131492869494,
              38.76536159044004,
              142.3913398780789
            ],
            [
              -121.01315597252727,
              38.765428391603905,
              142.35423987807536
            ],
            [
              -121.01316613240604,
              38.76546423309727,
              142.3337398780774
            ],
            [
              -121.01320777680965,
              38.765534906347625,
              142.29103987807645
            ],
            [
              -121.01324283757131,
              38.765641279628575,
              142.22953987807807
            ],
            [
              -121.01327179287652,
              38.76574879292268,
              142.1680398780753
            ],
            [
              -121.01329611652454,
              38.76586103454454,
              142.10443987807622
            ],
            [
              -121.01331819080984,
              38.76602569733079,
              142.01253987807655
            ],
            [
              -121.01333258595318,
              38.76608541245089,
              141.97863987807855
            ],
            [
              -121.01334256535974,
              38.766134363590325,
              141.95083987807814
            ],
            [
              -121.01335268201105,
              38.76616470633546,
              141.95083987807814
            ],
            [
              -121.01335571693302,
              38.766173806275155,
              141.95083987807814
            ],
            [
              -121.01337495988194,
              38.76621330163581,
              141.94243987807533
            ],
            [
              -121.01342244728815,
              38.76630190157022,
              141.87753987807582
            ],
            [
              -121.01348507374105,
              38.76639659068785,
              141.80663987807876
            ],
            [
              -121.0135563536749,
              38.76652591739475,
              141.7117398780781
            ],
            [
              -121.01355503955136,
              38.76652865315483,
              141.71013987807757
            ],
            [
              -121.01357812304862,
              38.76659444045163,
              141.66363987807534
            ],
            [
              -121.01364152454029,
              38.766752453249715,
              141.55073987807756
            ],
            [
              -121.01366124331147,
              38.76684729567653,
              141.48543987807793
            ],
            [
              -121.01365996746577,
              38.766848598387405,
              141.48473987807768
            ],
            [
              -121.01368041480265,
              38.7669196120634,
              141.43513987807887
            ],
            [
              -121.01370755706974,
              38.767013887811046,
              141.36913987807898
            ],
            [
              -121.01371225499815,
              38.767030204785875,
              141.3577398780752
            ],
            [
              -121.01371586210516,
              38.76703273460804,
              141.3556398780789
            ],
            [
              -121.01373004218868,
              38.76706491910286,
              141.3324398780756
            ],
            [
              -121.01373836639695,
              38.767123391553504,
              141.29263987807562
            ],
            [
              -121.01375287776318,
              38.767174764110045,
              141.25673987807693
            ],
            [
              -121.0137720551324,
              38.76721902564766,
              141.2249398780752
            ],
            [
              -121.01379427595612,
              38.76726331303968,
              141.19273987807773
            ],
            [
              -121.01380291527771,
              38.767299141548406,
              141.16793987807833
            ],
            [
              -121.01380855727074,
              38.76733136971063,
              141.14583987807538
            ],
            [
              -121.01381557288029,
              38.767374336885794,
              141.1165398780789
            ],
            [
              -121.01382723914303,
              38.76741138303609,
              141.09053987807908
            ],
            [
              -121.01383887122776,
              38.76745081274863,
              141.06293987807874
            ],
            [
              -121.01384443180123,
              38.767488999851736,
              141.03693987807893
            ],
            [
              -121.01384391857721,
              38.767525942525076,
              140.99543987807837
            ],
            [
              -121.01384188535681,
              38.76756287228474,
              140.970839878079
            ],
            [
              -121.0138534679032,
              38.767605878256035,
              140.93893987807724
            ],
            [
              -121.01388790032772,
              38.76764788551861,
              140.9022398780783
            ],
            [
              -121.01390261010916,
              38.76768495841659,
              140.87353987807757
            ],
            [
              -121.01390525943474,
              38.76771358536822,
              140.8535398780753
            ],
            [
              -121.01390934618115,
              38.76774818326473,
              140.83503987807802
            ],
            [
              -121.01391927551161,
              38.767800709698534,
              140.80143987807566
            ],
            [
              -121.01394745368901,
              38.767854582179545,
              140.7638398780764
            ],
            [
              -121.01398148988196,
              38.76792519139134,
              140.71513987807788
            ],
            [
              -121.01401096038659,
              38.76799576090917,
              140.67013987807616
            ],
            [
              -121.01409013519151,
              38.76810489155463,
              140.58443987807857
            ],
            [
              -121.01409201461597,
              38.76810545888518,
              140.58383987807838
            ],
            [
              -121.01409312190663,
              38.768107517899736,
              140.58223987807784
            ],
            [
              -121.01413368907357,
              38.768245808843375,
              140.48123987807514
            ],
            [
              -121.01415418370965,
              38.768330662868436,
              140.42103987807724
            ],
            [
              -121.01416746072026,
              38.76834749503871,
              140.40633987807675
            ],
            [
              -121.01419572187226,
              38.768395408524235,
              140.3663398780767
            ],
            [
              -121.01422247608441,
              38.76844211907988,
              140.3421398780775
            ],
            [
              -121.01424916776847,
              38.76849359410248,
              140.306839878079
            ],
            [
              -121.01426682462215,
              38.768537843536784,
              140.27693987807788
            ],
            [
              -121.01428136852056,
              38.76858683333961,
              140.2444398780759
            ],
            [
              -121.01428997407253,
              38.76862504537186,
              140.21923987807637
            ],
            [
              -121.01429538523007,
              38.768673957618695,
              140.1895398780753
            ],
            [
              -121.01429011441361,
              38.768742659919035,
              140.14923987807515
            ],
            [
              -121.01430731827242,
              38.768801587009875,
              140.11273987807627
            ],
            [
              -121.01431594036393,
              38.76883860815384,
              140.09003987807756
            ],
            [
              -121.01432446225436,
              38.76888277910593,
              140.06373987807763
            ],
            [
              -121.01432376880065,
              38.76893283053876,
              140.05433987807893
            ],
            [
              -121.01432301043603,
              38.76898765002819,
              140.01783987807562
            ],
            [
              -121.01431930534716,
              38.76903529203383,
              139.9517398780757
            ],
            [
              -121.01431571581354,
              38.769074593334885,
              139.92623987807607
            ],
            [
              -121.01431520397344,
              38.76911153601566,
              139.90183987807677
            ],
            [
              -121.01432207261891,
              38.76916522834226,
              139.86903987807915
            ],
            [
              -121.01432857721494,
              38.769184562517914,
              139.86903987807915
            ],
            [
              -121.01435423962168,
              38.76926084931609,
              139.86903987807915
            ],
            [
              -121.01437186257036,
              38.76930748139431,
              139.82053987807623
            ],
            [
              -121.01438187502802,
              38.76935404794877,
              139.77303987807812
            ],
            [
              -121.01439335912676,
              38.76940420457958,
              139.72183987807875
            ],
            [
              -121.01440345416599,
              38.769444812199175,
              139.68023987807817
            ],
            [
              -121.01440894916807,
              38.76948776551477,
              139.63673987807695
            ],
            [
              -121.0144233789359,
              38.76954509781175,
              139.5780398780751
            ],
            [
              -121.01442893883613,
              38.76958328487098,
              139.53933987807545
            ],
            [
              -121.01443433481488,
              38.76963338800327,
              139.4887398780763
            ],
            [
              -121.01441962666019,
              38.76970596614795,
              139.4332398780755
            ],
            [
              -121.01441274478272,
              38.769720505440404,
              139.4289398780785
            ],
            [
              -121.01441086397993,
              38.76974013493075,
              139.42308819252167
            ],
            [
              -121.01419554019273,
              38.769736475185255,
              139.42452855167045
            ],
            [
              -121.01419261506018,
              38.769706579988956,
              139.43343987807557
            ],
            [
              -121.01415289194372,
              38.76952533193816,
              139.62443987807728
            ],
            [
              -121.01408633197045,
              38.769312964940504,
              139.86903987807915
            ],
            [
              -121.01407725914284,
              38.769234483783265,
              139.86903987807915
            ],
            [
              -121.01406287054006,
              38.769110016489094,
              139.9360398780749
            ],
            [
              -121.01405149608696,
              38.76901393688548,
              139.97893987807592
            ],
            [
              -121.01403625745228,
              38.768885211790085,
              140.0863398780763
            ],
            [
              -121.01400910609799,
              38.768729980223824,
              140.18083987807682
            ],
            [
              -121.0139734476809,
              38.76860426283884,
              140.26393987807796
            ],
            [
              -121.01394196959755,
              38.768493285887985,
              140.33753987807594
            ],
            [
              -121.01390031461986,
              38.76842278312314,
              140.40263987807552
            ],
            [
              -121.01379885924787,
              38.76825106482648,
              140.53383987807499
            ],
            [
              -121.01372638808884,
              38.76812840045058,
              140.61753987807631
            ],
            [
              -121.01364203026677,
              38.76794625669656,
              140.76043987807526
            ],
            [
              -121.01356391102723,
              38.7677621370031,
              140.9025398780784
            ],
            [
              -121.01349792349566,
              38.76761338445833,
              141.0067398780777
            ],
            [
              -121.01346395710738,
              38.76749214266669,
              141.08483987807716
            ],
            [
              -121.0134216684197,
              38.767341194119204,
              141.1902398780769
            ],
            [
              -121.01336764750451,
              38.7671483626153,
              141.32493987807754
            ],
            [
              -121.01333451066193,
              38.76701156430608,
              141.41973987807816
            ],
            [
              -121.01331632069544,
              38.76694077066232,
              141.46903987807687
            ],
            [
              -121.01325992107648,
              38.76672127034184,
              141.62153987807903
            ],
            [
              -121.01322565851473,
              38.76658792288682,
              141.71423987807893
            ],
            [
              -121.01319590232517,
              38.766438488928586,
              141.81693987807776
            ],
            [
              -121.01313904180839,
              38.76631275045622,
              141.90763987807702
            ],
            [
              -121.01309285913155,
              38.766254802944594,
              141.95083987807814
            ],
            [
              -121.01307254433462,
              38.76621701288777,
              141.95083987807814
            ],
            [
              -121.01300120090599,
              38.76608430234758,
              142.0129398780767
            ],
            [
              -121.01295932741124,
              38.765992558886566,
              142.06713987807706
            ],
            [
              -121.01293664678532,
              38.76587763288479,
              142.13193987807654
            ],
            [
              -121.01295175291997,
              38.76580727636896,
              142.1687398780755
            ],
            [
              -121.01292718526938,
              38.76571457011159,
              142.22173987807548
            ],
            [
              -121.01290745830691,
              38.76559030317421,
              142.29143987807657
            ],
            [
              -121.01281064963409,
              38.765359749616536,
              142.48993987807634
            ],
            [
              -121.01274982763177,
              38.765231763658555,
              142.7825398780765
            ],
            [
              -121.01267103540839,
              38.76515622367177,
              142.99453987807635
            ],
            [
              -121.01261880680896,
              38.7651305263914,
              143.08993987807716
            ],
            [
              -121.01253945675373,
              38.7650858275309,
              143.24533987807584
            ],
            [
              -121.01239632432657,
              38.76501139071846,
              143.51425862081723
            ],
            [
              -121.01295454471692,
              38.7650208859407,
              142.98502868080024
            ],
            [
              -121.01299521239072,
              38.76504652332365,
              142.90033987807593
            ]
          ]
        ]
      }
    }
  ]
}