{
  "type": "FeatureCollection",
  "features": [
    {
      "type": "Feature",
      "properties": {
        "source_fid": 479,
        "authority": "USGS_2019_2020_lidar_hydrobreakline",
        "vertical_datum": "NAVD88",
        "z_units": "metres",
        "is_bathymetry": false
      },
      "geometry": {
        "type": "Polygon",
        "coordinates": [
          [
            [
              -120.99802363693982,
              38.772004810724944,
              158.46243987807563
            ],
            [
              -120.99821601177543,
              38.77188876470459,
              158.46243987807563
            ],
            [
              -120.99821918246943,
              38.77188679560902,
              158.46243987807563
            ],
            [
              -120.99822301084997,
              38.77188454208998,
              158.46243987807563
            ],
            [
              -120.99823414319398,
              38.77187799020589,
              158.46243987807563
            ],
            [
              -120.99829103034259,
              38.771844508889,
              158.46243987807563
            ],
            [
              -120.99835902213732,
              38.771816491097205,
              158.46243987807563
            ],
            [
              -120.99852602170772,
              38.77176358343022,
              158.46243987807563
            ],
            [
              -120.99858658557031,
              38.77174408277038,
              158.46243987807563
            ],
            [
              -120.99861583477059,
              38.771742905317055,
              158.46243987807563
            ],
            [
              -120.99867402895804,
              38.77176199977913,
              158.46243987807563
            ],
            [
              -120.99874866446942,
              38.77178123602441,
              158.46243987807563
            ],
            [
              -120.99883785246352,
              38.77180488885432,
              158.46243987807563
            ],
            [
              -120.9989961950381,
              38.77183769228567,
              158.46243987807563
            ],
            [
              -120.99904362764418,
              38.77183209840711,
              158.46243987807563
            ],
            [
              -120.99908726621997,
              38.771816339050396,
              158.46243987807563
            ],
            [
              -120.99917893867045,
              38.771768930663946,
              158.46243987807563
            ],
            [
              -120.99920226403621,
              38.77174577788942,
              158.41483987807746
            ],
            [
              -120.99923477553682,
              38.77170241088609,
              158.33293987807673
            ],
            [
              -120.99927387005435,
              38.77162098503368,
              158.14683987807666
            ],
            [
              -120.99928599466504,
              38.77154208351378,
              158.01963987807852
            ],
            [
              -120.99927656813807,
              38.77145846994036,
              157.8901398780752
            ],
            [
              -120.99926200532946,
              38.77139425322729,
              157.792339878078
            ],
            [
              -120.99925715151016,
              38.771346363958386,
              157.71803987807536
            ],
            [
              -120.9992881619103,
              38.77123739638737,
              157.5391398780777
            ],
            [
              -120.99929592575855,
              38.7711907411524,
              157.46373987807914
            ],
            [
              -120.99929604423374,
              38.77118240047446,
              157.45053987807916
            ],
            [
              -120.99929678737539,
              38.771129488128054,
              157.36703987807786
            ],
            [
              -120.99929933883558,
              38.77107802294607,
              157.31443987807805
            ],
            [
              -120.9993035756533,
              38.77103658251214,
              157.25733987807672
            ],
            [
              -120.99932244638548,
              38.77099383845597,
              157.19383987807768
            ],
            [
              -120.99935245848435,
              38.77093831796813,
              157.10963987807617
            ],
            [
              -120.99937676852876,
              38.770898481239996,
              157.04833987807788
            ],
            [
              -120.99940852737612,
              38.770848697593536,
              156.97123987807873
            ],
            [
              -120.99942370432609,
              38.77080878213058,
              156.91273987807693
            ],
            [
              -120.99944253354941,
              38.7707688981463,
              156.85303987807916
            ],
            [
              -120.9994613259789,
              38.77073187429076,
              156.79723987807827
            ],
            [
              -120.99949283991226,
              38.77069925030266,
              156.74333987807802
            ],
            [
              -120.99949940823112,
              38.77069561130521,
              156.73633987807568
            ],
            [
              -120.99951321825424,
              38.770679402800745,
              156.7074398780749
            ],
            [
              -120.99953192672739,
              38.77064809910798,
              156.6890398780776
            ],
            [
              -120.99954694383086,
              38.77061962404686,
              156.67243987807652
            ],
            [
              -120.99957119333337,
              38.770584076979844,
              156.65133987807835
            ],
            [
              -120.99958444345314,
              38.77055129556179,
              156.6325398780765
            ],
            [
              -120.99958857836747,
              38.770517005811705,
              156.61353987807902
            ],
            [
              -120.99958910237224,
              38.77047982449307,
              156.5933398780767
            ],
            [
              -120.99958414451396,
              38.77044259593027,
              156.57353987807895
            ],
            [
              -120.99958408076328,
              38.770441400749306,
              156.57293987807876
            ],
            [
              -120.99958270045853,
              38.770415409671536,
              156.55893987807852
            ],
            [
              -120.9995957115384,
              38.77037515478964,
              156.53603987807531
            ],
            [
              -120.99959607004844,
              38.77037404793512,
              156.5354398780751
            ],
            [
              -120.99961662695598,
              38.770341329484225,
              156.51613987807752
            ],
            [
              -120.99964641619891,
              38.7703015399205,
              156.49233987807844
            ],
            [
              -120.99966327941783,
              38.77027165097999,
              156.47483987807703
            ],
            [
              -120.99967835556859,
              38.77023888528728,
              156.45583987807512
            ],
            [
              -120.9996768913797,
              38.77021312863003,
              156.44553987807612
            ],
            [
              -120.99965531273976,
              38.77018862930922,
              156.43233987807616
            ],
            [
              -120.99962449947563,
              38.770171201072735,
              156.4257398780784
            ],
            [
              -120.99961248115349,
              38.770165330653576,
              156.42383987807776
            ],
            [
              -120.99958276736827,
              38.770150818277436,
              156.41913987807618
            ],
            [
              -120.99956656777218,
              38.77013351596962,
              156.41003987807758
            ],
            [
              -120.99956506225497,
              38.77011061940307,
              156.39433987807675
            ],
            [
              -120.99957100547815,
              38.77007777501148,
              156.37033987807763
            ],
            [
              -120.9995845370273,
              38.770024973776884,
              156.33113987807783
            ],
            [
              -120.99960702050458,
              38.769985121259616,
              156.29923987807604
            ],
            [
              -120.99963492432322,
              38.76994960477213,
              156.26933987807493
            ],
            [
              -120.99968409256915,
              38.76990068822233,
              156.2263398780783
            ],
            [
              -120.99968652547555,
              38.76989601715065,
              156.22263987807708
            ],
            [
              -120.9997752777696,
              38.769785988416345,
              156.14893987807906
            ],
            [
              -120.99982692321373,
              38.76973963016798,
              156.0775398780774
            ],
            [
              -120.99992750726331,
              38.7696309447445,
              155.920039878078
            ],
            [
              -120.99996358445881,
              38.76958072967083,
              155.85233987807757
            ],
            [
              -121.00012458074777,
              38.76942038903385,
              155.65853987807495
            ],
            [
              -121.00025128678645,
              38.7692597303292,
              155.55353987807536
            ],
            [
              -121.00033004487153,
              38.76912120881815,
              155.46883987807811
            ],
            [
              -121.0003948135483,
              38.76894279798819,
              155.28703987807503
            ],
            [
              -121.00047355708158,
              38.76864537854546,
              154.9394398780787
            ],
            [
              -121.00050346888324,
              38.76858539460245,
              154.86423987807575
            ],
            [
              -121.00052553210601,
              38.768552205165676,
              154.82063987807894
            ],
            [
              -121.00055806795476,
              38.76852111496703,
              154.77543987807715
            ],
            [
              -121.00062758640247,
              38.76847768241548,
              154.70343987807527
            ],
            [
              -121.00070073501853,
              38.76841757154858,
              154.61723987807753
            ],
            [
              -121.00082492645012,
              38.768270631549804,
              154.48713987807844
            ],
            [
              -121.00091765133713,
              38.7681420526987,
              154.36773987807845
            ],
            [
              -121.0009344992383,
              38.76812571791921,
              154.35063987807717
            ],
            [
              -121.00104629464045,
              38.76803188165158,
              154.2474398780782
            ],
            [
              -121.00126803365359,
              38.76786989906633,
              154.00853987807824
            ],
            [
              -121.0013461250597,
              38.76781133127537,
              153.90283987807842
            ],
            [
              -121.00142787767938,
              38.76773508537273,
              153.81583987807596
            ],
            [
              -121.00146370202225,
              38.767701675394555,
              153.80723987807752
            ],
            [
              -121.0015009217534,
              38.767652802155695,
              153.75783987807878
            ],
            [
              -121.00152902759648,
              38.7676263728269,
              153.72693987807733
            ],
            [
              -121.00160220297586,
              38.76757465198173,
              153.65693987807612
            ],
            [
              -121.00175938417762,
              38.76751248835232,
              153.53663987807585
            ],
            [
              -121.00177720352129,
              38.76750103673234,
              153.52033987807485
            ],
            [
              -121.00178028831832,
              38.76749742105106,
              153.51650859369306
            ],
            [
              -121.00220048788128,
              38.76750460716177,
              153.3012956002757
            ],
            [
              -121.0020602751015,
              38.76763270084045,
              153.453139878079
            ],
            [
              -121.00192985807831,
              38.767714680297836,
              153.57153987807865
            ],
            [
              -121.00166302578108,
              38.76786154342093,
              153.80103987807547
            ],
            [
              -121.0016121413931,
              38.76789846277908,
              153.81583987807596
            ],
            [
              -121.00158055064225,
              38.7679213845683,
              153.81583987807596
            ],
            [
              -121.00149065891446,
              38.76798275830536,
              153.9327398780751
            ],
            [
              -121.00137198713745,
              38.76809003625429,
              154.10813987807603
            ],
            [
              -121.00122869087843,
              38.76825695901291,
              154.33073987807498
            ],
            [
              -121.00115620769678,
              38.76834529031939,
              154.41603987807684
            ],
            [
              -121.00111597821494,
              38.76845750887782,
              154.50543987807566
            ],
            [
              -121.00107675176423,
              38.76850983870828,
              154.55453987807877
            ],
            [
              -121.00104080325801,
              38.76854049336238,
              154.58813987807667
            ],
            [
              -121.00089965988532,
              38.76861225743577,
              154.74833987807696
            ],
            [
              -121.00084060820174,
              38.76865813076747,
              154.8190398780784
            ],
            [
              -121.0008210732825,
              38.76868239670453,
              154.85223987807618
            ],
            [
              -121.00076557975744,
              38.76886837702873,
              155.07183987807858
            ],
            [
              -121.00076622462473,
              38.76887809729462,
              155.08203987807755
            ],
            [
              -121.00073412613345,
              38.768952192645365,
              155.17323987807694
            ],
            [
              -121.00071150300016,
              38.76900205619471,
              155.23493987807538
            ],
            [
              -121.00069076620449,
              38.769047644855405,
              155.29133987807649
            ],
            [
              -121.00066834505054,
              38.769083206990594,
              155.33763987807865
            ],
            [
              -121.0006421275922,
              38.76912874845912,
              155.39603987807598
            ],
            [
              -121.00062137177088,
              38.769175767618734,
              155.43943987807717
            ],
            [
              -121.00060256256211,
              38.76921422218813,
              155.46233987807594
            ],
            [
              -121.0005818468686,
              38.769258381237556,
              155.48843987807578
            ],
            [
              -121.00054806139202,
              38.7693224499922,
              155.52703987807539
            ],
            [
              -121.00051813125825,
              38.76937225149124,
              155.55773987807675
            ],
            [
              -121.00048280084006,
              38.769416283783585,
              155.58673987807757
            ],
            [
              -121.00044387957571,
              38.76945599492205,
              155.61413987807785
            ],
            [
              -121.00040864837804,
              38.76949287737525,
              155.63943987807744
            ],
            [
              -121.00036243922405,
              38.76953109505379,
              155.66753987807795
            ],
            [
              -121.00034036388301,
              38.76954726581199,
              155.67993987807765
            ],
            [
              -121.00029641311325,
              38.76959264998129,
              155.7090398780785
            ],
            [
              -121.00015144268401,
              38.76976931137606,
              155.9489398780788
            ],
            [
              -120.99994625659188,
              38.770001206913825,
              156.24873987807692
            ],
            [
              -120.99989832336858,
              38.77018224460452,
              156.38373987807765
            ],
            [
              -120.99986408798445,
              38.77031155815198,
              156.48123987807918
            ],
            [
              -120.99981530180236,
              38.770535554651076,
              156.6065398780767
            ],
            [
              -120.99980844681497,
              38.77062515241011,
              156.65563987807533
            ],
            [
              -120.99978734403516,
              38.770704064013984,
              156.70003987807686
            ],
            [
              -120.99974140368384,
              38.770801414422614,
              156.80083987807504
            ],
            [
              -120.9996823334853,
              38.770905304127176,
              156.9594398780748
            ],
            [
              -120.99963153150294,
              38.771046538279364,
              157.1655398780771
            ],
            [
              -120.99963754516928,
              38.77114069841455,
              157.2901398780788
            ],
            [
              -120.99965752913539,
              38.77119768229258,
              157.38953987807653
            ],
            [
              -120.9996835080155,
              38.77127175979416,
              157.500139878078
            ],
            [
              -120.9997020654568,
              38.77134737338697,
              157.6149398780764
            ],
            [
              -120.99967182458623,
              38.77148808380783,
              157.84373987807743
            ],
            [
              -120.9996646972828,
              38.7715812324703,
              157.9921398780782
            ],
            [
              -120.99962675604355,
              38.77179076332882,
              158.23433987807482
            ],
            [
              -120.99960481810713,
              38.77184906886696,
              158.29563987807757
            ],
            [
              -120.99951456491159,
              38.772030184931644,
              158.46243987807563
            ],
            [
              -120.99940312425467,
              38.77215121793699,
              158.46243987807563
            ],
            [
              -120.99907507258436,
              38.77214559977825,
              158.46243987807563
            ],
            [
              -120.99912776039099,
              38.77210489529432,
              158.46243987807563
            ],
            [
              -120.99914036145603,
              38.77207001997763,
              158.46243987807563
            ],
            [
              -120.99914125030975,
              38.77205076848839,
              158.46243987807563
            ],
            [
              -120.99912371069199,
              38.772027993140696,
              158.46243987807563
            ],
            [
              -120.99907281571669,
              38.77201358180737,
              158.46243987807563
            ],
            [
              -120.99903979944087,
              38.772017475627656,
              158.46243987807563
            ],
            [
              -120.99896835561407,
              38.77204251801205,
              158.46243987807563
            ],
            [
              -120.9988868439471,
              38.77207697562278,
              158.46243987807563
            ],
            [
              -120.99884615633354,
              38.772097123553856,
              158.46243987807563
            ],
            [
              -120.99880498848226,
              38.77211590332278,
              158.46243987807563
            ],
            [
              -120.99877553403024,
              38.772119061098024,
              158.46243987807563
            ],
            [
              -120.99873415933315,
              38.77211001567566,
              158.46243987807563
            ],
            [
              -120.99866538641548,
              38.772115436161315,
              158.46243987807563
            ],
            [
              -120.99860504108263,
              38.77213754849,
              158.46243987807563
            ],
            [
              -120.99780131316949,
              38.77212377684772,
              158.46243987807563
            ],
            [
              -120.99802363693982,
              38.772004810724944,
              158.46243987807563
            ]
          ]
        ]
      }
    }
  ]
}