{
  "type": "FeatureCollection",
  "features": [
    {
      "type": "Feature",
      "properties": {
        "source_fid": 480,
        "authority": "USGS_2019_2020_lidar_hydrobreakline",
        "vertical_datum": "NAVD88",
        "z_units": "metres",
        "is_bathymetry": false
      },
      "geometry": {
        "type": "Polygon",
        "coordinates": [
          [
            [
              -120.98254507177555,
              38.790629479170455,
              175.0780398780768
            ],
            [
              -120.98252741279114,
              38.790617590729205,
              175.06723987807763
            ],
            [
              -120.98249416315181,
              38.79058635244895,
              175.04263987807826
            ],
            [
              -120.9824568711353,
              38.790525474200265,
              175.0128398780772
            ],
            [
              -120.98244160615947,
              38.79047057023724,
              174.99283987807496
            ],
            [
              -120.98241177766263,
              38.79043089678215,
              174.95443987807542
            ],
            [
              -120.98236382469499,
              38.790373580141015,
              174.89793987807874
            ],
            [
              -120.98229848462624,
              38.79031563629744,
              174.83763987807635
            ],
            [
              -120.9822752140646,
              38.790293279385544,
              174.81473987807755
            ],
            [
              -120.98224458753172,
              38.790263854168465,
              174.78453987807634
            ],
            [
              -120.98222736893418,
              38.7902490343125,
              174.7690398780756
            ],
            [
              -120.98221367203867,
              38.79022220530467,
              174.74893987807775
            ],
            [
              -120.98221215007396,
              38.7902119997512,
              174.74893987807775
            ],
            [
              -120.98221571772487,
              38.79018583920778,
              174.74893987807775
            ],
            [
              -120.98222421735124,
              38.79016648336914,
              174.74893987807775
            ],
            [
              -120.98225920778088,
              38.79015729877886,
              174.74883987807772
            ],
            [
              -120.98227802852713,
              38.790145587693374,
              174.74883987807772
            ],
            [
              -120.98228826380891,
              38.79012391635912,
              174.74883987807772
            ],
            [
              -120.98227639501003,
              38.79007552252174,
              174.74873987807769
            ],
            [
              -120.98226278942654,
              38.79002944236199,
              174.74863987807765
            ],
            [
              -120.98226425825068,
              38.78999002696762,
              174.74853987807762
            ],
            [
              -120.98228947745652,
              38.789945703366875,
              174.74853987807762
            ],
            [
              -120.98232270195952,
              38.78991696662898,
              174.7484398780776
            ],
            [
              -120.98233934578697,
              38.78988361685441,
              174.7484398780776
            ],
            [
              -120.98237562102283,
              38.789760007454326,
              174.74713987807715
            ],
            [
              -120.98237401383577,
              38.78971263421923,
              174.74653987807696
            ],
            [
              -120.98236141971111,
              38.78966577732382,
              174.74593987807674
            ],
            [
              -120.98234666369858,
              38.78963799217079,
              174.7455398780766
            ],
            [
              -120.98229218203069,
              38.789575529822116,
              174.74463987807633
            ],
            [
              -120.98228052527412,
              38.789561074045785,
              174.74443987807626
            ],
            [
              -120.98226204242297,
              38.78952754342285,
              174.7440398780761
            ],
            [
              -120.98224906726071,
              38.789467099862485,
              174.74323987807585
            ],
            [
              -120.98221452298426,
              38.789368551626055,
              174.74173987807535
            ],
            [
              -120.98215330266224,
              38.78926202784977,
              174.74023987807485
            ],
            [
              -120.98209922217156,
              38.789141806736794,
              174.73863987807874
            ],
            [
              -120.98201945776329,
              38.788959668380365,
              174.7360398780779
            ],
            [
              -120.98195981626503,
              38.788800871996564,
              174.73383987807713
            ],
            [
              -120.98192670981672,
              38.788740487026004,
              174.73303987807688
            ],
            [
              -120.98190651939579,
              38.78871216135363,
              174.73263987807675
            ],
            [
              -120.98185955369539,
              38.788671224828434,
              174.7319398780765
            ],
            [
              -120.98181103825173,
              38.788613590381715,
              174.73113987807625
            ],
            [
              -120.98177699812032,
              38.788566093982915,
              174.730439878076
            ],
            [
              -120.98172856471112,
              38.78850273931749,
              174.72023987807705
            ],
            [
              -120.98168752310688,
              38.788433729457644,
              174.70363987807593
            ],
            [
              -120.98165218776153,
              38.788349035797204,
              174.6847398780785
            ],
            [
              -120.98152478786999,
              38.788187624987415,
              174.64293987807784
            ],
            [
              -120.98151290826587,
              38.78817581590703,
              174.63963987807674
            ],
            [
              -120.98147950218333,
              38.788157300672,
              174.63303987807896
            ],
            [
              -120.98141608454748,
              38.7881195575855,
              174.5918398780785
            ],
            [
              -120.9813508380913,
              38.78808179841916,
              174.54493987807615
            ],
            [
              -120.98130384509322,
              38.78804563184296,
              174.50653987807664
            ],
            [
              -120.98126600671519,
              38.788008113992404,
              174.4711398780781
            ],
            [
              -120.9812300575688,
              38.78796632157818,
              174.43443987807916
            ],
            [
              -120.98120862328051,
              38.78793180899228,
              174.43073987807793
            ],
            [
              -120.98118211784067,
              38.78786864558965,
              174.32783987807903
            ],
            [
              -120.98117870922658,
              38.78783281814537,
              174.25333987807633
            ],
            [
              -120.98115535682284,
              38.78776619310219,
              174.10443987807537
            ],
            [
              -120.98113837891823,
              38.78771775429694,
              173.99623987807917
            ],
            [
              -120.9811348700353,
              38.7876988120937,
              173.95583987807896
            ],
            [
              -120.9811172296823,
              38.78766335166886,
              173.87343987807807
            ],
            [
              -120.98105525697093,
              38.787582725998384,
              173.71493987807835
            ],
            [
              -120.98103546178191,
              38.7875490358959,
              173.69843987807727
            ],
            [
              -120.98102365078208,
              38.78751533747889,
              173.6701398780767
            ],
            [
              -120.9809804238375,
              38.787380652027856,
              173.5572398780789
            ],
            [
              -120.9809633104899,
              38.787286406040394,
              173.47863987807483
            ],
            [
              -120.98098417433374,
              38.78714153497865,
              173.35903987807478
            ],
            [
              -120.98098723286016,
              38.787066730606625,
              173.29703987807625
            ],
            [
              -120.98099858144448,
              38.787015395232466,
              173.25483987807547
            ],
            [
              -120.98100531880762,
              38.786999325919346,
              173.2416398780755
            ],
            [
              -120.98101296121173,
              38.7869671676389,
              173.21523987807555
            ],
            [
              -120.9810158310384,
              38.786909308095844,
              173.16733987807729
            ],
            [
              -120.98100906008715,
              38.78687863147945,
              173.14163987807757
            ],
            [
              -120.9809912193234,
              38.78684368009896,
              173.1121398780766
            ],
            [
              -120.98095598172573,
              38.7867317897948,
              172.97213987807862
            ],
            [
              -120.98094243209015,
              38.78667042026828,
              172.8664398780788
            ],
            [
              -120.98092978327425,
              38.786604265700305,
              172.75253987807625
            ],
            [
              -120.98092706212917,
              38.78654344708241,
              172.64843987807694
            ],
            [
              -120.98094247210456,
              38.786432069763876,
              172.45903987807577
            ],
            [
              -120.98095561705388,
              38.78635601783666,
              172.32983987807697
            ],
            [
              -120.9809718840048,
              38.78628404298744,
              172.32513987807542
            ],
            [
              -120.98101646692525,
              38.78608677119423,
              172.26163987807638
            ],
            [
              -120.98101433518501,
              38.786035265253865,
              172.2158398780788
            ],
            [
              -120.98102376827376,
              38.78595998076675,
              172.10423987807704
            ],
            [
              -120.98103247211502,
              38.785918568562366,
              172.0700791512179
            ],
            [
              -120.98141940588991,
              38.785925255534586,
              172.0958407421758
            ],
            [
              -120.98142031954687,
              38.78594468675083,
              172.11213987807523
            ],
            [
              -120.98140445118796,
              38.7861038048755,
              172.22143987807627
            ],
            [
              -120.9813848699106,
              38.78626368864648,
              172.32513987807542
            ],
            [
              -120.98138183401268,
              38.78628341489468,
              172.32513987807542
            ],
            [
              -120.98138203625219,
              38.7862856095317,
              172.32513987807542
            ],
            [
              -120.9813867887,
              38.78633723665493,
              172.32513987807542
            ],
            [
              -120.98138633813524,
              38.78636869766972,
              172.37893987807564
            ],
            [
              -120.98139886114649,
              38.786387400019294,
              172.41173987807773
            ],
            [
              -120.98139863586024,
              38.7864031309771,
              172.43863987807785
            ],
            [
              -120.98136909475687,
              38.78642432564767,
              172.47293987807598
            ],
            [
              -120.98133592104926,
              38.78644405686299,
              172.50453987807768
            ],
            [
              -120.98131545234318,
              38.78646962134339,
              172.54693987807852
            ],
            [
              -120.98130036544444,
              38.78650238461876,
              172.60193987807915
            ],
            [
              -120.98129445338945,
              38.78653236703878,
              172.65283987807842
            ],
            [
              -120.98129540034948,
              38.78659387550687,
              172.75803987807808
            ],
            [
              -120.9813020124536,
              38.78664256119692,
              172.84163987807494
            ],
            [
              -120.98132665002966,
              38.786708568645366,
              172.9560398780777
            ],
            [
              -120.98134595138266,
              38.78676451633951,
              173.052939878079
            ],
            [
              -120.98135658414955,
              38.78678749323647,
              173.07583987807777
            ],
            [
              -120.98137492066427,
              38.78691065261977,
              173.1785398780766
            ],
            [
              -120.98136890723276,
              38.78699063304301,
              173.2446398780765
            ],
            [
              -120.98138430918333,
              38.787079667392916,
              173.31893987807914
            ],
            [
              -120.98137887085919,
              38.78716634947057,
              173.39073987807652
            ],
            [
              -120.98137400976597,
              38.78724383091316,
              173.45483987807575
            ],
            [
              -120.98136161302428,
              38.78728068098894,
              173.48503987807695
            ],
            [
              -120.98134650162055,
              38.78731602882148,
              173.51393987807774
            ],
            [
              -120.98133131781293,
              38.78737306769806,
              173.56083987807565
            ],
            [
              -120.98132991961548,
              38.78742986264413,
              173.6079398780781
            ],
            [
              -120.98133482885164,
              38.78749031664584,
              173.65813987807712
            ],
            [
              -120.9813485495121,
              38.78754540543679,
              173.7749398780762
            ],
            [
              -120.98136637814558,
              38.7876303366186,
              173.9575398780751
            ],
            [
              -120.98137250591242,
              38.78769323922298,
              174.0884398780789
            ],
            [
              -120.98139067393642,
              38.78774507322575,
              174.20423987807766
            ],
            [
              -120.98141507269054,
              38.78777570445319,
              174.28093987807668
            ],
            [
              -120.98145827110274,
              38.78781302512425,
              174.44923987807522
            ],
            [
              -120.98157102852659,
              38.78785084330654,
              174.5158398780753
            ],
            [
              -120.9816973517584,
              38.787870580677286,
              174.57873987807858
            ],
            [
              -120.98180782692575,
              38.787890535703305,
              174.62293987807558
            ],
            [
              -120.98190375522624,
              38.78792000481852,
              174.6298398780779
            ],
            [
              -120.9819543847489,
              38.787946765799305,
              174.6395398780767
            ],
            [
              -120.98198309875903,
              38.78797043992386,
              174.64663987807907
            ],
            [
              -120.98204389731923,
              38.78801899251336,
              174.6613398780751
            ],
            [
              -120.98209013626982,
              38.78808277647471,
              174.6775398780761
            ],
            [
              -120.98220158825261,
              38.7882644790386,
              174.72153987807746
            ],
            [
              -120.98229648137568,
              38.78845571593618,
              174.73113987807625
            ],
            [
              -120.98233886032801,
              38.78855390848886,
              174.7324398780767
            ],
            [
              -120.98238252219541,
              38.78866711454369,
              174.73393987807717
            ],
            [
              -120.98246142510138,
              38.78889221222191,
              174.73663987807808
            ],
            [
              -120.98255161037345,
              38.789081365223716,
              174.73923987807896
            ],
            [
              -120.98260968527546,
              38.78921298364035,
              174.74103987807513
            ],
            [
              -120.98262966181477,
              38.78926997127779,
              174.74183987807538
            ],
            [
              -120.98264649372156,
              38.789352051068654,
              174.7425398780756
            ],
            [
              -120.98267573001043,
              38.78952629649136,
              174.7448398780764
            ],
            [
              -120.98268698947724,
              38.78964925216152,
              174.74643987807693
            ],
            [
              -120.98269596735047,
              38.789754346737276,
              174.74773987807734
            ],
            [
              -120.9826799630927,
              38.78986765693248,
              174.7484398780776
            ],
            [
              -120.98266938510191,
              38.78997373606035,
              174.74863987807765
            ],
            [
              -120.98265324514277,
              38.790041240017956,
              174.74873987807769
            ],
            [
              -120.98266365216523,
              38.790127704186304,
              174.7548398780753
            ],
            [
              -120.98268890568131,
              38.79021110103188,
              174.82823987807762
            ],
            [
              -120.98274688112008,
              38.79034106347897,
              174.94623987807714
            ],
            [
              -120.98276539396754,
              38.790372527549934,
              174.97573987807812
            ],
            [
              -120.98281554012868,
              38.790460675914225,
              175.0638398780765
            ],
            [
              -120.98284440359555,
              38.790495401015065,
              175.08913987807605
            ],
            [
              -120.9829273821297,
              38.79056212544365,
              175.14493987807697
            ],
            [
              -120.98297633439837,
              38.7906222930303,
              175.18843987807819
            ],
            [
              -120.9829930806048,
              38.790646893991386,
              175.20537772217145
            ],
            [
              -120.98255557948849,
              38.79063933865043,
              175.08581557021773
            ],
            [
              -120.98254507177555,
              38.790629479170455,
              175.0780398780768
            ]
          ]
        ]
      }
    }
  ]
}