{
  "type": "FeatureCollection",
  "features": [
    {
      "type": "Feature",
      "properties": {
        "source_fid": 395,
        "authority": "USGS_2019_2020_lidar_hydrobreakline",
        "vertical_datum": "NAVD88",
        "z_units": "metres",
        "is_bathymetry": false
      },
      "geometry": {
        "type": "Polygon",
        "coordinates": [
          [
            [
              -120.84026010773842,
              38.77146223830789,
              268.3142398780781
            ],
            [
              -120.84039888290293,
              38.77143128699206,
              268.2847398780772
            ],
            [
              -120.8404931153903,
              38.77140948568258,
              268.2647398780749
            ],
            [
              -120.84058399997963,
              38.77140547790526,
              268.24633987807766
            ],
            [
              -120.84067191461087,
              38.771402079166876,
              268.2314398780771
            ],
            [
              -120.84069314261824,
              38.771400505496615,
              268.2314398780771
            ],
            [
              -120.84075549466917,
              38.771402307534466,
              268.19803987807484
            ],
            [
              -120.84079508635553,
              38.771408542852505,
              268.17453987807585
            ],
            [
              -120.84089232568175,
              38.77142277760988,
              268.11693987807877
            ],
            [
              -120.84102955005604,
              38.771423910813326,
              268.03453987807785
            ],
            [
              -120.84113866815446,
              38.77143570437124,
              267.9696398780784
            ],
            [
              -120.84120389587062,
              38.771433078790544,
              267.9455398780748
            ],
            [
              -120.84128646653329,
              38.771419253632814,
              267.9194398780749
            ],
            [
              -120.84134377743494,
              38.771403343763055,
              267.9012398780777
            ],
            [
              -120.84145524072757,
              38.77138533276869,
              267.86593987807476
            ],
            [
              -120.8415126653921,
              38.771385754522626,
              267.8478398780776
            ],
            [
              -120.84155256407165,
              38.77140345990298,
              267.8354398780779
            ],
            [
              -120.84159188970497,
              38.77141451776721,
              267.8231398780782
            ],
            [
              -120.84165883585443,
              38.77142170237715,
              267.80213987807565
            ],
            [
              -120.84173110803445,
              38.77141907291761,
              267.7793398780769
            ],
            [
              -120.84178813220025,
              38.77141468939073,
              267.7613398780753
            ],
            [
              -120.84190275717951,
              38.771391141659635,
              267.72503987807653
            ],
            [
              -120.84195600183308,
              38.77137042941532,
              267.7099398780759
            ],
            [
              -120.84203638885334,
              38.77136368861374,
              267.6126398780789
            ],
            [
              -120.84211301094805,
              38.77135527768573,
              267.4838398780758
            ],
            [
              -120.84221180150571,
              38.771337426960436,
              267.31923987807846
            ],
            [
              -120.84225159326326,
              38.771329252224554,
              267.25303987807854
            ],
            [
              -120.8423001510241,
              38.771328933768785,
              267.1705398780776
            ],
            [
              -120.84234446815378,
              38.77133460844692,
              267.0150398780789
            ],
            [
              -120.84240113564846,
              38.77136939424746,
              266.87643987807695
            ],
            [
              -120.84245286819417,
              38.771417412572404,
              266.7492398780788
            ],
            [
              -120.84250062711155,
              38.77145402850468,
              266.63203987807515
            ],
            [
              -120.84256679080885,
              38.77147953275589,
              266.4707398780789
            ],
            [
              -120.84265708921379,
              38.77148297374972,
              266.20633987807486
            ],
            [
              -120.84285253347153,
              38.7714868060721,
              265.8612398780749
            ],
            [
              -120.84291854406726,
              38.77147871227654,
              265.72363987807773
            ],
            [
              -120.84296312276383,
              38.77146300624521,
              265.67143987807805
            ],
            [
              -120.84298595495387,
              38.771449620511895,
              265.6422398780772
            ],
            [
              -120.84309754809445,
              38.77136804922132,
              265.43933987807594
            ],
            [
              -120.84311456929406,
              38.77135404065472,
              265.4206398780786
            ],
            [
              -120.84317368345778,
              38.77130258206971,
              265.20323987807694
            ],
            [
              -120.84322936912903,
              38.77124878736963,
              264.95223987807736
            ],
            [
              -120.84327224288586,
              38.771196294778,
              264.66943987807605
            ],
            [
              -120.84329865365979,
              38.771145068828154,
              264.56353987807614
            ],
            [
              -120.84332178304332,
              38.771070925217685,
              264.41603987807565
            ],
            [
              -120.8433242403756,
              38.77106680444605,
              264.40743987807724
            ],
            [
              -120.8433391532472,
              38.77102029659668,
              264.3147398780773
            ],
            [
              -120.8433539611152,
              38.770980599760286,
              264.3002398780769
            ],
            [
              -120.84336203641547,
              38.770939843895164,
              264.2985398780763
            ],
            [
              -120.8433726649651,
              38.77087901514199,
              264.2960398780755
            ],
            [
              -120.84337576485363,
              38.77081484453781,
              264.2938398780748
            ],
            [
              -120.8433659834749,
              38.770741103657485,
              264.2924398780787
            ],
            [
              -120.84336493503065,
              38.77072227602893,
              264.2917398780785
            ],
            [
              -120.84337508990245,
              38.77068229767924,
              264.290139878078
            ],
            [
              -120.84338531167661,
              38.77066871234044,
              264.28943987807776
            ],
            [
              -120.84341061797706,
              38.77063174726432,
              264.28773987807716
            ],
            [
              -120.84343492150781,
              38.77058276977396,
              264.2855398780764
            ],
            [
              -120.84347963372446,
              38.77054670347528,
              264.2855398780764
            ],
            [
              -120.84353346335908,
              38.770518539205966,
              264.28373987807583
            ],
            [
              -120.84357917825162,
              38.770494485276544,
              264.28203987807524
            ],
            [
              -120.84363656375153,
              38.77045826047401,
              264.2796398780789
            ],
            [
              -120.8436890122146,
              38.770435266424215,
              264.2784398780785
            ],
            [
              -120.84372719835534,
              38.77040787240796,
              264.2779398780783
            ],
            [
              -120.84379311401932,
              38.77038699904708,
              264.2756398780776
            ],
            [
              -120.84384773725012,
              38.77036111562827,
              264.2736398780769
            ],
            [
              -120.84388019364735,
              38.770344672265395,
              264.2723398780765
            ],
            [
              -120.84392850000037,
              38.770337190804774,
              264.27083987807595
            ],
            [
              -120.84397187169576,
              38.770342941941976,
              264.2697398780756
            ],
            [
              -120.8439974252084,
              38.77035235365195,
              264.2691398780754
            ],
            [
              -120.84404890928916,
              38.77035399344241,
              264.2677398780749
            ],
            [
              -120.84407888116756,
              38.770353615296486,
              264.2669398780791
            ],
            [
              -120.8441526527137,
              38.77031656957985,
              264.2640398780781
            ],
            [
              -120.84433116100425,
              38.77022613409415,
              264.2571398780758
            ],
            [
              -120.84448273548088,
              38.77013145885113,
              264.2515398780784
            ],
            [
              -120.84469023559024,
              38.77004487646676,
              264.24403987807585
            ],
            [
              -120.84473170366215,
              38.77001689493811,
              264.2423398780753
            ],
            [
              -120.84477258638381,
              38.7699893102927,
              264.2408398780748
            ],
            [
              -120.84482878338375,
              38.76996448447606,
              264.231139878076
            ],
            [
              -120.84496713769933,
              38.76991406490345,
              264.20343987807564
            ],
            [
              -120.84502594098171,
              38.76990931460017,
              264.1930398780766
            ],
            [
              -120.84506671942923,
              38.769898491834475,
              264.1852398780784
            ],
            [
              -120.84510887879313,
              38.76988249874485,
              264.1767398780756
            ],
            [
              -120.84512431053152,
              38.76987199767906,
              264.17323987807885
            ],
            [
              -120.84516912289703,
              38.76985229653766,
              264.16403987807576
            ],
            [
              -120.84522724107643,
              38.76983863075359,
              264.1506398780757
            ],
            [
              -120.84528366146989,
              38.76982703824848,
              264.1400398780766
            ],
            [
              -120.84535492882465,
              38.769812395040084,
              264.1268398780766
            ],
            [
              -120.8453994709064,
              38.769803243012575,
              264.1185398780783
            ],
            [
              -120.84550381923881,
              38.76980135101286,
              264.10083987807684
            ],
            [
              -120.8456370687377,
              38.769791077425346,
              264.08303987807534
            ],
            [
              -120.84569704470317,
              38.76977142417053,
              264.0755398780773
            ],
            [
              -120.8457405824437,
              38.76975025961091,
              264.0699398780754
            ],
            [
              -120.84580290165762,
              38.769700801053155,
              264.0612398780769
            ],
            [
              -120.84581891907992,
              38.769682848582605,
              264.0588398780761
            ],
            [
              -120.84582916991972,
              38.769639201427765,
              264.05623987807525
            ],
            [
              -120.8458253642921,
              38.7696008850574,
              264.055439878075
            ],
            [
              -120.84582394498719,
              38.76956940987949,
              264.0546398780792
            ],
            [
              -120.84583975543721,
              38.76954172602272,
              264.05193987807826
            ],
            [
              -120.84587459617185,
              38.76953212328206,
              264.0476398780768
            ],
            [
              -120.84595874216619,
              38.76952705147967,
              264.037939878078
            ],
            [
              -120.84604686347164,
              38.769533380976874,
              264.02803987807914
            ],
            [
              -120.84609755193769,
              38.76953273976696,
              264.0223398780772
            ],
            [
              -120.84613536130519,
              38.76952252768758,
              263.96163987807915
            ],
            [
              -120.8461796949706,
              38.76950364396644,
              263.8996398780762
            ],
            [
              -120.84623828971962,
              38.76948915985329,
              263.82303987807717
            ],
            [
              -120.84625243806431,
              38.76948762773026,
              263.80551764981783
            ],
            [
              -120.84623756867613,
              38.769981928743434,
              264.01784991860706
            ],
            [
              -120.84620736150562,
              38.76999400882279,
              264.02473987807804
            ],
            [
              -120.84616382261872,
              38.770015172644825,
              264.03033987807544
            ],
            [
              -120.84612760313051,
              38.770029945816525,
              264.034939878077
            ],
            [
              -120.84607791520544,
              38.770042598502066,
              264.04103987807906
            ],
            [
              -120.84601317329873,
              38.770048570545846,
              264.0485398780771
            ],
            [
              -120.84593119916696,
              38.77005075302728,
              264.0579398780758
            ],
            [
              -120.84589042077825,
              38.77006157519567,
              264.0629398780775
            ],
            [
              -120.84585796498942,
              38.77007801822013,
              264.0672398780789
            ],
            [
              -120.8458263042525,
              38.770096741328835,
              264.07143987807586
            ],
            [
              -120.84574813453399,
              38.770137239137625,
              264.0897398780776
            ],
            [
              -120.8457162656542,
              38.77014623172279,
              264.09583987807514
            ],
            [
              -120.84564499803948,
              38.77016087515263,
              264.10913987807515
            ],
            [
              -120.84555670625227,
              38.770181458549956,
              264.1258398780763
            ],
            [
              -120.84551651357876,
              38.77018483017688,
              264.13283987807864
            ],
            [
              -120.84544127407217,
              38.77018807213774,
              264.14583987807856
            ],
            [
              -120.84535653907946,
              38.77020059485178,
              264.1611398780748
            ],
            [
              -120.84526607460805,
              38.770224070079784,
              264.17663987807555
            ],
            [
              -120.84509287988242,
              38.77028409073324,
              264.21093987807814
            ],
            [
              -120.84493829688076,
              38.77034273138621,
              264.241439878075
            ],
            [
              -120.84481319992429,
              38.77038553922629,
              264.2458398780765
            ],
            [
              -120.84464435527084,
              38.77043977968778,
              264.25163987807844
            ],
            [
              -120.84459628580989,
              38.77046456288725,
              264.2542398780748
            ],
            [
              -120.84458106480045,
              38.770475468705186,
              264.2548398780751
            ],
            [
              -120.84456856843006,
              38.77048711789463,
              264.25543987807526
            ],
            [
              -120.84455410082866,
              38.77049769335329,
              264.25603987807546
            ],
            [
              -120.84450583071627,
              38.770517112082054,
              264.257839878076
            ],
            [
              -120.84447910513147,
              38.770522603094584,
              264.25863987807634
            ],
            [
              -120.844432387614,
              38.77053464497842,
              264.26023987807685
            ],
            [
              -120.84437914429223,
              38.77055535926066,
              264.2621398780775
            ],
            [
              -120.84433156173407,
              38.77058621868122,
              264.26413987807814
            ],
            [
              -120.84429178684856,
              38.77060905179909,
              264.2657398780787
            ],
            [
              -120.84423122377426,
              38.7706361565313,
              264.268039878075
            ],
            [
              -120.84416095824443,
              38.77066281055033,
              264.27053987807585
            ],
            [
              -120.84410871762081,
              38.770695536209736,
              264.2727398780766
            ],
            [
              -120.84407887873816,
              38.770715839231976,
              264.273939878077
            ],
            [
              -120.84404936626404,
              38.77074438375689,
              264.27533987807743
            ],
            [
              -120.84400800231795,
              38.77076265657786,
              264.276939878078
            ],
            [
              -120.84396780924267,
              38.77076602766841,
              264.28053987807476
            ],
            [
              -120.843914734854,
              38.770759826728536,
              264.2816398780751
            ],
            [
              -120.84388584920974,
              38.770756451495544,
              264.28213987807527
            ],
            [
              -120.84383493475116,
              38.770759116628525,
              264.28343987807574
            ],
            [
              -120.84379633053763,
              38.77076704786197,
              264.2846398780761
            ],
            [
              -120.84375393777219,
              38.7707860211929,
              264.28743987807707
            ],
            [
              -120.84371895391988,
              38.77080982531018,
              264.28893987807754
            ],
            [
              -120.84368850289599,
              38.77085029073723,
              264.2908398780782
            ],
            [
              -120.84363730430839,
              38.77093167410612,
              264.2958398780754
            ],
            [
              -120.84361036300459,
              38.771012654929415,
              264.2993398780766
            ],
            [
              -120.8435868630328,
              38.77106069446585,
              264.3014398780773
            ],
            [
              -120.84357749196977,
              38.77113139843124,
              264.430439878076
            ],
            [
              -120.84356475348034,
              38.771240686142455,
              264.63963987807495
            ],
            [
              -120.84355578867464,
              38.77131832513863,
              264.7248398780768
            ],
            [
              -120.84355475693603,
              38.77132494402849,
              264.7476398780755
            ],
            [
              -120.84352748329734,
              38.77137453162508,
              264.94563987807516
            ],
            [
              -120.84346665425265,
              38.771445404928706,
              265.25883987807777
            ],
            [
              -120.84343146752335,
              38.77147989217328,
              265.3558398780791
            ],
            [
              -120.84333143925491,
              38.77155164878006,
              265.436539878075
            ],
            [
              -120.84329335556733,
              38.771581542018524,
              265.4773398780753
            ],
            [
              -120.84323453019748,
              38.771612966479644,
              265.51243987807817
            ],
            [
              -120.84313945888181,
              38.77163996191525,
              265.5750398780769
            ],
            [
              -120.84298959969514,
              38.77167563599973,
              265.7424398780752
            ],
            [
              -120.84286705265306,
              38.77169836886044,
              265.91253987807875
            ],
            [
              -120.84274806050425,
              38.77171304022059,
              266.1288398780756
            ],
            [
              -120.84263341941012,
              38.771721931118286,
              266.299739878075
            ],
            [
              -120.84235146600767,
              38.77173938732093,
              266.98213987807674
            ],
            [
              -120.84228421176755,
              38.77174750533248,
              267.1368398780752
            ],
            [
              -120.84221063706231,
              38.77174960500442,
              267.2446398780757
            ],
            [
              -120.84207464592205,
              38.77174386815081,
              267.4769398780779
            ],
            [
              -120.84199840094213,
              38.771735095449166,
              267.6082398780774
            ],
            [
              -120.84190433733845,
              38.771729982964764,
              267.72703987807716
            ],
            [
              -120.84182750726985,
              38.77172866235466,
              267.7512398780764
            ],
            [
              -120.84172118853033,
              38.77174317260869,
              267.78483987807874
            ],
            [
              -120.84155568589937,
              38.77177961583195,
              267.8372398780785
            ],
            [
              -120.84144581075483,
              38.77180218715689,
              267.8720398780768
            ],
            [
              -120.84135078424718,
              38.77182170912677,
              267.902139878078
            ],
            [
              -120.84123555534379,
              38.77183804902031,
              267.9385398780769
            ],
            [
              -120.84102429850246,
              38.77186189898699,
              268.0602398780776
            ],
            [
              -120.84095340482894,
              38.77185935682323,
              268.10273987807847
            ],
            [
              -120.84086310719405,
              38.77185591361493,
              268.1567398780788
            ],
            [
              -120.84080547473302,
              38.77184576103864,
              268.1908398780769
            ],
            [
              -120.84070229603623,
              38.771832746243966,
              268.2467398780778
            ],
            [
              -120.84064051972896,
              38.77183810525581,
              268.2593398780776
            ],
            [
              -120.84056924937478,
              38.77185274556765,
              268.27443987807817
            ],
            [
              -120.84051546203662,
              38.771869776797665,
              268.2861398780776
            ],
            [
              -120.84047840333196,
              38.77189339976009,
              268.2948398780761
            ],
            [
              -120.84042080769787,
              38.77191989249573,
              268.30783987807604
            ],
            [
              -120.84038735471583,
              38.77193065979163,
              268.31513987807847
            ],
            [
              -120.84033218301401,
              38.77194238133943,
              268.3268398780779
            ],
            [
              -120.84029608433622,
              38.77194551277647,
              268.33053987807915
            ],
            [
              -120.84018138236655,
              38.77196230138336,
              268.3353446065578
            ],
            [
              -120.84019607166266,
              38.771475392365225,
              268.32336692919523
            ],
            [
              -120.84026010773842,
              38.77146223830789,
              268.3142398780781
            ]
          ]
        ]
      }
    }
  ]
}