{
  "type": "FeatureCollection",
  "features": [
    {
      "type": "Feature",
      "properties": {
        "source_fid": 480,
        "authority": "USGS_2019_2020_lidar_hydrobreakline",
        "vertical_datum": "NAVD88",
        "z_units": "metres",
        "is_bathymetry": false
      },
      "geometry": {
        "type": "Polygon",
        "coordinates": [
          [
            [
              -120.9809680712303,
              38.785290075018786,
              171.53743987807843
            ],
            [
              -120.98098581669495,
              38.78501140020911,
              171.32473987807836
            ],
            [
              -120.98096728814095,
              38.78485633262105,
              171.16973987807538
            ],
            [
              -120.98092678856042,
              38.784638580989686,
              171.01013987807528
            ],
            [
              -120.98092738140026,
              38.78450400980124,
              170.88903987807475
            ],
            [
              -120.98093410248703,
              38.78443234126557,
              170.82363987807508
            ],
            [
              -120.98098894568622,
              38.78422544749542,
              170.62973987807686
            ],
            [
              -120.98101979663505,
              38.78410907037191,
              170.52063987807588
            ],
            [
              -120.98107704134664,
              38.784045296828396,
              170.45513987807618
            ],
            [
              -120.98114470602937,
              38.783988538343465,
              170.3944398780781
            ],
            [
              -120.98119952256947,
              38.78394054393995,
              170.3434398780788
            ],
            [
              -120.98122655349775,
              38.783901663660394,
              170.3045398780791
            ],
            [
              -120.98123906936232,
              38.78386361279833,
              170.26853987807596
            ],
            [
              -120.98123879249641,
              38.78382548301817,
              170.2342398780778
            ],
            [
              -120.98124850895789,
              38.783762361741594,
              170.17613987807616
            ],
            [
              -120.98127706372884,
              38.78370757178752,
              170.17473987807568
            ],
            [
              -120.98133359436036,
              38.783653112874894,
              170.14323987807848
            ],
            [
              -120.9813710026706,
              38.78357815938698,
              170.0954398780758
            ],
            [
              -120.98137173626098,
              38.783573390895,
              170.09293987807496
            ],
            [
              -120.98137398449937,
              38.78353101556431,
              170.07213987807688
            ],
            [
              -120.9813783144201,
              38.78348385564007,
              170.04833987807783
            ],
            [
              -120.98137886852511,
              38.78344524394533,
              170.02983987807607
            ],
            [
              -120.98138853445889,
              38.7834081437703,
              169.9432398780782
            ],
            [
              -120.98140358201739,
              38.7833782396876,
              169.90353987807825
            ],
            [
              -120.98143125326041,
              38.78335988996307,
              169.87063987807613
            ],
            [
              -120.9814824934373,
              38.78335461858057,
              169.8410398780751
            ],
            [
              -120.98149710975514,
              38.78335474680311,
              169.83443987807735
            ],
            [
              -120.98152270878174,
              38.78335354159207,
              169.82123987807736
            ],
            [
              -120.98153921299908,
              38.78334939524162,
              169.8169398780759
            ],
            [
              -120.98157236588874,
              38.78333109356947,
              169.8169398780759
            ],
            [
              -120.98160354897972,
              38.78332278574203,
              169.80063987807492
            ],
            [
              -120.98163462854723,
              38.7833216276784,
              169.78563987807877
            ],
            [
              -120.98167309931448,
              38.78331481353032,
              169.76333987807575
            ],
            [
              -120.98171532650879,
              38.78330088163584,
              169.73433987807493
            ],
            [
              -120.98175389845954,
              38.783286917668605,
              169.70703987807914
            ],
            [
              -120.98178697022978,
              38.783262939366516,
              169.65283987807877
            ],
            [
              -120.98181923446812,
              38.78321054044863,
              169.59903987807854
            ],
            [
              -120.98185792348364,
              38.78315059942163,
              169.5557398780774
            ],
            [
              -120.98188275620971,
              38.78309621453385,
              169.5557398780774
            ],
            [
              -120.9818832313437,
              38.783094623153744,
              169.5557398780774
            ],
            [
              -120.98189815528136,
              38.78304462809039,
              169.5557398780774
            ],
            [
              -120.98190832687153,
              38.782989386680285,
              169.55563987807736
            ],
            [
              -120.98193208191535,
              38.78294796482048,
              169.55053987807565
            ],
            [
              -120.9819714158311,
              38.782906159723304,
              169.54473987807816
            ],
            [
              -120.98207849159654,
              38.78279016598234,
              169.5286398780772
            ],
            [
              -120.9821730888815,
              38.7826745654683,
              169.51343987807655
            ],
            [
              -120.9821963405514,
              38.78263146251229,
              169.49343987807876
            ],
            [
              -120.98223357785363,
              38.782583160361675,
              169.445339878076
            ],
            [
              -120.98227426221568,
              38.78254919157777,
              169.40483987807576
            ],
            [
              -120.9823516745027,
              38.7825026722297,
              169.33963987807618
            ],
            [
              -120.9823995633672,
              38.78247591903333,
              169.30053987807642
            ],
            [
              -120.98245856098345,
              38.78243924934402,
              169.2500398780773
            ],
            [
              -120.98251213711602,
              38.7823982427853,
              169.19923987807806
            ],
            [
              -120.98254721918757,
              38.78237280616584,
              169.1668398780761
            ],
            [
              -120.9825915175485,
              38.78234172939618,
              169.126639878076
            ],
            [
              -120.98262850783094,
              38.78231058766938,
              169.08963987807695
            ],
            [
              -120.98267451098651,
              38.7822881071638,
              169.05423987807842
            ],
            [
              -120.9827225308377,
              38.782268675038395,
              169.0198398780758
            ],
            [
              -120.98272993670768,
              38.7822633478642,
              169.01303987807796
            ],
            [
              -120.98274272343154,
              38.782245798073404,
              168.99593987807668
            ],
            [
              -120.98276142301978,
              38.78221592761963,
              168.96803987807624
            ],
            [
              -120.98279129032387,
              38.78217185184801,
              168.91083987807488
            ],
            [
              -120.98281729676985,
              38.78214204450333,
              168.83043987807906
            ],
            [
              -120.98285613486318,
              38.78210949001983,
              168.731239878077
            ],
            [
              -120.98289131776859,
              38.78207690260087,
              168.63583987807618
            ],
            [
              -120.98291724463392,
              38.78205281634206,
              168.56553987807487
            ],
            [
              -120.98295055900701,
              38.7820230729884,
              168.47723987807643
            ],
            [
              -120.98298740697064,
              38.78200194283612,
              168.40003987807725
            ],
            [
              -120.983015118175,
              38.78198073173745,
              168.33273987807695
            ],
            [
              -120.98303159783879,
              38.781964346732835,
              168.28613987807913
            ],
            [
              -120.98303365401243,
              38.78196230161456,
              168.28033987807717
            ],
            [
              -120.98305962054046,
              38.78193535431899,
              168.20493987807862
            ],
            [
              -120.98306364082315,
              38.78193118219141,
              168.19323987807914
            ],
            [
              -120.98308558818684,
              38.7819084079285,
              168.1295398780756
            ],
            [
              -120.98310601176665,
              38.781885702299576,
              168.06753987807707
            ],
            [
              -120.98312836511084,
              38.78185586379054,
              167.99113987807817
            ],
            [
              -120.98315254487461,
              38.78182604037298,
              167.91263987807855
            ],
            [
              -120.98317292981224,
              38.781806195747016,
              167.8557398780773
            ],
            [
              -120.98320813284545,
              38.78177217953552,
              167.7579398780757
            ],
            [
              -120.98323945585821,
              38.78175386046827,
              167.6916398780757
            ],
            [
              -120.98328371381352,
              38.781725642636296,
              167.60483987807777
            ],
            [
              -120.9833132728288,
              38.781703017874015,
              167.59473987807883
            ],
            [
              -120.98333375872768,
              38.7816760234249,
              167.58493987807555
            ],
            [
              -120.98334504774186,
              38.78165323866498,
              167.57753987807752
            ],
            [
              -120.98336374808508,
              38.78162336722207,
              167.56733987807854
            ],
            [
              -120.98339905199691,
              38.78158219935577,
              167.55173987807777
            ],
            [
              -120.98342136424702,
              38.78155522088367,
              167.54173987807886
            ],
            [
              -120.98350238665137,
              38.78151159374428,
              167.51873987807562
            ],
            [
              -120.98350494699672,
              38.78151083325326,
              167.5181398780754
            ],
            [
              -120.98355306648935,
              38.78144667950919,
              167.49493987807654
            ],
            [
              -120.98363272229786,
              38.78134466186961,
              167.45753987807734
            ],
            [
              -120.98370680542754,
              38.781283519228,
              167.43123987807743
            ],
            [
              -120.98378003551589,
              38.78118588231934,
              167.39283987807792
            ],
            [
              -120.98384370073387,
              38.78111772475745,
              167.3608398780761
            ],
            [
              -120.9840054275284,
              38.78097735725255,
              167.2889398780787
            ],
            [
              -120.98409064300833,
              38.7809139144172,
              167.25413987807593
            ],
            [
              -120.9841907016604,
              38.78084740219169,
              167.21553987807636
            ],
            [
              -120.98426007375386,
              38.78078417557578,
              167.19143987807718
            ],
            [
              -120.98435122285163,
              38.78072277182164,
              167.15570767289927
            ],
            [
              -120.98468418257394,
              38.78072851639992,
              167.0766533362176
            ],
            [
              -120.98464648703583,
              38.78074978959717,
              167.09053987807897
            ],
            [
              -120.98461789282034,
              38.780777210671836,
              167.10353987807886
            ],
            [
              -120.98458692399232,
              38.78080512179794,
              167.117239878079
            ],
            [
              -120.98454134163536,
              38.78082040830258,
              167.13163987807494
            ],
            [
              -120.9845035234637,
              38.78083604559433,
              167.14423987807916
            ],
            [
              -120.98446953955664,
              38.78086262486978,
              167.15843987807503
            ],
            [
              -120.98443162801848,
              38.780899793541515,
              167.1758398780764
            ],
            [
              -120.98441033867759,
              38.78093352731371,
              167.1885398780762
            ],
            [
              -120.98438667817183,
              38.780967751166486,
              167.21283987807544
            ],
            [
              -120.98433703017271,
              38.78099635020054,
              167.230739878077
            ],
            [
              -120.98425110053171,
              38.78106910888675,
              167.26833987807626
            ],
            [
              -120.98414490184715,
              38.781152167070424,
              167.31293987807786
            ],
            [
              -120.98410222121154,
              38.78120071138926,
              167.3352398780764
            ],
            [
              -120.98403840943222,
              38.78130251212758,
              167.37713987807712
            ],
            [
              -120.98399272122651,
              38.78142195668059,
              167.42303987807912
            ],
            [
              -120.98395774639525,
              38.78148113088254,
              167.44303987807695
            ],
            [
              -120.98389622737564,
              38.78152134423419,
              167.46233987807895
            ],
            [
              -120.98381415261616,
              38.78155969379838,
              167.48413987807737
            ],
            [
              -120.9837299359034,
              38.78162598671155,
              167.51333987807826
            ],
            [
              -120.98366627127236,
              38.78169414421832,
              167.53983987807823
            ],
            [
              -120.98362686907689,
              38.78176339970921,
              167.56303987807712
            ],
            [
              -120.98361289700632,
              38.781797067662225,
              167.5735398780762
            ],
            [
              -120.98358916292587,
              38.78182439139211,
              167.5838398780752
            ],
            [
              -120.98356991162939,
              38.781839337749794,
              167.59043987807738
            ],
            [
              -120.98349764375642,
              38.78187022045732,
              167.61173987807564
            ],
            [
              -120.98345055466821,
              38.78190219838746,
              167.719039878076
            ],
            [
              -120.9833954827696,
              38.78195482778298,
              167.87103987807797
            ],
            [
              -120.98338592917453,
              38.78196756525933,
              167.90363987807555
            ],
            [
              -120.98335269448252,
              38.781988527170896,
              167.97663987807775
            ],
            [
              -120.98333696526463,
              38.78199944204011,
              168.01283987807653
            ],
            [
              -120.98330673666244,
              38.782034680268126,
              168.10733987807706
            ],
            [
              -120.98328866098873,
              38.782057076752835,
              168.16623987807898
            ],
            [
              -120.98323887262977,
              38.782096698773486,
              168.2897398780759
            ],
            [
              -120.98321255828809,
              38.782145159967605,
              168.40303987807826
            ],
            [
              -120.98319591824148,
              38.78217195924185,
              168.46793987807774
            ],
            [
              -120.98316522974946,
              38.78219491283272,
              168.54153987807572
            ],
            [
              -120.98305004042122,
              38.78225232650789,
              168.76773987807587
            ],
            [
              -120.98290972644574,
              38.78235159969585,
              168.98883987807875
            ],
            [
              -120.98277537481805,
              38.78248681799866,
              169.13733987807512
            ],
            [
              -120.98274015187839,
              38.78252009424413,
              169.17483987807879
            ],
            [
              -120.98270383414851,
              38.782548953537926,
              169.21003987807725
            ],
            [
              -120.98264347817145,
              38.78258740700137,
              169.26233987807697
            ],
            [
              -120.98259608552478,
              38.78263386798055,
              169.31393987807647
            ],
            [
              -120.98258672445544,
              38.78264447547978,
              169.32503987807573
            ],
            [
              -120.98256082433883,
              38.78269901693106,
              169.37213987807817
            ],
            [
              -120.98254391121402,
              38.78273176436201,
              169.40103987807893
            ],
            [
              -120.98252157779933,
              38.78276017316005,
              169.42953987807516
            ],
            [
              -120.98249006890107,
              38.78279136199226,
              169.4640398780778
            ],
            [
              -120.98245853836026,
              38.78282398130285,
              169.49943987807632
            ],
            [
              -120.98241978267944,
              38.78285081547474,
              169.51873987807835
            ],
            [
              -120.98238847713628,
              38.78286770380191,
              169.52183987807493
            ],
            [
              -120.98234665055722,
              38.782890347837075,
              169.52593987807631
            ],
            [
              -120.98228460383267,
              38.78294879054238,
              169.53443987807916
            ],
            [
              -120.98225586454852,
              38.78299378601379,
              169.54003987807658
            ],
            [
              -120.98224525285194,
              38.78303065363565,
              169.54413987807794
            ],
            [
              -120.98223991137253,
              38.783071084685915,
              169.5557398780774
            ],
            [
              -120.98221035897627,
              38.78312302639456,
              169.5557398780774
            ],
            [
              -120.98218627075637,
              38.783161033567886,
              169.5557398780774
            ],
            [
              -120.98215910653536,
              38.783203895908166,
              169.5557398780774
            ],
            [
              -120.98206631580021,
              38.78330251531004,
              169.59293987807652
            ],
            [
              -120.98199036939539,
              38.78340376619912,
              169.67993987807895
            ],
            [
              -120.98189743041353,
              38.783536028490985,
              169.84663987807699
            ],
            [
              -120.98188568207148,
              38.78356149836092,
              169.8799398780748
            ],
            [
              -120.98187876249979,
              38.78366648609497,
              169.9946398780776
            ],
            [
              -120.98183453331079,
              38.78376558340437,
              170.03183987807674
            ],
            [
              -120.98180353594566,
              38.783818960134155,
              170.0673398780753
            ],
            [
              -120.98175997123784,
              38.7838577973474,
              170.10003987807735
            ],
            [
              -120.98171163962922,
              38.78388846004309,
              170.13043987807862
            ],
            [
              -120.98166938368792,
              38.78392632398534,
              170.26343987807869
            ],
            [
              -120.9814848770671,
              38.78419961706141,
              170.53553987807643
            ],
            [
              -120.98141850381091,
              38.78429464415521,
              170.63043987807708
            ],
            [
              -120.98139388116886,
              38.78434403062803,
              170.67843987807538
            ],
            [
              -120.98136435110047,
              38.78442985809301,
              170.75983987807595
            ],
            [
              -120.98130436194852,
              38.78464032411139,
              170.9576398780755
            ],
            [
              -120.98130747635639,
              38.78470295614608,
              171.01353987807641
            ],
            [
              -120.98129560012254,
              38.78487347092344,
              171.18893987807735
            ],
            [
              -120.98127888233614,
              38.78499609573922,
              171.2983398780784
            ],
            [
              -120.9812593144361,
              38.78507653023015,
              171.36823987807514
            ],
            [
              -120.9812456034078,
              38.78512825392648,
              171.41943987807895
            ],
            [
              -120.98125144695562,
              38.78517899240841,
              171.490339878076
            ],
            [
              -120.98127797956275,
              38.785277403129605,
              171.5739398780773
            ],
            [
              -120.98132611627035,
              38.785364994111795,
              171.64522755528483
            ],
            [
              -120.98097322851561,
              38.785358895316676,
              171.5938547785475
            ],
            [
              -120.9809680712303,
              38.785290075018786,
              171.53743987807843
            ]
          ]
        ]
      }
    }
  ]
}