{
  "type": "FeatureCollection",
  "features": [
    {
      "type": "Feature",
      "properties": {
        "source_fid": 395,
        "authority": "USGS_2019_2020_lidar_hydrobreakline",
        "vertical_datum": "NAVD88",
        "z_units": "metres",
        "is_bathymetry": false
      },
      "geometry": {
        "type": "MultiPolygon",
        "coordinates": [
          [
            [
              [
                -120.84309754809445,
                38.77136804922132,
                265.43933987807594
              ],
              [
                -120.84311456929406,
                38.77135404065472,
                265.4206398780786
              ],
              [
                -120.84317368345778,
                38.77130258206971,
                265.20323987807694
              ],
              [
                -120.84322936912903,
                38.77124878736963,
                264.95223987807736
              ],
              [
                -120.84327224288586,
                38.771196294778,
                264.66943987807605
              ],
              [
                -120.84329865365979,
                38.771145068828154,
                264.56353987807614
              ],
              [
                -120.84332178304332,
                38.771070925217685,
                264.41603987807565
              ],
              [
                -120.8433242403756,
                38.77106680444605,
                264.40743987807724
              ],
              [
                -120.8433391532472,
                38.77102029659668,
                264.3147398780773
              ],
              [
                -120.8433539611152,
                38.770980599760286,
                264.3002398780769
              ],
              [
                -120.84336203641547,
                38.770939843895164,
                264.2985398780763
              ],
              [
                -120.8433726649651,
                38.77087901514199,
                264.2960398780755
              ],
              [
                -120.84337576485363,
                38.77081484453781,
                264.2938398780748
              ],
              [
                -120.8433659834749,
                38.770741103657485,
                264.2924398780787
              ],
              [
                -120.84336493503065,
                38.77072227602893,
                264.2917398780785
              ],
              [
                -120.84337508990245,
                38.77068229767924,
                264.290139878078
              ],
              [
                -120.84338531167661,
                38.77066871234044,
                264.28943987807776
              ],
              [
                -120.84341061797706,
                38.77063174726432,
                264.28773987807716
              ],
              [
                -120.84343492150781,
                38.77058276977396,
                264.2855398780764
              ],
              [
                -120.84347963372446,
                38.77054670347528,
                264.2855398780764
              ],
              [
                -120.84353346335908,
                38.770518539205966,
                264.28373987807583
              ],
              [
                -120.84357917825162,
                38.770494485276544,
                264.28203987807524
              ],
              [
                -120.84363656375153,
                38.77045826047401,
                264.2796398780789
              ],
              [
                -120.8436890122146,
                38.770435266424215,
                264.2784398780785
              ],
              [
                -120.84372719835534,
                38.77040787240796,
                264.2779398780783
              ],
              [
                -120.84379311401932,
                38.77038699904708,
                264.2756398780776
              ],
              [
                -120.84384773725012,
                38.77036111562827,
                264.2736398780769
              ],
              [
                -120.84388019364735,
                38.770344672265395,
                264.2723398780765
              ],
              [
                -120.84392850000037,
                38.770337190804774,
                264.27083987807595
              ],
              [
                -120.84397187169576,
                38.770342941941976,
                264.2697398780756
              ],
              [
                -120.8439974252084,
                38.77035235365195,
                264.2691398780754
              ],
              [
                -120.84404890928916,
                38.77035399344241,
                264.2677398780749
              ],
              [
                -120.84407888116756,
                38.770353615296486,
                264.2669398780791
              ],
              [
                -120.8441526527137,
                38.77031656957985,
                264.2640398780781
              ],
              [
                -120.84433116100425,
                38.77022613409415,
                264.2571398780758
              ],
              [
                -120.84448273548088,
                38.77013145885113,
                264.2515398780784
              ],
              [
                -120.84469023559024,
                38.77004487646676,
                264.24403987807585
              ],
              [
                -120.84473170366215,
                38.77001689493811,
                264.2423398780753
              ],
              [
                -120.84477258638381,
                38.7699893102927,
                264.2408398780748
              ],
              [
                -120.84482878338375,
                38.76996448447606,
                264.231139878076
              ],
              [
                -120.84496713769933,
                38.76991406490345,
                264.20343987807564
              ],
              [
                -120.84502594098171,
                38.76990931460017,
                264.1930398780766
              ],
              [
                -120.84506671942923,
                38.769898491834475,
                264.1852398780784
              ],
              [
                -120.84510887879313,
                38.76988249874485,
                264.1767398780756
              ],
              [
                -120.84512431053152,
                38.76987199767906,
                264.17323987807885
              ],
              [
                -120.84516912289703,
                38.76985229653766,
                264.16403987807576
              ],
              [
                -120.84522724107643,
                38.76983863075359,
                264.1506398780757
              ],
              [
                -120.84528366146989,
                38.76982703824848,
                264.1400398780766
              ],
              [
                -120.84535492882465,
                38.769812395040084,
                264.1268398780766
              ],
              [
                -120.8453994709064,
                38.769803243012575,
                264.1185398780783
              ],
              [
                -120.84550381923881,
                38.76980135101286,
                264.10083987807684
              ],
              [
                -120.8456370687377,
                38.769791077425346,
                264.08303987807534
              ],
              [
                -120.84569704470317,
                38.76977142417053,
                264.0755398780773
              ],
              [
                -120.8457405824437,
                38.76975025961091,
                264.0699398780754
              ],
              [
                -120.84580290165762,
                38.769700801053155,
                264.0612398780769
              ],
              [
                -120.84581891907992,
                38.769682848582605,
                264.0588398780761
              ],
              [
                -120.84582916991972,
                38.769639201427765,
                264.05623987807525
              ],
              [
                -120.8458253642921,
                38.7696008850574,
                264.055439878075
              ],
              [
                -120.84582394498719,
                38.76956940987949,
                264.0546398780792
              ],
              [
                -120.84583975543721,
                38.76954172602272,
                264.05193987807826
              ],
              [
                -120.84587459617185,
                38.76953212328206,
                264.0476398780768
              ],
              [
                -120.84595874216619,
                38.76952705147967,
                264.037939878078
              ],
              [
                -120.84604686347164,
                38.769533380976874,
                264.02803987807914
              ],
              [
                -120.84609755193769,
                38.76953273976696,
                264.0223398780772
              ],
              [
                -120.84613536130519,
                38.76952252768758,
                263.96163987807915
              ],
              [
                -120.8461796949706,
                38.76950364396644,
                263.8996398780762
              ],
              [
                -120.84623828971962,
                38.76948915985329,
                263.82303987807717
              ],
              [
                -120.84636400985696,
                38.76947554556781,
                263.6673398780784
              ],
              [
                -120.84647212143079,
                38.769475323520076,
                263.5391398780755
              ],
              [
                -120.84652440116696,
                38.76947924231327,
                263.47913987807766
              ],
              [
                -120.84657350058743,
                38.76947403982878,
                263.4183398780751
              ],
              [
                -120.84661268951601,
                38.76945865725522,
                263.3642398780747
              ],
              [
                -120.84669679765294,
                38.76941693853205,
                263.2952398780783
              ],
              [
                -120.84675380319813,
                38.76939789399501,
                263.26613987807747
              ],
              [
                -120.84680725315297,
                38.76938691181627,
                263.23413987807567
              ],
              [
                -120.84687337519627,
                38.769375768097746,
                263.19493987807584
              ],
              [
                -120.8469187118885,
                38.76936889647411,
                263.1680398780757
              ],
              [
                -120.8469856278428,
                38.7693600327662,
                263.1286398780759
              ],
              [
                -120.84705530533421,
                38.769340828353656,
                263.0863398780751
              ],
              [
                -120.8471044069217,
                38.76933562566739,
                263.059539878075
              ],
              [
                -120.84714894732929,
                38.76932647295689,
                262.993139878075
              ],
              [
                -120.84719131415838,
                38.76932021050265,
                262.9305398780763
              ],
              [
                -120.8472465624744,
                38.769323519682175,
                262.8509398780763
              ],
              [
                -120.84727312059296,
                38.76934494215915,
                262.81633987807805
              ],
              [
                -120.84728324056276,
                38.76936485537628,
                262.80533987807877
              ],
              [
                -120.84729356997536,
                38.76939449999597,
                262.79583987807564
              ],
              [
                -120.84731092583397,
                38.76942382247794,
                262.7761398780779
              ],
              [
                -120.84734429984913,
                38.76943050376068,
                262.72893987807544
              ],
              [
                -120.84738905088622,
                38.769431082372904,
                262.66413987807596
              ],
              [
                -120.8474397404325,
                38.769430439687476,
                262.590439878078
              ],
              [
                -120.84745935558189,
                38.76944107101557,
                262.563939878078
              ],
              [
                -120.84747244429008,
                38.76946037401998,
                262.54843987807726
              ],
              [
                -120.84752058294127,
                38.76947980609204,
                262.46113987807917
              ],
              [
                -120.84754019813093,
                38.76949043650563,
                262.4390398780762
              ],
              [
                -120.84756257251108,
                38.769490726215075,
                262.40953987807524
              ],
              [
                -120.84757880008368,
                38.76948250401497,
                262.3850398780759
              ],
              [
                -120.84759105438594,
                38.76946288052774,
                262.36153987807694
              ],
              [
                -120.84759578225783,
                38.76943991728732,
                262.3468398780764
              ],
              [
                -120.84760009003239,
                38.769397490328544,
                262.3255398780782
              ],
              [
                -120.84759055560696,
                38.76937012581755,
                262.32813987807907
              ],
              [
                -120.84759130906255,
                38.76933576128065,
                262.32513987807806
              ],
              [
                -120.84759423723283,
                38.7692985055734,
                262.2969398780775
              ],
              [
                -120.84761142769797,
                38.76926564933369,
                262.2621398780748
              ],
              [
                -120.84763794307042,
                38.76925042709733,
                262.2214398780789
              ],
              [
                -120.84769356750208,
                38.76923655243851,
                262.14263987807476
              ],
              [
                -120.84775337466102,
                38.76924381223698,
                262.0885398780789
              ],
              [
                -120.84782744299068,
                38.76925547143434,
                262.08663987807824
              ],
              [
                -120.84787457697519,
                38.76926289097668,
                262.08273987807695
              ],
              [
                -120.84800409974241,
                38.76928759028383,
                262.0722398780779
              ],
              [
                -120.84806825751853,
                38.76928906757546,
                262.0670398780761
              ],
              [
                -120.84813655507287,
                38.76927503467192,
                262.0613398780787
              ],
              [
                -120.84819673835167,
                38.76926510971386,
                262.056339878077
              ],
              [
                -120.8482945617921,
                38.76927188694842,
                262.0189398780778
              ],
              [
                -120.8483670411118,
                38.76927898565969,
                261.96833987807867
              ],
              [
                -120.8484169353855,
                38.76927606337229,
                261.93393987807605
              ],
              [
                -120.84847573907545,
                38.76927131043183,
                261.8934398780758
              ],
              [
                -120.84854010415268,
                38.76928251884128,
                261.84823987807846
              ],
              [
                -120.84861873043697,
                38.7692981283491,
                261.7928398780777
              ],
              [
                -120.84869003877185,
                38.7693201295123,
                261.7427398780787
              ],
              [
                -120.84874650043,
                38.76934518084243,
                261.7427398780787
              ],
              [
                -120.84880613927862,
                38.76937935330394,
                261.7427398780787
              ],
              [
                -120.84891429417581,
                38.769415774511735,
                261.7022398780785
              ],
              [
                -120.84902976598623,
                38.76944580477855,
                261.66033987807776
              ],
              [
                -120.84909969398015,
                38.769472975145476,
                261.6329398780775
              ],
              [
                -120.8491184578679,
                38.76948180080014,
                261.6252332067797
              ],
              [
                -120.84910219832051,
                38.77002303507452,
                261.42331281483933
              ],
              [
                -120.84907673312912,
                38.7700006282459,
                261.4482398780779
              ],
              [
                -120.84900061409837,
                38.7699282996074,
                261.5134398780775
              ],
              [
                -120.84880028179282,
                38.769800859801954,
                261.64743987807793
              ],
              [
                -120.84872647526636,
                38.769769636172214,
                261.6769398780789
              ],
              [
                -120.84867600139998,
                38.76975651149427,
                261.6952398780761
              ],
              [
                -120.84864637265028,
                38.769751848026345,
                261.70533987807505
              ],
              [
                -120.84859791943187,
                38.76975246206941,
                261.7198398780755
              ],
              [
                -120.8485398615639,
                38.76974524078572,
                261.82103987807824
              ],
              [
                -120.84851111761806,
                38.7697381012495,
                261.8414398780762
              ],
              [
                -120.84843805111372,
                38.76973845394268,
                261.8919398780753
              ],
              [
                -120.84834796424043,
                38.76974474794558,
                261.95403987807833
              ],
              [
                -120.84822182602738,
                38.76973890158774,
                262.04173987807656
              ],
              [
                -120.84818301444733,
                38.76973710289048,
                262.05983987807815
              ],
              [
                -120.84813596517648,
                38.76973566029647,
                262.063739878075
              ],
              [
                -120.84808972292392,
                38.76973732765101,
                262.0675398780763
              ],
              [
                -120.84807167184454,
                38.76973677282357,
                262.0690398780768
              ],
              [
                -120.84803826330041,
                38.769732637484665,
                262.0717398780777
              ],
              [
                -120.84800438787094,
                38.76971760685992,
                262.0744398780786
              ],
              [
                -120.84792040721932,
                38.769695765105595,
                262.0812398780764
              ],
              [
                -120.84785969768467,
                38.769684580025796,
                262.0861398780781
              ],
              [
                -120.84784474931274,
                38.76967954582018,
                262.08733987807847
              ],
              [
                -120.84780237812949,
                38.76966958242206,
                262.15783987807544
              ],
              [
                -120.84777444549255,
                38.76966955652167,
                262.1948398780789
              ],
              [
                -120.84774475064856,
                38.769675658478995,
                262.236339878075
              ],
              [
                -120.84770544448071,
                38.7696925322371,
                262.29463987807674
              ],
              [
                -120.84767252101312,
                38.769714936288686,
                262.3464398780763
              ],
              [
                -120.84764086090065,
                38.769733660793605,
                262.39523987807485
              ],
              [
                -120.84755039664068,
                38.76975713689042,
                262.52363987807786
              ],
              [
                -120.84739736547779,
                38.76978369636642,
                262.71743987807605
              ],
              [
                -120.84718929379477,
                38.769816676951315,
                263.0255398780769
              ],
              [
                -120.84706654304009,
                38.76982968285649,
                263.14183987807587
              ],
              [
                -120.84693805965608,
                38.76985363945472,
                263.21843987807483
              ],
              [
                -120.84681907373361,
                38.769868315012594,
                263.3245398780748
              ],
              [
                -120.84674701153023,
                38.76988067903277,
                263.4160398780787
              ],
              [
                -120.84667218880723,
                38.76990338457691,
                263.51603987807664
              ],
              [
                -120.84659715784372,
                38.76991635867986,
                263.6114398780775
              ],
              [
                -120.84649874678641,
                38.769917030418775,
                263.7283398780766
              ],
              [
                -120.84644211834795,
                38.769918892121225,
                263.79633987807716
              ],
              [
                -120.84628277025182,
                38.76996385226377,
                264.0075398780767
              ],
              [
                -120.84620736150562,
                38.76999400882279,
                264.02473987807804
              ],
              [
                -120.84616382261872,
                38.770015172644825,
                264.03033987807544
              ],
              [
                -120.84612760313051,
                38.770029945816525,
                264.034939878077
              ],
              [
                -120.84607791520544,
                38.770042598502066,
                264.04103987807906
              ],
              [
                -120.84601317329873,
                38.770048570545846,
                264.0485398780771
              ],
              [
                -120.84593119916696,
                38.77005075302728,
                264.0579398780758
              ],
              [
                -120.84589042077825,
                38.77006157519567,
                264.0629398780775
              ],
              [
                -120.84585796498942,
                38.77007801822013,
                264.0672398780789
              ],
              [
                -120.8458263042525,
                38.770096741328835,
                264.07143987807586
              ],
              [
                -120.84574813453399,
                38.770137239137625,
                264.0897398780776
              ],
              [
                -120.8457162656542,
                38.77014623172279,
                264.09583987807514
              ],
              [
                -120.84564499803948,
                38.77016087515263,
                264.10913987807515
              ],
              [
                -120.84555670625227,
                38.770181458549956,
                264.1258398780763
              ],
              [
                -120.84551651357876,
                38.77018483017688,
                264.13283987807864
              ],
              [
                -120.84544127407217,
                38.77018807213774,
                264.14583987807856
              ],
              [
                -120.84535653907946,
                38.77020059485178,
                264.1611398780748
              ],
              [
                -120.84526607460805,
                38.770224070079784,
                264.17663987807555
              ],
              [
                -120.84509287988242,
                38.77028409073324,
                264.21093987807814
              ],
              [
                -120.84493829688076,
                38.77034273138621,
                264.241439878075
              ],
              [
                -120.84481319992429,
                38.77038553922629,
                264.2458398780765
              ],
              [
                -120.84464435527084,
                38.77043977968778,
                264.25163987807844
              ],
              [
                -120.84459628580989,
                38.77046456288725,
                264.2542398780748
              ],
              [
                -120.84458106480045,
                38.770475468705186,
                264.2548398780751
              ],
              [
                -120.84456856843006,
                38.77048711789463,
                264.25543987807526
              ],
              [
                -120.84455410082866,
                38.77049769335329,
                264.25603987807546
              ],
              [
                -120.84450583071627,
                38.770517112082054,
                264.257839878076
              ],
              [
                -120.84447910513147,
                38.770522603094584,
                264.25863987807634
              ],
              [
                -120.844432387614,
                38.77053464497842,
                264.26023987807685
              ],
              [
                -120.84437914429223,
                38.77055535926066,
                264.2621398780775
              ],
              [
                -120.84433156173407,
                38.77058621868122,
                264.26413987807814
              ],
              [
                -120.84429178684856,
                38.77060905179909,
                264.2657398780787
              ],
              [
                -120.84423122377426,
                38.7706361565313,
                264.268039878075
              ],
              [
                -120.84416095824443,
                38.77066281055033,
                264.27053987807585
              ],
              [
                -120.84410871762081,
                38.770695536209736,
                264.2727398780766
              ],
              [
                -120.84407887873816,
                38.770715839231976,
                264.273939878077
              ],
              [
                -120.84404936626404,
                38.77074438375689,
                264.27533987807743
              ],
              [
                -120.84400800231795,
                38.77076265657786,
                264.276939878078
              ],
              [
                -120.84396780924267,
                38.77076602766841,
                264.28053987807476
              ],
              [
                -120.843914734854,
                38.770759826728536,
                264.2816398780751
              ],
              [
                -120.84388584920974,
                38.770756451495544,
                264.28213987807527
              ],
              [
                -120.84383493475116,
                38.770759116628525,
                264.28343987807574
              ],
              [
                -120.84379633053763,
                38.77076704786197,
                264.2846398780761
              ],
              [
                -120.84375393777219,
                38.7707860211929,
                264.28743987807707
              ],
              [
                -120.84371895391988,
                38.77080982531018,
                264.28893987807754
              ],
              [
                -120.84368850289599,
                38.77085029073723,
                264.2908398780782
              ],
              [
                -120.84363730430839,
                38.77093167410612,
                264.2958398780754
              ],
              [
                -120.84361036300459,
                38.771012654929415,
                264.2993398780766
              ],
              [
                -120.8435868630328,
                38.77106069446585,
                264.3014398780773
              ],
              [
                -120.84357749196977,
                38.77113139843124,
                264.430439878076
              ],
              [
                -120.84356475348034,
                38.771240686142455,
                264.63963987807495
              ],
              [
                -120.84355578867464,
                38.77131832513863,
                264.7248398780768
              ],
              [
                -120.84355475693603,
                38.77132494402849,
                264.7476398780755
              ],
              [
                -120.84352748329734,
                38.77137453162508,
                264.94563987807516
              ],
              [
                -120.84346665425265,
                38.771445404928706,
                265.25883987807777
              ],
              [
                -120.84343146752335,
                38.77147989217328,
                265.3558398780791
              ],
              [
                -120.84333143925491,
                38.77155164878006,
                265.436539878075
              ],
              [
                -120.84329335556733,
                38.771581542018524,
                265.4773398780753
              ],
              [
                -120.84323453019748,
                38.771612966479644,
                265.51243987807817
              ],
              [
                -120.84313945888181,
                38.77163996191525,
                265.5750398780769
              ],
              [
                -120.84305644001334,
                38.771659724643584,
                265.66777601133134
              ],
              [
                -120.84306449982549,
                38.77139220656137,
                265.4994286891112
              ],
              [
                -120.84309754809445,
                38.77136804922132,
                265.43933987807594
              ]
            ]
          ],
          [
            [
              [
                -120.8490096951395,
                38.77229918857371,
                259.7200631890256
              ],
              [
                -120.84825465236905,
                38.77228528357164,
                259.2411498082311
              ],
              [
                -120.84826508146784,
                38.77227381128184,
                259.25523987807725
              ],
              [
                -120.84834521842237,
                38.7722206901139,
                259.36933987807544
              ],
              [
                -120.84839309328564,
                38.77218310729447,
                259.44403987807823
              ],
              [
                -120.848418191207,
                38.772145733658334,
                259.5028398780757
              ],
              [
                -120.84843397127817,
                38.77208271584102,
                259.5837398780761
              ],
              [
                -120.84843392919745,
                38.77204607032984,
                259.6245398780764
              ],
              [
                -120.8484465198868,
                38.771972618543806,
                259.71493987807554
              ],
              [
                -120.84849177502629,
                38.77189245439474,
                259.8149398780779
              ],
              [
                -120.84861992544307,
                38.77174882634416,
                259.9966398780765
              ],
              [
                -120.84874297409176,
                38.77164534508309,
                260.08243987807856
              ],
              [
                -120.84897120973683,
                38.77140539890729,
                260.13723987807913
              ],
              [
                -120.84906438859682,
                38.771281557223006,
                260.1601092159234
              ],
              [
                -120.84903449368471,
                38.77227657364744,
                259.75561894947896
              ],
              [
                -120.8490096951395,
                38.77229918857371,
                259.7200631890256
              ]
            ]
          ]
        ]
      }
    }
  ]
}