{
  "type": "FeatureCollection",
  "features": [
    {
      "type": "Feature",
      "properties": {
        "source_fid": 480,
        "authority": "USGS_2019_2020_lidar_hydrobreakline",
        "vertical_datum": "NAVD88",
        "z_units": "metres",
        "is_bathymetry": false
      },
      "geometry": {
        "type": "Polygon",
        "coordinates": [
          [
            [
              -120.99022057272461,
              38.77715968441087,
              165.42913987807844
            ],
            [
              -120.99033018082399,
              38.77714314079501,
              165.42103987807573
            ],
            [
              -120.99040882010723,
              38.777117718479474,
              165.41083987807679
            ],
            [
              -120.99045016440853,
              38.77709303218826,
              165.40483987807477
            ],
            [
              -120.99048795583508,
              38.77708277580355,
              165.4000398780776
            ],
            [
              -120.9905154734737,
              38.77707953299706,
              165.3967398780765
            ],
            [
              -120.99053716610952,
              38.77708238206945,
              165.39443987807573
            ],
            [
              -120.99055358823624,
              38.777087772778344,
              165.3928398780752
            ],
            [
              -120.99058021144049,
              38.7770906241733,
              165.3900398780787
            ],
            [
              -120.99066314506523,
              38.77707125993638,
              165.3796398780752
            ],
            [
              -120.99077733813927,
              38.77702024566769,
              165.36403987807887
            ],
            [
              -120.9908051604155,
              38.77701134670444,
              165.36043987807767
            ],
            [
              -120.99092032657788,
              38.77698754071103,
              165.3360398780784
            ],
            [
              -120.99110043638585,
              38.77695642129365,
              165.29453987807784
            ],
            [
              -120.99130974007961,
              38.776926145369195,
              165.1975398780765
            ],
            [
              -120.99141561012947,
              38.77690662311691,
              165.14133987807546
            ],
            [
              -120.99155861330655,
              38.77687211024243,
              165.06343987807605
            ],
            [
              -120.99167963304389,
              38.77684169648069,
              164.92673987807476
            ],
            [
              -120.9917623091748,
              38.77680951891489,
              164.76553987807856
            ],
            [
              -120.9918265555097,
              38.776788623042364,
              164.64423987807797
            ],
            [
              -120.99187618220779,
              38.77676760108087,
              164.54583987807615
            ],
            [
              -120.99191477004436,
              38.776752203241486,
              164.4702398780775
            ],
            [
              -120.99199190281173,
              38.776724269403914,
              164.32183987807673
            ],
            [
              -120.99205448482297,
              38.77669191625392,
              164.19233987807783
            ],
            [
              -120.99210056238883,
              38.77666371360886,
              164.0927398780756
            ],
            [
              -120.99215388550736,
              38.77663986137023,
              163.9260398780776
            ],
            [
              -120.99225113447129,
              38.77661067042331,
              163.8370398780789
            ],
            [
              -120.99232627975113,
              38.776594160912964,
              163.77213987807497
            ],
            [
              -120.99238496352122,
              38.77657893735063,
              163.7200398780753
            ],
            [
              -120.99243272426867,
              38.77656075850704,
              163.67383987807762
            ],
            [
              -120.99253732213516,
              38.7765287706541,
              163.57763987807655
            ],
            [
              -120.9925436028062,
              38.776527871075125,
              163.57253987807485
            ],
            [
              -120.99254916824616,
              38.77652554452378,
              163.56703987807742
            ],
            [
              -120.99265203379647,
              38.776458451247294,
              163.40263987807575
            ],
            [
              -120.99267807823672,
              38.776435841388675,
              163.36973987807806
            ],
            [
              -120.99274026784332,
              38.7763668671059,
              163.27753987807833
            ],
            [
              -120.99278408236091,
              38.776287525840374,
              163.1845398780783
            ],
            [
              -120.99286007027155,
              38.77618618550848,
              163.0563398780754
            ],
            [
              -120.99287028060955,
              38.77615972731087,
              162.99623987807752
            ],
            [
              -120.99287699334789,
              38.776110422739926,
              162.90553987807826
            ],
            [
              -120.99287519696428,
              38.77608203779896,
              162.8571398780754
            ],
            [
              -120.99286440774416,
              38.776051265759826,
              162.81083987807767
            ],
            [
              -120.99285859242056,
              38.776019788198724,
              162.75983987807837
            ],
            [
              -120.99285715464534,
              38.77598517824534,
              162.70043987807628
            ],
            [
              -120.9928825568534,
              38.77595548056657,
              162.63113987807532
            ],
            [
              -120.99291885022004,
              38.77593000452022,
              162.56173987807875
            ],
            [
              -120.99294111305527,
              38.77592540200304,
              162.53833987807536
            ],
            [
              -120.99296080754523,
              38.77592255293336,
              162.51983987807805
            ],
            [
              -120.99298112961647,
              38.77593057450939,
              162.51993987807808
            ],
            [
              -120.99300818921111,
              38.775939648249725,
              162.5172398780772
            ],
            [
              -120.9930342207213,
              38.77593671178957,
              162.49423987807836
            ],
            [
              -120.99305973762534,
              38.77592776887032,
              162.46103987807615
            ],
            [
              -120.99309193487916,
              38.775901556318665,
              162.3932398780757
            ],
            [
              -120.99311265728383,
              38.77587893714163,
              162.33353987807791
            ],
            [
              -120.9931230480103,
              38.775845009982845,
              162.2858398780753
            ],
            [
              -120.99312093467015,
              38.77580266510327,
              162.2321398780751
            ],
            [
              -120.99311830916719,
              38.77578609676852,
              162.2118398780772
            ],
            [
              -120.9931200786213,
              38.775750283966964,
              162.16503987807488
            ],
            [
              -120.99312664485818,
              38.77572814652933,
              162.13403987807783
            ],
            [
              -120.99312025068875,
              38.775709912123375,
              162.1129398780752
            ],
            [
              -120.99310124065927,
              38.77567839490879,
              162.0796398780774
            ],
            [
              -120.99308302933075,
              38.77564915766267,
              162.048939878076
            ],
            [
              -120.99308057610692,
              38.77562399685819,
              162.01753987807882
            ],
            [
              -120.9930944479788,
              38.775595459523075,
              161.97543987807808
            ],
            [
              -120.99310883328157,
              38.77557292953029,
              161.94093987807543
            ],
            [
              -120.9931407451418,
              38.77555044253524,
              161.93013987807623
            ],
            [
              -120.99317536021971,
              38.775526996963464,
              161.91353987807514
            ],
            [
              -120.99320909219998,
              38.77549072620434,
              161.85263987807696
            ],
            [
              -120.99335387629259,
              38.77537946472978,
              161.64073987807717
            ],
            [
              -120.99336703560508,
              38.77535174012864,
              161.60183987807747
            ],
            [
              -120.99338767775896,
              38.77531330259551,
              161.54653987807674
            ],
            [
              -120.99343953737369,
              38.775263694839005,
              161.4597398780788
            ],
            [
              -120.99349133622141,
              38.77521837675727,
              161.4106398780757
            ],
            [
              -120.99355218765957,
              38.775178858035844,
              161.38363987807554
            ],
            [
              -120.99362576673923,
              38.775143739844346,
              161.35503987807488
            ],
            [
              -120.99369378489848,
              38.77511429520296,
              161.32963987807526
            ],
            [
              -120.99372153183626,
              38.77509022144838,
              161.31533987807492
            ],
            [
              -120.99376240986001,
              38.77504194813332,
              161.2902398780754
            ],
            [
              -120.99380135929457,
              38.77500080876221,
              161.26783987807678
            ],
            [
              -120.99382914544181,
              38.77497387577337,
              161.25263987807614
            ],
            [
              -120.99386064705683,
              38.7749426838549,
              161.23523987807476
            ],
            [
              -120.99388108541703,
              38.77491854671904,
              161.222639878075
            ],
            [
              -120.99391256676604,
              38.77488878438559,
              161.2056398780782
            ],
            [
              -120.99394764220854,
              38.77486334431644,
              161.18923987807716
            ],
            [
              -120.99399022370434,
              38.77482366703501,
              161.16083987807653
            ],
            [
              -120.99403642065379,
              38.774786881517926,
              161.1383398780779
            ],
            [
              -120.9940806688156,
              38.77475866134652,
              161.11933987807598
            ],
            [
              -120.99411592497832,
              38.77472035031885,
              161.09863987807793
            ],
            [
              -120.9941585276719,
              38.7746792424851,
              161.07533987807903
            ],
            [
              -120.99421956759375,
              38.77463748534287,
              161.0481398780788
            ],
            [
              -120.99423091970729,
              38.77462554007706,
              161.0415398780766
            ],
            [
              -120.9942957737733,
              38.774591829704605,
              161.01633987807705
            ],
            [
              -120.99434425343844,
              38.774559301813206,
              160.99483987807875
            ],
            [
              -120.99437874763291,
              38.77452529415091,
              160.97583987807684
            ],
            [
              -120.99439839130778,
              38.77449051097049,
              160.95953987807584
            ],
            [
              -120.99442429204775,
              38.77440527049885,
              160.9325398780757
            ],
            [
              -120.99443399552328,
              38.77434214807247,
              160.90603987807572
            ],
            [
              -120.99445554350042,
              38.77426741166016,
              160.86993987807696
            ],
            [
              -120.99452561259685,
              38.774115414708014,
              160.7877398780761
            ],
            [
              -120.99464491666758,
              38.77395629433356,
              160.68633987807772
            ],
            [
              -120.99482658606843,
              38.77379344706786,
              160.57843987807718
            ],
            [
              -120.99492334264373,
              38.77370621541019,
              160.44593987807727
            ],
            [
              -120.9949872649527,
              38.773661364507426,
              160.36594975509198
            ],
            [
              -120.99618999283915,
              38.7736820000776,
              159.69699790547438
            ],
            [
              -120.99610747483617,
              38.77375058610287,
              159.70403987807785
            ],
            [
              -120.99602498937323,
              38.773810421484285,
              159.7106398780756
            ],
            [
              -120.99589155697379,
              38.77388384721235,
              159.73953987807639
            ],
            [
              -120.99575698411033,
              38.77398806568358,
              159.91363987807688
            ],
            [
              -120.99563096948759,
              38.77405995703796,
              160.06163987807753
            ],
            [
              -120.99556075746148,
              38.77408669814948,
              160.1361398780758
            ],
            [
              -120.99546185930701,
              38.774122424612635,
              160.240039878075
            ],
            [
              -120.99540848545858,
              38.77415179429844,
              160.302139878078
            ],
            [
              -120.9953568256241,
              38.774174698411414,
              160.35883987807478
            ],
            [
              -120.9953108712393,
              38.77420253491534,
              160.41373987807538
            ],
            [
              -120.99528275989792,
              38.77423584942118,
              160.4569398780765
            ],
            [
              -120.99525293330986,
              38.774275629456795,
              160.50543987807495
            ],
            [
              -120.99522481961101,
              38.774308943928524,
              160.54853987807604
            ],
            [
              -120.9951798664077,
              38.77433962877521,
              160.60433987807696
            ],
            [
              -120.99515577042754,
              38.77435607567824,
              160.66963987807657
            ],
            [
              -120.9951040624892,
              38.77438082076278,
              160.6965398780767
            ],
            [
              -120.99505899056236,
              38.77439212194941,
              160.71593987807873
            ],
            [
              -120.99502304689905,
              38.77439955337143,
              160.73093987807488
            ],
            [
              -120.99491670551512,
              38.77440626088231,
              160.76913987807876
            ],
            [
              -120.99487588396306,
              38.77441249863884,
              160.78523987807526
            ],
            [
              -120.994848981089,
              38.77442461293329,
              160.7989398780754
            ],
            [
              -120.9948417817873,
              38.7744309192645,
              160.803739878077
            ],
            [
              -120.99482180255156,
              38.77445338481388,
              160.81913987807772
            ],
            [
              -120.99479611436871,
              38.77447091879182,
              160.83453987807843
            ],
            [
              -120.99474916290941,
              38.774495904011566,
              160.85993987807805
            ],
            [
              -120.99471205796793,
              38.77450357574024,
              160.87533987807876
            ],
            [
              -120.99463071115689,
              38.77453261634137,
              160.91373987807827
            ],
            [
              -120.99461806948739,
              38.77454615413104,
              160.92323987807703
            ],
            [
              -120.99459099226422,
              38.77458859392931,
              160.95383987807836
            ],
            [
              -120.99456507322259,
              38.77461268281888,
              160.96763987807853
            ],
            [
              -120.99451889801685,
              38.77464803895741,
              160.989639878077
            ],
            [
              -120.9944855896456,
              38.77467778472672,
              161.00693987807836
            ],
            [
              -120.99443772962074,
              38.774703114215825,
              161.02573987807577
            ],
            [
              -120.99440881710333,
              38.77472402118689,
              161.03903987807578
            ],
            [
              -120.99440508576879,
              38.774728997129294,
              161.0415398780766
            ],
            [
              -120.99431903098538,
              38.774835406357525,
              161.09663987807727
            ],
            [
              -120.99422455615853,
              38.774940500192145,
              161.15303987807837
            ],
            [
              -120.99418659379766,
              38.77499112963249,
              161.17483987807677
            ],
            [
              -120.99418077461455,
              38.77499586765154,
              161.17713987807755
            ],
            [
              -120.99416272864592,
              38.775028254653876,
              161.191839878078
            ],
            [
              -120.99414782977932,
              38.7750481487109,
              161.2017398780769
            ],
            [
              -120.99411823768388,
              38.775073636352516,
              161.21693987807754
            ],
            [
              -120.99406840715729,
              38.77510895974156,
              161.23993987807634
            ],
            [
              -120.99402957915497,
              38.77514151890418,
              161.25953987807847
            ],
            [
              -120.99400544551922,
              38.775168484493335,
              161.27393987807883
            ],
            [
              -120.99398309883871,
              38.77519832511202,
              161.2887398780749
            ],
            [
              -120.99394400668459,
              38.77524947443027,
              161.31443987807904
            ],
            [
              -120.99389216765128,
              38.775297652812995,
              161.342139878075
            ],
            [
              -120.99384798089072,
              38.77532158412386,
              161.36013987807658
            ],
            [
              -120.99379626195466,
              38.77536118215612,
              161.38503987807601
            ],
            [
              -120.99374436206035,
              38.7754136501707,
              161.44123987807706
            ],
            [
              -120.99370005264998,
              38.775446161712296,
              161.50433987807594
            ],
            [
              -120.99365008118525,
              38.77549149572783,
              161.58523987807635
            ],
            [
              -120.99362122655775,
              38.77551258319389,
              161.62623987807675
            ],
            [
              -120.99361826119467,
              38.77551571884715,
              161.6315398780785
            ],
            [
              -120.99356236627631,
              38.77556021316178,
              161.7151398780754
            ],
            [
              -120.99351695195148,
              38.77559320335907,
              161.77943987807913
            ],
            [
              -120.99346482238167,
              38.77564845583333,
              161.87263987807478
            ],
            [
              -120.9934514876254,
              38.775672473402636,
              161.90753987807756
            ],
            [
              -120.9934368373193,
              38.77571276205496,
              161.995839878076
            ],
            [
              -120.99341997018186,
              38.775742650979176,
              162.04083987807775
            ],
            [
              -120.99341219737323,
              38.77577547920621,
              162.0860398780751
            ],
            [
              -120.99340984382769,
              38.775812644646415,
              162.13483987807808
            ],
            [
              -120.99341303210403,
              38.77584556791431,
              162.1759398780785
            ],
            [
              -120.99343260191347,
              38.775882923445124,
              162.21663987807878
            ],
            [
              -120.99344110830305,
              38.77592733462209,
              162.27053987807906
            ],
            [
              -120.99344044170836,
              38.77597452581278,
              162.33153987807725
            ],
            [
              -120.99343808817099,
              38.77601169125297,
              162.35993987807788
            ],
            [
              -120.99343754181997,
              38.77605030303766,
              162.41573987807877
            ],
            [
              -120.99343709666256,
              38.776081763223964,
              162.47093987807503
            ],
            [
              -120.99343683358818,
              38.77610035521757,
              162.50363987807708
            ],
            [
              -120.99343648959896,
              38.77612466560708,
              162.546239878078
            ],
            [
              -120.99343608152138,
              38.77613073072688,
              162.5571398780772
            ],
            [
              -120.99344291932394,
              38.776150237468386,
              162.58653987807816
            ],
            [
              -120.99350634147267,
              38.776223956302914,
              162.67173987807556
            ],
            [
              -120.9935293021176,
              38.776279934586434,
              162.75373987807635
            ],
            [
              -120.99355220095592,
              38.77634020255294,
              162.8432398780752
            ],
            [
              -120.99356765074397,
              38.77641041796,
              162.95523987807712
            ],
            [
              -120.99356345074276,
              38.77644899716768,
              163.02553987807843
            ],
            [
              -120.99355575885413,
              38.77647610520495,
              163.028639878075
            ],
            [
              -120.9935295757353,
              38.776518784952216,
              163.04283987807534
            ],
            [
              -120.99348902045065,
              38.7765441773898,
              163.08513987807615
            ],
            [
              -120.9934702293162,
              38.776547349707656,
              163.09693987807566
            ],
            [
              -120.99346446610785,
              38.776552186378304,
              163.10403987807803
            ],
            [
              -120.99341522890653,
              38.77655931015527,
              163.1338398780791
            ],
            [
              -120.99335728581354,
              38.776552953498616,
              163.15543987807746
            ],
            [
              -120.99330448103262,
              38.77652720022306,
              163.15693987807796
            ],
            [
              -120.99326109403844,
              38.776505612505865,
              163.15773987807822
            ],
            [
              -120.99322784250404,
              38.776478872867024,
              163.15483987807724
            ],
            [
              -120.9932070044645,
              38.77646484577311,
              163.14623987807883
            ],
            [
              -120.99317488802788,
              38.776457116556394,
              163.1490398780753
            ],
            [
              -120.99314770743493,
              38.77645917819174,
              163.16903987807757
            ],
            [
              -120.99313514333758,
              38.776465564921295,
              163.18083987807708
            ],
            [
              -120.99313128346652,
              38.776478389503644,
              163.19433987807713
            ],
            [
              -120.9931400707605,
              38.776512297404274,
              163.2210398780772
            ],
            [
              -120.99315648353048,
              38.77653640536538,
              163.2352398780775
            ],
            [
              -120.99317760633173,
              38.77656259657899,
              163.2491398780777
            ],
            [
              -120.99318288586815,
              38.77658900715425,
              163.27073987807606
            ],
            [
              -120.993160194531,
              38.7766150886558,
              163.30513987807868
            ],
            [
              -120.99314363819724,
              38.77662462194269,
              163.3216398780753
            ],
            [
              -120.99314078514888,
              38.77662461521672,
              163.32303987807578
            ],
            [
              -120.9931020327014,
              38.77664808886204,
              163.36273987807573
            ],
            [
              -120.99305621868052,
              38.77665770261524,
              163.39313987807702
            ],
            [
              -120.99300307805274,
              38.77666868437441,
              163.42823987807543
            ],
            [
              -120.99296455123752,
              38.77667979197748,
              163.456539878076
            ],
            [
              -120.99290773776087,
              38.77669217070643,
              163.49473987807548
            ],
            [
              -120.99284361332619,
              38.776704485981206,
              163.50333987807835
            ],
            [
              -120.99278503193663,
              38.77671255998947,
              163.5205398780752
            ],
            [
              -120.99275381371494,
              38.77672373003183,
              163.5503398780763
            ],
            [
              -120.99272975891847,
              38.77674497424477,
              163.58153987807785
            ],
            [
              -120.99271471867516,
              38.77677487982086,
              163.61203987807917
            ],
            [
              -120.9926902217842,
              38.7768275860388,
              163.66423987807886
            ],
            [
              -120.9926587379278,
              38.77685734712548,
              163.7064398780752
            ],
            [
              -120.9926090280892,
              38.776884089598035,
              163.75973987807527
            ],
            [
              -120.99255718694785,
              38.77693226827933,
              163.82853987807607
            ],
            [
              -120.99251464276023,
              38.7769690840195,
              163.88333987807664
            ],
            [
              -120.99246117624239,
              38.776994600997654,
              163.93853987807734
            ],
            [
              -120.99243318817727,
              38.77701595155894,
              163.95363987807795
            ],
            [
              -120.99236608375645,
              38.77706936902348,
              164.05783987807726
            ],
            [
              -120.9923385991276,
              38.77708531925832,
              164.11633987807906
            ],
            [
              -120.99225207763557,
              38.77712367395861,
              164.28943987807477
            ],
            [
              -120.99222267902722,
              38.7771419751935,
              164.35333987807837
            ],
            [
              -120.99216387718742,
              38.77717857579932,
              164.48093987807664
            ],
            [
              -120.99210878755973,
              38.77721440948051,
              164.60193987807716
            ],
            [
              -120.99201492201675,
              38.777260942846496,
              164.7944398780749
            ],
            [
              -120.9919245517189,
              38.777302848684656,
              164.97703987807824
            ],
            [
              -120.99192323807141,
              38.777303285039466,
              164.97943987807903
            ],
            [
              -120.99192154334054,
              38.77730576049145,
              164.9845398780763
            ],
            [
              -120.99180178171827,
              38.777376231736376,
              165.07003987807826
            ],
            [
              -120.99170621480151,
              38.77741544804959,
              165.1261398780748
            ],
            [
              -120.99163094801797,
              38.77744053836195,
              165.16883987807577
            ],
            [
              -120.99157398947096,
              38.77746292811131,
              165.20193987807795
            ],
            [
              -120.99152076694263,
              38.77747962758539,
              165.23193987807912
            ],
            [
              -120.9914382926925,
              38.77749750358767,
              165.27633987807621
            ],
            [
              -120.9913321504789,
              38.777509453895696,
              165.29763987807888
            ],
            [
              -120.99124987892795,
              38.77751303017604,
              165.31553987807598
            ],
            [
              -120.99119324585516,
              38.77751253806577,
              165.3276398780756
            ],
            [
              -120.99111283269308,
              38.777511839272115,
              165.3448398780769
            ],
            [
              -120.99111188445305,
              38.7775122355487,
              165.34503987807696
            ],
            [
              -120.9911110351466,
              38.777511823650734,
              165.34523987807705
            ],
            [
              -120.99103590889268,
              38.777526902774824,
              165.36163987807808
            ],
            [
              -120.99100641491543,
              38.77754523981457,
              165.3659398780751
            ],
            [
              -120.99096587957456,
              38.777569201780295,
              165.37173987807702
            ],
            [
              -120.99091429939683,
              38.777598788630456,
              165.37913987807505
            ],
            [
              -120.99087731520474,
              38.777629932107715,
              165.38503987807704
            ],
            [
              -120.99079806719323,
              38.77767787088011,
              165.39653987807642
            ],
            [
              -120.9907864307766,
              38.77768592943922,
              165.398239878077
            ],
            [
              -120.99073153910857,
              38.77771300626276,
              165.4058398780751
            ],
            [
              -120.99069100522259,
              38.77773360768043,
              165.411539878077
            ],
            [
              -120.99065889366766,
              38.777755524691926,
              165.41633987807862
            ],
            [
              -120.99064533450075,
              38.77777360557461,
              165.418839878075
            ],
            [
              -120.99062506753094,
              38.777783906270166,
              165.42163987807595
            ],
            [
              -120.99057582919271,
              38.777791028842195,
              165.42763987807794
            ],
            [
              -120.99049833406606,
              38.77778565755273,
              165.4304398780789
            ],
            [
              -120.99040342568274,
              38.77775332672786,
              165.4332398780754
            ],
            [
              -120.99032153458216,
              38.777740535776864,
              165.43603987807631
            ],
            [
              -120.99024686471947,
              38.77771540718642,
              165.4383398780771
            ],
            [
              -120.99020005217085,
              38.77770674839841,
              165.43983987807758
            ],
            [
              -120.99014422585647,
              38.77770029365572,
              165.44177470952022
            ],
            [
              -120.99015863989734,
              38.77718693169346,
              165.43197613746312
            ],
            [
              -120.99022057272461,
              38.77715968441087,
              165.42913987807844
            ]
          ]
        ]
      }
    }
  ]
}