{
  "type": "FeatureCollection",
  "features": [
    {
      "type": "Feature",
      "properties": {
        "source_fid": 479,
        "authority": "USGS_2019_2020_lidar_hydrobreakline",
        "vertical_datum": "NAVD88",
        "z_units": "metres",
        "is_bathymetry": false
      },
      "geometry": {
        "type": "Polygon",
        "coordinates": [
          [
            [
              -120.9977165851992,
              38.772174417591124,
              158.46243987807563
            ],
            [
              -120.99777233607145,
              38.7721392825191,
              158.46243987807563
            ],
            [
              -120.99802363693982,
              38.772004810724944,
              158.46243987807563
            ],
            [
              -120.99821601177543,
              38.77188876470459,
              158.46243987807563
            ],
            [
              -120.99821918246943,
              38.77188679560902,
              158.46243987807563
            ],
            [
              -120.99822301084997,
              38.77188454208998,
              158.46243987807563
            ],
            [
              -120.99823414319398,
              38.77187799020589,
              158.46243987807563
            ],
            [
              -120.99829103034259,
              38.771844508889,
              158.46243987807563
            ],
            [
              -120.99835902213732,
              38.771816491097205,
              158.46243987807563
            ],
            [
              -120.99852602170772,
              38.77176358343022,
              158.46243987807563
            ],
            [
              -120.99858658557031,
              38.77174408277038,
              158.46243987807563
            ],
            [
              -120.99861583477059,
              38.771742905317055,
              158.46243987807563
            ],
            [
              -120.99867402895804,
              38.77176199977913,
              158.46243987807563
            ],
            [
              -120.99874866446942,
              38.77178123602441,
              158.46243987807563
            ],
            [
              -120.99883785246352,
              38.77180488885432,
              158.46243987807563
            ],
            [
              -120.9989961950381,
              38.77183769228567,
              158.46243987807563
            ],
            [
              -120.99904362764418,
              38.77183209840711,
              158.46243987807563
            ],
            [
              -120.99908726621997,
              38.771816339050396,
              158.46243987807563
            ],
            [
              -120.99917893867045,
              38.771768930663946,
              158.46243987807563
            ],
            [
              -120.99920226403621,
              38.77174577788942,
              158.41483987807746
            ],
            [
              -120.99923477553682,
              38.77170241088609,
              158.33293987807673
            ],
            [
              -120.99927387005435,
              38.77162098503368,
              158.14683987807666
            ],
            [
              -120.99928599466504,
              38.77154208351378,
              158.01963987807852
            ],
            [
              -120.99927656813807,
              38.77145846994036,
              157.8901398780752
            ],
            [
              -120.99926200532946,
              38.77139425322729,
              157.792339878078
            ],
            [
              -120.99925715151016,
              38.771346363958386,
              157.71803987807536
            ],
            [
              -120.9992881619103,
              38.77123739638737,
              157.5391398780777
            ],
            [
              -120.99929592575855,
              38.7711907411524,
              157.46373987807914
            ],
            [
              -120.99929604423374,
              38.77118240047446,
              157.45053987807916
            ],
            [
              -120.99929678737539,
              38.771129488128054,
              157.36703987807786
            ],
            [
              -120.99929933883558,
              38.77107802294607,
              157.31443987807805
            ],
            [
              -120.9993035756533,
              38.77103658251214,
              157.25733987807672
            ],
            [
              -120.99932244638548,
              38.77099383845597,
              157.19383987807768
            ],
            [
              -120.99935245848435,
              38.77093831796813,
              157.10963987807617
            ],
            [
              -120.99937676852876,
              38.770898481239996,
              157.04833987807788
            ],
            [
              -120.99940852737612,
              38.770848697593536,
              156.97123987807873
            ],
            [
              -120.99942370432609,
              38.77080878213058,
              156.91273987807693
            ],
            [
              -120.99944253354941,
              38.7707688981463,
              156.85303987807916
            ],
            [
              -120.9994613259789,
              38.77073187429076,
              156.79723987807827
            ],
            [
              -120.99949283991226,
              38.77069925030266,
              156.74333987807802
            ],
            [
              -120.99949940823112,
              38.77069561130521,
              156.73633987807568
            ],
            [
              -120.99951321825424,
              38.770679402800745,
              156.7074398780749
            ],
            [
              -120.99953192672739,
              38.77064809910798,
              156.6890398780776
            ],
            [
              -120.99954694383086,
              38.77061962404686,
              156.67243987807652
            ],
            [
              -120.99957119333337,
              38.770584076979844,
              156.65133987807835
            ],
            [
              -120.99958444345314,
              38.77055129556179,
              156.6325398780765
            ],
            [
              -120.99958857836747,
              38.770517005811705,
              156.61353987807902
            ],
            [
              -120.99958910237224,
              38.77047982449307,
              156.5933398780767
            ],
            [
              -120.99958414451396,
              38.77044259593027,
              156.57353987807895
            ],
            [
              -120.99958408076328,
              38.770441400749306,
              156.57293987807876
            ],
            [
              -120.99958270045853,
              38.770415409671536,
              156.55893987807852
            ],
            [
              -120.9995957115384,
              38.77037515478964,
              156.53603987807531
            ],
            [
              -120.99959607004844,
              38.77037404793512,
              156.5354398780751
            ],
            [
              -120.99961662695598,
              38.770341329484225,
              156.51613987807752
            ],
            [
              -120.99964641619891,
              38.7703015399205,
              156.49233987807844
            ],
            [
              -120.99966327941783,
              38.77027165097999,
              156.47483987807703
            ],
            [
              -120.99967835556859,
              38.77023888528728,
              156.45583987807512
            ],
            [
              -120.9996768913797,
              38.77021312863003,
              156.44553987807612
            ],
            [
              -120.99965531273976,
              38.77018862930922,
              156.43233987807616
            ],
            [
              -120.99962449947563,
              38.770171201072735,
              156.4257398780784
            ],
            [
              -120.99961248115349,
              38.770165330653576,
              156.42383987807776
            ],
            [
              -120.99958276736827,
              38.770150818277436,
              156.41913987807618
            ],
            [
              -120.99956656777218,
              38.77013351596962,
              156.41003987807758
            ],
            [
              -120.99956506225497,
              38.77011061940307,
              156.39433987807675
            ],
            [
              -120.99957100547815,
              38.77007777501148,
              156.37033987807763
            ],
            [
              -120.99957920680875,
              38.770045772745135,
              156.34658117504145
            ],
            [
              -120.9999328538198,
              38.77005182758278,
              156.2864877628161
            ],
            [
              -120.99989832336858,
              38.77018224460452,
              156.38373987807765
            ],
            [
              -120.99986408798445,
              38.77031155815198,
              156.48123987807918
            ],
            [
              -120.99981530180236,
              38.770535554651076,
              156.6065398780767
            ],
            [
              -120.99980844681497,
              38.77062515241011,
              156.65563987807533
            ],
            [
              -120.99978734403516,
              38.770704064013984,
              156.70003987807686
            ],
            [
              -120.99974140368384,
              38.770801414422614,
              156.80083987807504
            ],
            [
              -120.9996823334853,
              38.770905304127176,
              156.9594398780748
            ],
            [
              -120.99963153150294,
              38.771046538279364,
              157.1655398780771
            ],
            [
              -120.99963754516928,
              38.77114069841455,
              157.2901398780788
            ],
            [
              -120.99965752913539,
              38.77119768229258,
              157.38953987807653
            ],
            [
              -120.9996835080155,
              38.77127175979416,
              157.500139878078
            ],
            [
              -120.9997020654568,
              38.77134737338697,
              157.6149398780764
            ],
            [
              -120.99967182458623,
              38.77148808380783,
              157.84373987807743
            ],
            [
              -120.9996646972828,
              38.7715812324703,
              157.9921398780782
            ],
            [
              -120.99962675604355,
              38.77179076332882,
              158.23433987807482
            ],
            [
              -120.99960481810713,
              38.77184906886696,
              158.29563987807757
            ],
            [
              -120.99951456491159,
              38.772030184931644,
              158.46243987807563
            ],
            [
              -120.99937400962112,
              38.77218283854938,
              158.46243987807563
            ],
            [
              -120.99928892863221,
              38.77224940720596,
              158.46243987807563
            ],
            [
              -120.9992218935559,
              38.772290649512705,
              158.46243987807563
            ],
            [
              -120.99911613445123,
              38.772359456964914,
              158.46243987807563
            ],
            [
              -120.9989741165129,
              38.77243380769411,
              158.46243987807563
            ],
            [
              -120.99880944774712,
              38.77250892959396,
              158.46243987807563
            ],
            [
              -120.99869939510052,
              38.772572757146136,
              158.46243987807563
            ],
            [
              -120.99852193980328,
              38.77266225708588,
              158.46243987807563
            ],
            [
              -120.99852113124216,
              38.77266279427125,
              158.46243987807563
            ],
            [
              -120.99851881954947,
              38.7726645653742,
              158.46243987807563
            ],
            [
              -120.99847626087279,
              38.77270281291147,
              158.46243987807563
            ],
            [
              -120.99843763523509,
              38.77272107302798,
              158.46243987807563
            ],
            [
              -120.99840770491615,
              38.772742643391524,
              158.46243987807563
            ],
            [
              -120.9977165851992,
              38.772174417591124,
              158.46243987807563
            ]
          ],
          [
            [
              -120.99907281571669,
              38.77201358180737,
              158.46243987807563
            ],
            [
              -120.99903979944087,
              38.772017475627656,
              158.46243987807563
            ],
            [
              -120.99896835561407,
              38.77204251801205,
              158.46243987807563
            ],
            [
              -120.9988868439471,
              38.77207697562278,
              158.46243987807563
            ],
            [
              -120.99884615633354,
              38.772097123553856,
              158.46243987807563
            ],
            [
              -120.99880498848226,
              38.77211590332278,
              158.46243987807563
            ],
            [
              -120.99877553403024,
              38.772119061098024,
              158.46243987807563
            ],
            [
              -120.99873415933315,
              38.77211001567566,
              158.46243987807563
            ],
            [
              -120.99866538641548,
              38.772115436161315,
              158.46243987807563
            ],
            [
              -120.99860106731204,
              38.772139004596404,
              158.46243987807563
            ],
            [
              -120.99856263959316,
              38.772160152134546,
              158.46243987807563
            ],
            [
              -120.99852887179944,
              38.77218913740054,
              158.46243987807563
            ],
            [
              -120.99851421423983,
              38.77221270267028,
              158.46243987807563
            ],
            [
              -120.9985011326201,
              38.77224621067034,
              158.46243987807563
            ],
            [
              -120.99849133881865,
              38.772267304307384,
              158.46243987807563
            ],
            [
              -120.99848264368413,
              38.7722913687753,
              158.46243987807563
            ],
            [
              -120.99848612614504,
              38.77231082644804,
              158.46243987807563
            ],
            [
              -120.99849215780289,
              38.77231736427213,
              158.46243987807563
            ],
            [
              -120.99850956407953,
              38.772319273055544,
              158.46243987807563
            ],
            [
              -120.99854977170433,
              38.77229775709391,
              158.46243987807563
            ],
            [
              -120.99860655542379,
              38.772258146612245,
              158.46243987807563
            ],
            [
              -120.99865046251185,
              38.772241732956395,
              158.46243987807563
            ],
            [
              -120.99868608152991,
              38.77223436699394,
              158.46243987807563
            ],
            [
              -120.99869992037597,
              38.77225204005964,
              158.46243987807563
            ],
            [
              -120.99869204521116,
              38.77227860448524,
              158.46243987807563
            ],
            [
              -120.99865923556435,
              38.77231032426396,
              158.46243987807563
            ],
            [
              -120.99860149253308,
              38.772347200285466,
              158.46243987807563
            ],
            [
              -120.99854765394177,
              38.7723788692597,
              158.46243987807563
            ],
            [
              -120.99849641794769,
              38.77240706505937,
              158.46243987807563
            ],
            [
              -120.99846086790026,
              38.7724364187257,
              158.46243987807563
            ],
            [
              -120.99843408616867,
              38.77245809103754,
              158.46243987807563
            ],
            [
              -120.99842675732766,
              38.772469875017656,
              158.46243987807563
            ],
            [
              -120.99843107353968,
              38.77248218290741,
              158.46243987807563
            ],
            [
              -120.99844463714781,
              38.77248817849297,
              158.46243987807563
            ],
            [
              -120.99845224118631,
              38.7724880738236,
              158.46243987807563
            ],
            [
              -120.99847101005813,
              38.77248712581147,
              158.46243987807563
            ],
            [
              -120.9986778053631,
              38.77239595825748,
              158.46243987807563
            ],
            [
              -120.99886596704401,
              38.77227344128953,
              158.46243987807563
            ],
            [
              -120.99902405773739,
              38.772185011732205,
              158.46243987807563
            ],
            [
              -120.99912776039099,
              38.77210489529432,
              158.46243987807563
            ],
            [
              -120.99914036145603,
              38.77207001997763,
              158.46243987807563
            ],
            [
              -120.99914125030975,
              38.77205076848839,
              158.46243987807563
            ],
            [
              -120.99912371069199,
              38.772027993140696,
              158.46243987807563
            ],
            [
              -120.99907281571669,
              38.77201358180737,
              158.46243987807563
            ]
          ]
        ]
      }
    },
    {
      "type": "Feature",
      "properties": {
        "source_fid": 480,
        "authority": "USGS_2019_2020_lidar_hydrobreakline",
        "vertical_datum": "NAVD88",
        "z_units": "metres",
        "is_bathymetry": false
      },
      "geometry": {
        "type": "Polygon",
        "coordinates": [
          [
            [
              -120.99574865364606,
              38.77360174645631,
              159.7136398780766
            ],
            [
              -120.99577641834144,
              38.77357624169735,
              159.71113987807578
            ],
            [
              -120.99580603170175,
              38.773549324050315,
              159.7085398780749
            ],
            [
              -120.99583921558781,
              38.773528157279515,
              159.7060398780785
            ],
            [
              -120.99590349696777,
              38.773504399936115,
              159.70193987807713
            ],
            [
              -120.99594940949846,
              38.773487634355895,
              159.69903987807618
            ],
            [
              -120.99600240716065,
              38.773486662056726,
              159.69653987807533
            ],
            [
              -120.99605369854658,
              38.77347709362885,
              159.69373987807884
            ],
            [
              -120.99611072275451,
              38.77344849938665,
              159.68983987807752
            ],
            [
              -120.99612562888312,
              38.77342908804366,
              159.68823987807698
            ],
            [
              -120.99614988104005,
              38.7733935425999,
              159.68543987807607
            ],
            [
              -120.99617407380487,
              38.77336228596026,
              159.68283987807519
            ],
            [
              -120.99621462630446,
              38.77333689347927,
              159.67983987807864
            ],
            [
              -120.99626435250555,
              38.77330871805403,
              159.6762398780774
            ],
            [
              -120.99631215270782,
              38.77328767843013,
              159.67283987807627
            ],
            [
              -120.9963617992722,
              38.773265224074734,
              159.6711398780757
            ],
            [
              -120.99642016344787,
              38.77323805212221,
              159.66923987807508
            ],
            [
              -120.99642250623212,
              38.773235713744086,
              159.66913987807504
            ],
            [
              -120.99645776036627,
              38.77319740290154,
              159.66733987807888
            ],
            [
              -120.99648931940358,
              38.773161920555154,
              159.66573987807834
            ],
            [
              -120.99652627980115,
              38.773132204889144,
              159.6641398780778
            ],
            [
              -120.9965612906337,
              38.773111053707424,
              159.6628398780774
            ],
            [
              -120.99659453574704,
              38.77308559702946,
              159.66143987807692
            ],
            [
              -120.99661312626606,
              38.77306287412467,
              159.66043987807657
            ],
            [
              -120.99663187814541,
              38.773028709913625,
              159.65993987807641
            ],
            [
              -120.99663950796081,
              38.77300589316744,
              159.6592398780762
            ],
            [
              -120.99664699659044,
              38.77299308632256,
              159.65883987807604
            ],
            [
              -120.99666012633952,
              38.77296888553628,
              159.65793987807575
            ],
            [
              -120.99668237150954,
              38.77294619420831,
              159.6569398780754
            ],
            [
              -120.99670284867574,
              38.77291919647128,
              159.65583987807506
            ],
            [
              -120.99672330680269,
              38.772893629241295,
              159.6547398780791
            ],
            [
              -120.99674360242317,
              38.7728795024004,
              159.65393987807886
            ],
            [
              -120.99675826415759,
              38.77287250366602,
              159.65343987807867
            ],
            [
              -120.9967730336178,
              38.77286545540878,
              159.6529398780785
            ],
            [
              -120.99681161597641,
              38.77285005591722,
              159.65163987807807
            ],
            [
              -120.99684658740492,
              38.772831764759665,
              159.65043987807766
            ],
            [
              -120.99687613956192,
              38.7728091365388,
              159.64923987807728
            ],
            [
              -120.99690404467542,
              38.77277362250716,
              159.64773987807678
            ],
            [
              -120.99693775227118,
              38.77271036675253,
              159.64553987807605
            ],
            [
              -120.99693970160712,
              38.77270670960827,
              159.64543987807602
            ],
            [
              -120.99694175765359,
              38.77270674809546,
              159.645339878076
            ],
            [
              -120.99694394335125,
              38.7727047741268,
              159.645339878076
            ],
            [
              -120.99701087092303,
              38.772657321189364,
              159.6433398780753
            ],
            [
              -120.99706624110328,
              38.77263364928415,
              159.6414398780791
            ],
            [
              -120.99713202895505,
              38.7726169891896,
              159.63943987807843
            ],
            [
              -120.99718368938832,
              38.77259408430382,
              159.63773987807787
            ],
            [
              -120.99723905831105,
              38.77257041230618,
              159.63583987807723
            ],
            [
              -120.9972872932909,
              38.772560438547636,
              159.63443987807676
            ],
            [
              -120.99735365419666,
              38.772568108357646,
              159.6330398780763
            ],
            [
              -120.99740617205951,
              38.772581694794546,
              159.63203987807597
            ],
            [
              -120.99742451411858,
              38.772589803005516,
              159.63113987807566
            ],
            [
              -120.99745769253454,
              38.77259068055934,
              159.63043987807544
            ],
            [
              -120.9974715316489,
              38.772586513458194,
              159.62993987807528
            ],
            [
              -120.9974921054923,
              38.77257867827528,
              159.62933987807506
            ],
            [
              -120.9975042218406,
              38.77254355389116,
              159.62823987807914
            ],
            [
              -120.99749207799405,
              38.77250892632442,
              159.62763987807892
            ],
            [
              -120.99748075517611,
              38.772476634747846,
              159.62713987807876
            ],
            [
              -120.99748091983898,
              38.77244347207777,
              159.6263398780785
            ],
            [
              -120.99749563892512,
              38.772382901814,
              159.62453987807788
            ],
            [
              -120.99757797517266,
              38.77227725819169,
              159.61733987807548
            ],
            [
              -120.99766513809239,
              38.77220786361841,
              159.61733987807548
            ],
            [
              -120.99835374992432,
              38.77276971924002,
              159.61733987807548
            ],
            [
              -120.99833270447095,
              38.77277737662656,
              159.61733987807548
            ],
            [
              -120.9983143953296,
              38.77278007908854,
              159.61733987807548
            ],
            [
              -120.99827615566633,
              38.772771167768674,
              159.61733987807548
            ],
            [
              -120.99822878042934,
              38.77276217759956,
              159.61733987807548
            ],
            [
              -120.99819041650312,
              38.77276184652536,
              159.61733987807548
            ],
            [
              -120.99812081793655,
              38.77277411743837,
              159.61983987807633
            ],
            [
              -120.99807127410642,
              38.77278942365511,
              159.62133987807684
            ],
            [
              -120.99803821209137,
              38.77280200986087,
              159.6224398780772
            ],
            [
              -120.99798685873608,
              38.772815868847466,
              159.62383987807766
            ],
            [
              -120.99793914107124,
              38.77283118896939,
              159.62533987807817
            ],
            [
              -120.99789879090685,
              38.77284228244918,
              159.62653987807857
            ],
            [
              -120.9978695133818,
              38.77285172820565,
              159.62743987807886
            ],
            [
              -120.99785934537901,
              38.772856638780276,
              159.62773987807896
            ],
            [
              -120.99779213150981,
              38.77289192809342,
              159.63013987807534
            ],
            [
              -120.99774589338924,
              38.77290760146122,
              159.6315398780758
            ],
            [
              -120.9976838162757,
              38.77292349301848,
              159.6324398780761
            ],
            [
              -120.99762444972633,
              38.772935769096726,
              159.63413987807667
            ],
            [
              -120.99750971289762,
              38.77297171728708,
              159.63773987807787
            ],
            [
              -120.99746747213977,
              38.7729987866787,
              159.6393398780784
            ],
            [
              -120.99740853717863,
              38.773069033036,
              159.64223987807495
            ],
            [
              -120.99736886654689,
              38.773126128222344,
              159.64443987807567
            ],
            [
              -120.99731578082854,
              38.77316766290083,
              159.64733987807665
            ],
            [
              -120.99726412115936,
              38.77319056875515,
              159.64903987807722
            ],
            [
              -120.99724515447768,
              38.773198677249326,
              159.6496398780774
            ],
            [
              -120.99719288058803,
              38.773205063741074,
              159.65103987807788
            ],
            [
              -120.99716465310445,
              38.773201969354616,
              159.65163987807807
            ],
            [
              -120.99710228790707,
              38.77320569557585,
              159.65313987807858
            ],
            [
              -120.99704563166654,
              38.77321435502329,
              159.65463987807908
            ],
            [
              -120.99697142475854,
              38.773229699948146,
              159.65673987807534
            ],
            [
              -120.99691976378266,
              38.773252605639144,
              159.6584398780759
            ],
            [
              -120.99687852170521,
              38.773282523176526,
              159.66083987807673
            ],
            [
              -120.99684470131467,
              38.77331090748752,
              159.6623398780772
            ],
            [
              -120.99679875038416,
              38.77333874370136,
              159.66403987807777
            ],
            [
              -120.9967258254028,
              38.77336910091566,
              159.66633987807856
            ],
            [
              -120.9966852968912,
              38.77338970354226,
              159.66773987807903
            ],
            [
              -120.99663092503388,
              38.77341622542909,
              159.66963987807523
            ],
            [
              -120.99654315984402,
              38.77344965075541,
              159.67233987807612
            ],
            [
              -120.99651105087503,
              38.773471569382835,
              159.67363987807656
            ],
            [
              -120.99649007338951,
              38.77349118595607,
              159.67433987807678
            ],
            [
              -120.99646391419712,
              38.773514098375344,
              159.67663987807757
            ],
            [
              -120.99642522768836,
              38.77354125487699,
              159.67963987807855
            ],
            [
              -120.99637719114187,
              38.773566474616814,
              159.68303987807525
            ],
            [
              -120.9962961336429,
              38.77360768141343,
              159.68863987807714
            ],
            [
              -120.99619067280494,
              38.77368143491345,
              159.69693987807545
            ],
            [
              -120.99610747483617,
              38.77375058610287,
              159.70403987807785
            ],
            [
              -120.99602498937323,
              38.773810421484285,
              159.7106398780756
            ],
            [
              -120.99589155697379,
              38.77388384721235,
              159.73953987807639
            ],
            [
              -120.99575698411033,
              38.77398806568358,
              159.91363987807688
            ],
            [
              -120.99570351056562,
              38.77401857238095,
              159.97644282086094
            ],
            [
              -120.99571465070505,
              38.77362065897162,
              159.7359658105963
            ],
            [
              -120.99574865364606,
              38.77360174645631,
              159.7136398780766
            ]
          ]
        ]
      }
    },
    {
      "type": "Feature",
      "properties": {
        "source_fid": 481,
        "authority": "USGS_2019_2020_lidar_hydrobreakline",
        "vertical_datum": "NAVD88",
        "z_units": "metres",
        "is_bathymetry": false
      },
      "geometry": {
        "type": "Polygon",
        "coordinates": [
          [
            [
              -120.9977165851992,
              38.772174417591124,
              158.46243987807563
            ],
            [
              -120.99840770491615,
              38.772742643391524,
              158.46243987807563
            ],
            [
              -120.99835374992432,
              38.77276971924002,
              159.61733987807548
            ],
            [
              -120.99766513809239,
              38.77220786361841,
              159.61733987807548
            ],
            [
              -120.9977165851992,
              38.772174417591124,
              158.46243987807563
            ]
          ]
        ]
      }
    }
  ]
}