{
  "type": "FeatureCollection",
  "features": [
    {
      "type": "Feature",
      "properties": {
        "source_fid": 479,
        "authority": "USGS_2019_2020_lidar_hydrobreakline",
        "vertical_datum": "NAVD88",
        "z_units": "metres",
        "is_bathymetry": false
      },
      "geometry": {
        "type": "Polygon",
        "coordinates": [
          [
            [
              -121.01049116045417,
              38.762423191694175,
              145.57043987807626
            ],
            [
              -121.01058265383878,
              38.762444247051135,
              145.5397398780749
            ],
            [
              -121.01073148347878,
              38.76246103954289,
              145.5053398780767
            ],
            [
              -121.01080508370559,
              38.76245602251413,
              145.48493987807876
            ],
            [
              -121.01085045875568,
              38.762465476157125,
              145.47013987807824
            ],
            [
              -121.01094693046011,
              38.76251101492913,
              145.433839878075
            ],
            [
              -121.010976616388,
              38.762536654240066,
              145.42053987807498
            ],
            [
              -121.01109763532197,
              38.76260940106281,
              145.37223987807658
            ],
            [
              -121.01132130233746,
              38.7626761931331,
              145.2952398780775
            ],
            [
              -121.01147222578463,
              38.762760647782294,
              145.24753987807486
            ],
            [
              -121.01159197584286,
              38.76286159583383,
              145.1914398780783
            ],
            [
              -121.01176208828522,
              38.762960855386545,
              145.12283987807757
            ],
            [
              -121.01190794228565,
              38.76305902256375,
              145.0713398780781
            ],
            [
              -121.01205921799874,
              38.763149955303106,
              145.0113398780758
            ],
            [
              -121.01213456746805,
              38.76318325886864,
              144.98523987807596
            ],
            [
              -121.01224701533906,
              38.76320888416642,
              144.9539398780788
            ],
            [
              -121.01234377770399,
              38.76328053852753,
              144.91133987807788
            ],
            [
              -121.01244169568061,
              38.763400849138556,
              144.88283987807725
            ],
            [
              -121.01249109813673,
              38.76351897478272,
              144.86133987807892
            ],
            [
              -121.01248029856995,
              38.763692342139784,
              144.79043987807742
            ],
            [
              -121.0124338246044,
              38.7638547552003,
              144.71953987807592
            ],
            [
              -121.01239876675614,
              38.76402702963388,
              144.65223987807562
            ],
            [
              -121.012390591057,
              38.76406879915715,
              144.63593987807906
            ],
            [
              -121.01239034886814,
              38.76410116833353,
              144.62293987807914
            ],
            [
              -121.01240941231848,
              38.76418651055827,
              144.5878398780763
            ],
            [
              -121.01242564283407,
              38.7642170477607,
              144.57473987807634
            ],
            [
              -121.01250387943838,
              38.76437199007709,
              144.50873987807648
            ],
            [
              -121.0125818488256,
              38.764594218555125,
              144.11603987807837
            ],
            [
              -121.01268750646841,
              38.76480251450472,
              143.63383987807697
            ],
            [
              -121.0127530873658,
              38.76488124491853,
              143.42803987807477
            ],
            [
              -121.01284193228652,
              38.76494989356459,
              143.2195398780761
            ],
            [
              -121.01299521239072,
              38.76504652332365,
              142.90033987807593
            ],
            [
              -121.0130603001312,
              38.76511862123926,
              142.70723987807796
            ],
            [
              -121.0131144704798,
              38.765295531211024,
              142.43083987807879
            ],
            [
              -121.0131151866831,
              38.765295748117474,
              142.43063987807872
            ],
            [
              -121.0131492869494,
              38.76536159044004,
              142.3913398780789
            ],
            [
              -121.01315597252727,
              38.765428391603905,
              142.35423987807536
            ],
            [
              -121.01316613240604,
              38.76546423309727,
              142.3337398780774
            ],
            [
              -121.01320777680965,
              38.765534906347625,
              142.29103987807645
            ],
            [
              -121.01324283757131,
              38.765641279628575,
              142.22953987807807
            ],
            [
              -121.01327179287652,
              38.76574879292268,
              142.1680398780753
            ],
            [
              -121.01329611652454,
              38.76586103454454,
              142.10443987807622
            ],
            [
              -121.01331819080984,
              38.76602569733079,
              142.01253987807655
            ],
            [
              -121.01333258595318,
              38.76608541245089,
              141.97863987807855
            ],
            [
              -121.01334256535974,
              38.766134363590325,
              141.95083987807814
            ],
            [
              -121.01335268201105,
              38.76616470633546,
              141.95083987807814
            ],
            [
              -121.01335571693302,
              38.766173806275155,
              141.95083987807814
            ],
            [
              -121.01337495988194,
              38.76621330163581,
              141.94243987807533
            ],
            [
              -121.01342244728815,
              38.76630190157022,
              141.87753987807582
            ],
            [
              -121.01348507374105,
              38.76639659068785,
              141.80663987807876
            ],
            [
              -121.0135563536749,
              38.76652591739475,
              141.7117398780781
            ],
            [
              -121.01355503955136,
              38.76652865315483,
              141.71013987807757
            ],
            [
              -121.01357812304862,
              38.76659444045163,
              141.66363987807534
            ],
            [
              -121.01364152454029,
              38.766752453249715,
              141.55073987807756
            ],
            [
              -121.01366124331147,
              38.76684729567653,
              141.48543987807793
            ],
            [
              -121.01365996746577,
              38.766848598387405,
              141.48473987807768
            ],
            [
              -121.01368041480265,
              38.7669196120634,
              141.43513987807887
            ],
            [
              -121.01370755706974,
              38.767013887811046,
              141.36913987807898
            ],
            [
              -121.01371225499815,
              38.767030204785875,
              141.3577398780752
            ],
            [
              -121.01371586210516,
              38.76703273460804,
              141.3556398780789
            ],
            [
              -121.01373004218868,
              38.76706491910286,
              141.3324398780756
            ],
            [
              -121.01373836639695,
              38.767123391553504,
              141.29263987807562
            ],
            [
              -121.01374128364046,
              38.767133719067516,
              141.2854228389965
            ],
            [
              -121.01336254049488,
              38.76712727945901,
              141.33955031649123
            ],
            [
              -121.01333451066193,
              38.76701156430608,
              141.41973987807816
            ],
            [
              -121.01331632069544,
              38.76694077066232,
              141.46903987807687
            ],
            [
              -121.01325992107648,
              38.76672127034184,
              141.62153987807903
            ],
            [
              -121.01322565851473,
              38.76658792288682,
              141.71423987807893
            ],
            [
              -121.01319590232517,
              38.766438488928586,
              141.81693987807776
            ],
            [
              -121.01313904180839,
              38.76631275045622,
              141.90763987807702
            ],
            [
              -121.01309285913155,
              38.766254802944594,
              141.95083987807814
            ],
            [
              -121.01307254433462,
              38.76621701288777,
              141.95083987807814
            ],
            [
              -121.01300120090599,
              38.76608430234758,
              142.0129398780767
            ],
            [
              -121.01295932741124,
              38.765992558886566,
              142.06713987807706
            ],
            [
              -121.01293664678532,
              38.76587763288479,
              142.13193987807654
            ],
            [
              -121.01295175291997,
              38.76580727636896,
              142.1687398780755
            ],
            [
              -121.01292718526938,
              38.76571457011159,
              142.22173987807548
            ],
            [
              -121.01290745830691,
              38.76559030317421,
              142.29143987807657
            ],
            [
              -121.01281064963409,
              38.765359749616536,
              142.48993987807634
            ],
            [
              -121.01274982763177,
              38.765231763658555,
              142.7825398780765
            ],
            [
              -121.01267103540839,
              38.76515622367177,
              142.99453987807635
            ],
            [
              -121.01261880680896,
              38.7651305263914,
              143.08993987807716
            ],
            [
              -121.01253945675373,
              38.7650858275309,
              143.24533987807584
            ],
            [
              -121.01235449938481,
              38.76498963936414,
              143.5928398780766
            ],
            [
              -121.01223547539317,
              38.76492259123654,
              143.8260398780791
            ],
            [
              -121.01211587342884,
              38.764831215718026,
              144.10473987807904
            ],
            [
              -121.01199454080977,
              38.7646668546936,
              144.45203987807528
            ],
            [
              -121.01192772363508,
              38.76452177349654,
              144.47753987807494
            ],
            [
              -121.0118857407606,
              38.764402111635754,
              144.52753987807833
            ],
            [
              -121.01183861388137,
              38.76424577603964,
              144.59253987807784
            ],
            [
              -121.01183730939267,
              38.76424557934281,
              144.5927398780779
            ],
            [
              -121.01183744458207,
              38.76424189389691,
              144.59413987807838
            ],
            [
              -121.01183756118411,
              38.76423871821797,
              144.59543987807882
            ],
            [
              -121.01184220875997,
              38.76411213327461,
              144.64593987807794
            ],
            [
              -121.01188921260338,
              38.76401599270154,
              144.68213987807673
            ],
            [
              -121.01190532737223,
              38.76395177030182,
              144.7070398780762
            ],
            [
              -121.01192122697304,
              38.76390303932474,
              144.72583987807803
            ],
            [
              -121.01193537378624,
              38.76387097950974,
              144.73193987807562
            ],
            [
              -121.01194824660377,
              38.76382103173637,
              144.75213987807794
            ],
            [
              -121.01195795798104,
              38.76377939964202,
              144.76893987807912
            ],
            [
              -121.01195986690735,
              38.763732921706655,
              144.78803987807663
            ],
            [
              -121.0119440492695,
              38.76363828873277,
              144.82733987807643
            ],
            [
              -121.01193089988224,
              38.763555442786306,
              144.90833987807687
            ],
            [
              -121.01191148517373,
              38.76352279005257,
              144.92273987807727
            ],
            [
              -121.01185439622168,
              38.76347348456457,
              144.95013987807755
            ],
            [
              -121.01182556330112,
              38.76343666862903,
              144.96783987807902
            ],
            [
              -121.01178131389688,
              38.763378594670726,
              144.99543987807493
            ],
            [
              -121.01172649254043,
              38.763267701169966,
              145.0420398780772
            ],
            [
              -121.01165541076554,
              38.76317850947757,
              145.09423987807688
            ],
            [
              -121.01157890668951,
              38.7630965501613,
              145.13453987807705
            ],
            [
              -121.01148814234459,
              38.76304198999134,
              145.1715398780761
            ],
            [
              -121.01138853557438,
              38.76300759468247,
              145.20553987807858
            ],
            [
              -121.0112771141474,
              38.76294383920668,
              145.25013987807574
            ],
            [
              -121.01119904723197,
              38.76290996596578,
              145.2880398780751
            ],
            [
              -121.0111025564205,
              38.76289563899852,
              145.31863987807643
            ],
            [
              -121.01091875989077,
              38.7628481057657,
              145.38053987807493
            ],
            [
              -121.01076406497558,
              38.76277010222904,
              145.43953987807689
            ],
            [
              -121.01055557815933,
              38.76269528509159,
              145.52803987807542
            ],
            [
              -121.01049008121639,
              38.76269233476833,
              145.54893987807796
            ],
            [
              -121.01038763161631,
              38.76269519836481,
              145.58123987807545
            ],
            [
              -121.01031628126059,
              38.76267329115871,
              145.60553987807913
            ],
            [
              -121.01023493650388,
              38.76262289241775,
              145.6354398780758
            ],
            [
              -121.01016161564799,
              38.7625992106012,
              145.66053987807533
            ],
            [
              -121.00994489709144,
              38.76257464530001,
              145.73123987807676
            ],
            [
              -121.00985907957349,
              38.7625723150018,
              145.758539878077
            ],
            [
              -121.00954373241272,
              38.762558110579256,
              146.018139878075
            ],
            [
              -121.0093741997357,
              38.76255770889672,
              146.3113972895293
            ],
            [
              -121.00937955601242,
              38.76236499545608,
              140.83696226027607
            ],
            [
              -121.01035577717933,
              38.76238162393707,
              145.61673767059253
            ],
            [
              -121.01049116045417,
              38.762423191694175,
              145.57043987807626
            ]
          ]
        ]
      }
    }
  ]
}