{
  "type": "FeatureCollection",
  "features": [
    {
      "type": "Feature",
      "properties": {
        "source_fid": 479,
        "authority": "USGS_2019_2020_lidar_hydrobreakline",
        "vertical_datum": "NAVD88",
        "z_units": "metres",
        "is_bathymetry": false
      },
      "geometry": {
        "type": "Polygon",
        "coordinates": [
          [
            [
              -121.00475069021195,
              38.76542074232321,
              150.69083987807892
            ],
            [
              -121.00484921428745,
              38.76532408767575,
              150.5800398780774
            ],
            [
              -121.00488235896844,
              38.76528789504323,
              150.5405398780775
            ],
            [
              -121.00490262519634,
              38.765236763611334,
              150.4985398780768
            ],
            [
              -121.00493230117037,
              38.76520520082976,
              150.46373987807848
            ],
            [
              -121.00497165744665,
              38.76517945723751,
              150.4273398780752
            ],
            [
              -121.00500297944916,
              38.76516711093962,
              150.40343987807609
            ],
            [
              -121.0050280909041,
              38.76514431468135,
              150.3763398780759
            ],
            [
              -121.00504808534468,
              38.76510692996536,
              150.35783987807858
            ],
            [
              -121.00505657346223,
              38.76508757239816,
              150.3474398780751
            ],
            [
              -121.00507712042436,
              38.76507354358005,
              150.3280398780775
            ],
            [
              -121.00510022359205,
              38.76506680806284,
              150.3108398780762
            ],
            [
              -121.00515008539216,
              38.765056493666705,
              150.2757398780778
            ],
            [
              -121.00524971252486,
              38.76500654776984,
              150.1910398780761
            ],
            [
              -121.00535043417395,
              38.76495246419374,
              150.08933987807762
            ],
            [
              -121.00543746136712,
              38.76492468111753,
              150.0287398780751
            ],
            [
              -121.00549837070675,
              38.76490230140146,
              149.98473987807816
            ],
            [
              -121.00552412151916,
              38.7648813303912,
              149.95943987807857
            ],
            [
              -121.00553955009815,
              38.76485271304937,
              149.93503987807486
            ],
            [
              -121.00553854351226,
              38.76483532010898,
              149.9254398780761
            ],
            [
              -121.00554273979797,
              38.76481098234155,
              149.88993987807754
            ],
            [
              -121.00559104087425,
              38.76475991980511,
              149.82663987807857
            ],
            [
              -121.00562090099139,
              38.76473614064866,
              149.79343987807636
            ],
            [
              -121.00565523625664,
              38.764725125436776,
              149.7679398780767
            ],
            [
              -121.00568637444927,
              38.76470499426095,
              149.7467398780785
            ],
            [
              -121.00569294573414,
              38.76468016600704,
              149.73143987807782
            ],
            [
              -121.00570298557686,
              38.764650707863225,
              149.708339878079
            ],
            [
              -121.00571713589706,
              38.76461844430197,
              149.6815398780789
            ],
            [
              -121.00573877608383,
              38.76460027685847,
              149.65953987807598
            ],
            [
              -121.00575091944579,
              38.76458407497249,
              149.64343987807504
            ],
            [
              -121.00578168940898,
              38.76454837347398,
              149.60613987807588
            ],
            [
              -121.00581629718785,
              38.76452361238081,
              149.58193987807667
            ],
            [
              -121.00586186336908,
              38.76450831839568,
              149.5500398780749
            ],
            [
              -121.00591539779995,
              38.7645045092024,
              149.51913987807788
            ],
            [
              -121.00593539639415,
              38.76450021907971,
              149.5059398780779
            ],
            [
              -121.00600311957552,
              38.76449078794254,
              149.4643398780773
            ],
            [
              -121.00605259711782,
              38.764479769850816,
              149.43153987807523
            ],
            [
              -121.00607102254538,
              38.764468485839636,
              149.41523987807867
            ],
            [
              -121.00608962777004,
              38.76444433089924,
              149.39833987807745
            ],
            [
              -121.00608992627414,
              38.76442288054665,
              149.39283987807562
            ],
            [
              -121.0060940189182,
              38.76439144886306,
              149.37683987807912
            ],
            [
              -121.00610361173943,
              38.764358637205845,
              149.35733987807706
            ],
            [
              -121.00612047084981,
              38.76432874641315,
              149.3351398780785
            ],
            [
              -121.0061574015033,
              38.764300458154494,
              149.30273987807655
            ],
            [
              -121.00619061908475,
              38.76427642921489,
              149.27423987807592
            ],
            [
              -121.00623477601654,
              38.76425392279869,
              149.2403398780779
            ],
            [
              -121.00627700590412,
              38.764238552338846,
              149.21073987807688
            ],
            [
              -121.00632853006228,
              38.764211818739305,
              149.15743987807681
            ],
            [
              -121.00635813323161,
              38.7641848983619,
              149.12523987807495
            ],
            [
              -121.00637685926456,
              38.76415216306706,
              149.09653987807866
            ],
            [
              -121.0063883167037,
              38.764116506000434,
              149.07053987807885
            ],
            [
              -121.00639247024372,
              38.76408078550781,
              149.04893987807606
            ],
            [
              -121.00640938906066,
              38.76404660586486,
              148.95023987807858
            ],
            [
              -121.00644280500234,
              38.76400827541223,
              148.90433987807654
            ],
            [
              -121.00649073573712,
              38.76397722076124,
              148.85653987807834
            ],
            [
              -121.00657828627675,
              38.763944473601896,
              148.79743987807632
            ],
            [
              -121.00660818572727,
              38.76392483429861,
              148.79743987807632
            ],
            [
              -121.00677082155163,
              38.763859861019796,
              148.7134398780749
            ],
            [
              -121.0067847800916,
              38.76385101622642,
              148.70123987807526
            ],
            [
              -121.00681438408883,
              38.76382409574176,
              148.6720398780788
            ],
            [
              -121.00683485593561,
              38.76379709620883,
              148.64813987807526
            ],
            [
              -121.00685715257094,
              38.76377011318706,
              148.6232398780758
            ],
            [
              -121.00688316331356,
              38.763738870817605,
              148.594239878075
            ],
            [
              -121.00691872764112,
              38.76367767503046,
              148.53813987807843
            ],
            [
              -121.00694285132195,
              38.763650707624556,
              148.51163987807846
            ],
            [
              -121.00697408155807,
              38.76363810235138,
              148.4874398780748
            ],
            [
              -121.00699234694927,
              38.76363825861816,
              148.47673987807568
            ],
            [
              -121.0070414844525,
              38.76365155145761,
              148.45383987807688
            ],
            [
              -121.00708132905427,
              38.76367620567018,
              148.4415398780772
            ],
            [
              -121.00712851974673,
              38.76369806316139,
              148.42363987807568
            ],
            [
              -121.00715851821049,
              38.76370165590494,
              148.40763987807475
            ],
            [
              -121.0071762123229,
              38.763696655747445,
              148.39493987807495
            ],
            [
              -121.00725636545226,
              38.76368147147024,
              148.38283987807534
            ],
            [
              -121.00730817619038,
              38.76364758562019,
              148.3542398780791
            ],
            [
              -121.0073156317096,
              38.76361599436376,
              148.34323987807542
            ],
            [
              -121.00731325148166,
              38.763611992804286,
              148.3438398780756
            ],
            [
              -121.00726368811048,
              38.76357784084622,
              148.3679398780748
            ],
            [
              -121.00720335735927,
              38.7635714129331,
              148.38283987807534
            ],
            [
              -121.00710853706615,
              38.7635591600619,
              148.38283987807534
            ],
            [
              -121.00706481992079,
              38.76355020474185,
              148.39393987807907
            ],
            [
              -121.00701752955977,
              38.76353549703971,
              148.41513987807727
            ],
            [
              -121.00698308425453,
              38.76351660989273,
              148.42683987807675
            ],
            [
              -121.00692495446859,
              38.7634932289743,
              148.45053987807577
            ],
            [
              -121.0068576914717,
              38.763469769878874,
              148.4795398780766
            ],
            [
              -121.00679032984829,
              38.76345346147022,
              148.51183987807852
            ],
            [
              -121.00670281593206,
              38.763441269885334,
              148.55783987807615
            ],
            [
              -121.00666080506228,
              38.76344091125851,
              148.59823987807633
            ],
            [
              -121.00660606894958,
              38.76343615168338,
              148.62883987807768
            ],
            [
              -121.00654589259108,
              38.763428485971595,
              148.66133987807524
            ],
            [
              -121.00647656535386,
              38.76342217077239,
              148.69993987807482
            ],
            [
              -121.00641277590844,
              38.76341161271538,
              148.7333398780771
            ],
            [
              -121.00640478387041,
              38.76341064967891,
              148.73773987807857
            ],
            [
              -121.00639243798302,
              38.76340916106778,
              148.74443987807638
            ],
            [
              -121.00636171285375,
              38.763405455594416,
              148.7611398780775
            ],
            [
              -121.00631257564744,
              38.763392162467014,
              148.7846398780765
            ],
            [
              -121.00627433772688,
              38.76338325375574,
              148.79743987807632
            ],
            [
              -121.00623610096649,
              38.763374345041754,
              148.79743987807632
            ],
            [
              -121.00617231158706,
              38.76336378775331,
              148.79743987807632
            ],
            [
              -121.0061176554725,
              38.76335330773583,
              148.79743987807632
            ],
            [
              -121.0060573804923,
              38.76335279249604,
              148.79743987807632
            ],
            [
              -121.0059916253555,
              38.76335222939247,
              148.79743987807632
            ],
            [
              -121.00592583027161,
              38.76335452545679,
              148.79743987807632
            ],
            [
              -121.00588923968995,
              38.76335850319397,
              148.79743987807632
            ],
            [
              -121.00581778457709,
              38.76337362318726,
              148.79743987807632
            ],
            [
              -121.00577198197267,
              38.76338324197787,
              148.79743987807632
            ],
            [
              -121.00570060673716,
              38.76339264258813,
              148.815739878078
            ],
            [
              -121.00564574964648,
              38.76339646376856,
              149.12883987807615
            ],
            [
              -121.00557256841726,
              38.76340441815396,
              149.23023987807895
            ],
            [
              -121.00551221345542,
              38.76340962194186,
              149.26533987807738
            ],
            [
              -121.00549214100074,
              38.76340802018462,
              149.27553987807636
            ],
            [
              -121.00546867651553,
              38.76338779509411,
              149.27953987807768
            ],
            [
              -121.00547078232619,
              38.76336778999934,
              149.27673987807674
            ],
            [
              -121.00548954738008,
              38.76333219473003,
              149.2439398780791
            ],
            [
              -121.00553382386455,
              38.763301109162384,
              149.14473987807702
            ],
            [
              -121.0056020056498,
              38.763258787492006,
              148.79743987807632
            ],
            [
              -121.00568628580184,
              38.76324091615012,
              148.79743987807632
            ],
            [
              -121.00575773965882,
              38.76322579622775,
              148.79743987807632
            ],
            [
              -121.00585109299526,
              38.7632122936098,
              148.79743987807632
            ],
            [
              -121.00591889489645,
              38.76319714140816,
              148.79743987807632
            ],
            [
              -121.00596100551047,
              38.763190350489,
              148.79743987807632
            ],
            [
              -121.00608532808772,
              38.76318283380264,
              148.79743987807632
            ],
            [
              -121.00622197863693,
              38.763208318139306,
              148.7593398780769
            ],
            [
              -121.0062911070763,
              38.76322893313014,
              148.727039878075
            ],
            [
              -121.00639490139105,
              38.76325270528865,
              148.6754398780755
            ],
            [
              -121.00646782275037,
              38.76326334242582,
              148.63663987807584
            ],
            [
              -121.0065714950814,
              38.763295693824205,
              148.56903987807544
            ],
            [
              -121.00665513613087,
              38.7633235834774,
              148.53243987807653
            ],
            [
              -121.00667850886798,
              38.76332946746172,
              148.52133987807724
            ],
            [
              -121.00673159204231,
              38.76334283114005,
              148.4961398780777
            ],
            [
              -121.00681535298506,
              38.76336214035914,
              148.45553987807745
            ],
            [
              -121.00690096102305,
              38.76338003644876,
              148.4131398780766
            ],
            [
              -121.00702480599627,
              38.76340683914036,
              148.38283987807534
            ],
            [
              -121.00709397363698,
              38.76342459263576,
              148.38283987807534
            ],
            [
              -121.00717946208887,
              38.76345106883879,
              148.38283987807534
            ],
            [
              -121.00726119777264,
              38.763484663549804,
              148.35063987807789
            ],
            [
              -121.00732121463665,
              38.763503769316195,
              148.31703987807555
            ],
            [
              -121.00732384521025,
              38.763504343182184,
              148.31553987807504
            ],
            [
              -121.00737584993587,
              38.76351567926059,
              148.28533987807828
            ],
            [
              -121.0074778179319,
              38.763539433923974,
              148.1336398780764
            ],
            [
              -121.00755623873657,
              38.76354868672519,
              148.0977398780777
            ],
            [
              -121.00764387261924,
              38.76355229644634,
              148.05433987807652
            ],
            [
              -121.00771336195676,
              38.76354716964115,
              147.983439878075
            ],
            [
              -121.0077610900897,
              38.76353041497743,
              147.95393987807844
            ],
            [
              -121.00783810649993,
              38.763504554513254,
              147.9070398780761
            ],
            [
              -121.00787273326486,
              38.76346613039954,
              147.86993987807702
            ],
            [
              -121.0080197191526,
              38.763316586612135,
              147.6589398780775
            ],
            [
              -121.00809698480755,
              38.76317526243104,
              147.5170398780789
            ],
            [
              -121.00813520156001,
              38.76305734307488,
              147.41653987807638
            ],
            [
              -121.00823220002174,
              38.762902814951396,
              147.282639878076
            ],
            [
              -121.00826557160009,
              38.762816456916774,
              147.21543987807573
            ],
            [
              -121.00832862234029,
              38.76272395856288,
              147.13473987807538
            ],
            [
              -121.0083925190087,
              38.76258850303094,
              147.04523987807656
            ],
            [
              -121.00846556309637,
              38.762524496250926,
              146.9798398780769
            ],
            [
              -121.00867700186926,
              38.76240129491061,
              146.82963987807548
            ],
            [
              -121.00893553310661,
              38.762298909442244,
              146.62433987807788
            ],
            [
              -121.00904585335844,
              38.76228056610909,
              146.62433987807788
            ],
            [
              -121.00908592229219,
              38.76227390438381,
              146.62433987807788
            ],
            [
              -121.00924630537706,
              38.76227738980735,
              146.46983987807508
            ],
            [
              -121.0094666201857,
              38.76229292287503,
              146.09203987807751
            ],
            [
              -121.00957849068092,
              38.76229422349302,
              145.89873987807505
            ],
            [
              -121.00991809302032,
              38.76230951944739,
              145.7612398780779
            ],
            [
              -121.0103484602683,
              38.76237937736441,
              145.61923987807484
            ],
            [
              -121.01049116045417,
              38.762423191694175,
              145.57043987807626
            ],
            [
              -121.01058265383878,
              38.762444247051135,
              145.5397398780749
            ],
            [
              -121.01073148347878,
              38.76246103954289,
              145.5053398780767
            ],
            [
              -121.01076949222515,
              38.7624584486468,
              145.4948048778707
            ],
            [
              -121.01076086799007,
              38.76276895496955,
              145.4408969562971
            ],
            [
              -121.01055557815933,
              38.76269528509159,
              145.52803987807542
            ],
            [
              -121.01049008121639,
              38.76269233476833,
              145.54893987807796
            ],
            [
              -121.01038763161631,
              38.76269519836481,
              145.58123987807545
            ],
            [
              -121.01031628126059,
              38.76267329115871,
              145.60553987807913
            ],
            [
              -121.01023493650388,
              38.76262289241775,
              145.6354398780758
            ],
            [
              -121.01016161564799,
              38.7625992106012,
              145.66053987807533
            ],
            [
              -121.00994489709144,
              38.76257464530001,
              145.73123987807676
            ],
            [
              -121.00985907957349,
              38.7625723150018,
              145.758539878077
            ],
            [
              -121.00954373241272,
              38.762558110579256,
              146.018139878075
            ],
            [
              -121.00919328703353,
              38.76255727997953,
              146.62433987807788
            ],
            [
              -121.00916135102234,
              38.76256204444537,
              146.62433987807788
            ],
            [
              -121.00908741366547,
              38.762573073954485,
              146.65103987807794
            ],
            [
              -121.0088335729298,
              38.76264160149264,
              146.87523987807742
            ],
            [
              -121.00878489571954,
              38.76265914310491,
              146.94403987807823
            ],
            [
              -121.00876862903895,
              38.762672306393526,
              146.95833987807856
            ],
            [
              -121.00869463200337,
              38.762738894491605,
              147.02783987807516
            ],
            [
              -121.00865393058248,
              38.76277573268103,
              147.0737398780772
            ],
            [
              -121.00861501521013,
              38.76281544655918,
              147.11163987807655
            ],
            [
              -121.00859627177641,
              38.76284961273203,
              147.13983987807708
            ],
            [
              -121.00858280805377,
              38.76289812533531,
              147.17573987807577
            ],
            [
              -121.00857859705839,
              38.7629381356293,
              147.20353987807619
            ],
            [
              -121.0085781387319,
              38.76297102730934,
              147.2255398780791
            ],
            [
              -121.0085775608556,
              38.763012498409196,
              147.25313987807502
            ],
            [
              -121.00856775127667,
              38.76306104312397,
              147.28823987807786
            ],
            [
              -121.00855450670323,
              38.763093824684944,
              147.31383987807754
            ],
            [
              -121.00855255328916,
              38.76309866220071,
              147.3176398780788
            ],
            [
              -121.00854126326809,
              38.76312660625414,
              147.3475398780755
            ],
            [
              -121.00853345011755,
              38.76314063453712,
              147.36033987807534
            ],
            [
              -121.00851421018017,
              38.763162279859095,
              147.3821398780782
            ],
            [
              -121.00841890761012,
              38.763230893061476,
              147.46143987807807
            ],
            [
              -121.00836327584408,
              38.763321855700234,
              147.55283987807755
            ],
            [
              -121.0083347501259,
              38.76337665149888,
              147.6057398780775
            ],
            [
              -121.00831479510231,
              38.76347856969635,
              147.694239878076
            ],
            [
              -121.00831698135056,
              38.76353091879507,
              147.73933987807774
            ],
            [
              -121.00827312582072,
              38.763616665627815,
              147.83053987807716
            ],
            [
              -121.00823121164441,
              38.763648657127675,
              147.8421398780766
            ],
            [
              -121.00814874808891,
              38.763708501168644,
              147.9009398780785
            ],
            [
              -121.00803060961223,
              38.76375739039517,
              147.97843987807778
            ],
            [
              -121.00793473018284,
              38.763801675015216,
              148.02243987807915
            ],
            [
              -121.00779348338976,
              38.76389812650275,
              148.14063987807873
            ],
            [
              -121.00775432985958,
              38.76392760982331,
              148.17463987807676
            ],
            [
              -121.00764145741853,
              38.76398047082236,
              148.2136398780765
            ],
            [
              -121.00742564912183,
              38.76402923428861,
              148.35803987807594
            ],
            [
              -121.00730693306926,
              38.76405379548409,
              148.48033987807688
            ],
            [
              -121.00717737550772,
              38.76409282282764,
              148.57443987807724
            ],
            [
              -121.0070321297461,
              38.764177877586825,
              148.69493987807758
            ],
            [
              -121.00682010762687,
              38.76427674772769,
              148.91583987807596
            ],
            [
              -121.00671195941247,
              38.764354127381466,
              149.00423987807886
            ],
            [
              -121.00643830523401,
              38.76452686355861,
              149.24863987807623
            ],
            [
              -121.00623827302094,
              38.76465992100867,
              149.43433987807617
            ],
            [
              -121.00607618849516,
              38.76474234836119,
              149.56803987807646
            ],
            [
              -121.00598687729848,
              38.76482805376452,
              149.672839878076
            ],
            [
              -121.00589577036271,
              38.76489682068059,
              149.7803398780764
            ],
            [
              -121.00589509752554,
              38.76490033754828,
              149.78343987807744
            ],
            [
              -121.0058300279328,
              38.76498130345151,
              149.878039878078
            ],
            [
              -121.00579843606506,
              38.76501964845469,
              149.90573987807838
            ],
            [
              -121.00576148605563,
              38.765049367110684,
              149.9351398780749
            ],
            [
              -121.00571913451469,
              38.765073317688625,
              149.9706398780779
            ],
            [
              -121.00567857011248,
              38.76510014490954,
              150.0069398780767
            ],
            [
              -121.00564151892137,
              38.76513701423141,
              150.04713987807682
            ],
            [
              -121.00560998685087,
              38.765171068574276,
              150.08293987807548
            ],
            [
              -121.00556568924154,
              38.765203584669734,
              150.124339878076
            ],
            [
              -121.00551785836673,
              38.76522748913268,
              150.14113987807718
            ],
            [
              -121.00546641429236,
              38.765248501268665,
              150.18183987807745
            ],
            [
              -121.00541308305162,
              38.76527378833389,
              150.22643987807905
            ],
            [
              -121.00537073241038,
              38.76529773879421,
              150.26383987807824
            ],
            [
              -121.00534110724223,
              38.765326090311646,
              150.29573987807558
            ],
            [
              -121.00529490229336,
              38.76536430995575,
              150.3425398780779
            ],
            [
              -121.00526523824195,
              38.76539552066792,
              150.406239878077
            ],
            [
              -121.00521357400443,
              38.765432264621744,
              150.4557398780758
            ],
            [
              -121.00515646938658,
              38.765466100575324,
              150.50633987807495
            ],
            [
              -121.00510305789506,
              38.76549710680731,
              150.55333987807737
            ],
            [
              -121.0050404739735,
              38.76553089664054,
              150.60673987807746
            ],
            [
              -121.00496857649307,
              38.76557747726524,
              150.67283987807735
            ],
            [
              -121.00491327881177,
              38.76561275836426,
              150.7234398780765
            ],
            [
              -121.00488131830178,
              38.76563256515993,
              150.75223987807726
            ],
            [
              -121.00486000926885,
              38.76565400385454,
              150.7765398780765
            ],
            [
              -121.00468131863482,
              38.76576866833839,
              150.94021800692306
            ],
            [
              -121.00468971625017,
              38.76546727568135,
              150.75117142187187
            ],
            [
              -121.00475069021195,
              38.76542074232321,
              150.69083987807892
            ]
          ]
        ]
      }
    }
  ]
}