{
  "type": "FeatureCollection",
  "features": [
    {
      "type": "Feature",
      "properties": {
        "source_fid": 395,
        "authority": "USGS_2019_2020_lidar_hydrobreakline",
        "vertical_datum": "NAVD88",
        "z_units": "metres",
        "is_bathymetry": false
      },
      "geometry": {
        "type": "Polygon",
        "coordinates": [
          [
            [
              -120.81884261136186,
              38.767073452368166,
              283.57113987807793
            ],
            [
              -120.8188592074144,
              38.7670356506886,
              283.57063987807777
            ],
            [
              -120.81887948155085,
              38.76701676314862,
              283.5703398780776
            ],
            [
              -120.81892223257684,
              38.766993327476364,
              283.5697398780774
            ],
            [
              -120.81901349465083,
              38.766972153038935,
              283.5343398780789
            ],
            [
              -120.81909267586826,
              38.76694368405669,
              283.5026398780772
            ],
            [
              -120.81923321833634,
              38.76689040450857,
              283.44523987807577
            ],
            [
              -120.81930466666516,
              38.766848861409976,
              283.39853987807794
            ],
            [
              -120.8193559172318,
              38.766804135185744,
              283.27673987807714
            ],
            [
              -120.81942636560093,
              38.76675058028145,
              283.11913987807776
            ],
            [
              -120.81955264856998,
              38.76669289562467,
              282.9255398780752
            ],
            [
              -120.81970527219077,
              38.76664690813941,
              282.808439878076
            ],
            [
              -120.81989532667066,
              38.766607898678764,
              282.6721398780748
            ],
            [
              -120.81998579376106,
              38.766584443204856,
              282.6131398780773
            ],
            [
              -120.82007308861586,
              38.76655186482453,
              282.61013987807627
            ],
            [
              -120.82011504475136,
              38.76652614934271,
              282.60853987807576
            ],
            [
              -120.8202333893493,
              38.76644565858857,
              282.60373987807856
            ],
            [
              -120.82038201793713,
              38.766351622477124,
              282.5866398780773
            ],
            [
              -120.8205264993189,
              38.76627309804341,
              282.5011398780753
            ],
            [
              -120.82070720321674,
              38.76617980729586,
              282.39573987807563
            ],
            [
              -120.82084615568843,
              38.766121964370704,
              282.34443987807623
            ],
            [
              -120.82092295141852,
              38.766086652430474,
              282.3214398780774
            ],
            [
              -120.82096629074691,
              38.766055765727714,
              282.3066398780769
            ],
            [
              -120.82104764469165,
              38.76602440562704,
              282.28323987807795
            ],
            [
              -120.82117075043608,
              38.765957598175305,
              282.2552398780775
            ],
            [
              -120.8212479294818,
              38.76590510338866,
              282.234539878075
            ],
            [
              -120.82129503152449,
              38.76587588819996,
              282.2223398780754
            ],
            [
              -120.82140014083288,
              38.76583965169109,
              282.1982398780762
            ],
            [
              -120.82151277714917,
              38.76580675655463,
              282.1833398780756
            ],
            [
              -120.82158522342256,
              38.765790064106696,
              282.17963987807883
            ],
            [
              -120.82162956405857,
              38.76577484313835,
              282.17723987807807
            ],
            [
              -120.82165352149356,
              38.765763204623056,
              282.1759398780776
            ],
            [
              -120.82172993520018,
              38.765745074804194,
              282.1720398780763
            ],
            [
              -120.82185782907376,
              38.76572859546862,
              282.1657398780786
            ],
            [
              -120.82195247045755,
              38.76572627209212,
              282.1613398780772
            ],
            [
              -120.8220655171249,
              38.76571284021123,
              282.1566398780756
            ],
            [
              -120.82216054192841,
              38.76569333313002,
              282.13113987807594
            ],
            [
              -120.82223616116931,
              38.76567292272167,
              282.107839878077
            ],
            [
              -120.82226723788538,
              38.76566165723686,
              282.0980398780782
            ],
            [
              -120.822302870697,
              38.765654342689565,
              282.08723987807906
            ],
            [
              -120.82236246626532,
              38.76565188231875,
              282.06993987807766
            ],
            [
              -120.82241394761023,
              38.7656535308158,
              282.0552398780772
            ],
            [
              -120.82248503933361,
              38.76566581484071,
              282.03603987807526
            ],
            [
              -120.8226181071512,
              38.76568248085854,
              281.92113987807676
            ],
            [
              -120.82270057598892,
              38.76568632022842,
              281.8247398780756
            ],
            [
              -120.82276089355504,
              38.765683206579645,
              281.7542398780787
            ],
            [
              -120.82294795590613,
              38.76566119247313,
              281.55923987807563
            ],
            [
              -120.82304456664188,
              38.76564624694785,
              281.5473398780761
            ],
            [
              -120.8231098969554,
              38.765632835634804,
              281.53563987807667
            ],
            [
              -120.82312909404396,
              38.76562400726524,
              281.5325398780756
            ],
            [
              -120.8231488815954,
              38.76560772771568,
              281.52983987807914
            ],
            [
              -120.8231890436675,
              38.76556771829519,
              281.5246398780774
            ],
            [
              -120.82322961796326,
              38.76554717175946,
              281.5182398780753
            ],
            [
              -120.82330306115509,
              38.765529651370386,
              281.5052398780754
            ],
            [
              -120.82335651185166,
              38.76551867818502,
              281.4956398780766
            ],
            [
              -120.82339749722023,
              38.76551759537806,
              281.4943398780762
            ],
            [
              -120.82341928212949,
              38.7655253400417,
              281.4943398780762
            ],
            [
              -120.82344265562577,
              38.76553764609681,
              281.4943398780762
            ],
            [
              -120.82347911294355,
              38.76556925608359,
              281.4943398780762
            ],
            [
              -120.8235048682024,
              38.7655884037566,
              281.4943398780762
            ],
            [
              -120.8235636974729,
              38.76562030894804,
              281.49053987807486
            ],
            [
              -120.82364549146733,
              38.76564505545993,
              281.4815398780763
            ],
            [
              -120.82377208457214,
              38.76570617047033,
              281.46573987807545
            ],
            [
              -120.82381057782253,
              38.76573283945033,
              281.4602398780781
            ],
            [
              -120.82383347856606,
              38.76575551237044,
              281.4563398780768
            ],
            [
              -120.8238667894685,
              38.76581464770497,
              281.4483398780785
            ],
            [
              -120.82388345967148,
              38.76586253723576,
              281.4427398780767
            ],
            [
              -120.82388624373432,
              38.76591277718761,
              281.4417398780763
            ],
            [
              -120.82389547713744,
              38.765941971429,
              281.41733987807703
            ],
            [
              -120.82391027228236,
              38.765966987559004,
              281.3729398780755
            ],
            [
              -120.8239511106007,
              38.76602946418006,
              281.2585398780772
            ],
            [
              -120.82397748258155,
              38.76607780516662,
              281.1746398780758
            ],
            [
              -120.82402228916062,
              38.76615168474673,
              281.04243987807604
            ],
            [
              -120.82405798224727,
              38.766217659842006,
              280.9400398780773
            ],
            [
              -120.82409999584817,
              38.76626523308837,
              280.9196398780749
            ],
            [
              -120.82416061973368,
              38.76631142899596,
              280.89593987807586
            ],
            [
              -120.8242440306691,
              38.766377383783095,
              280.8627398780781
            ],
            [
              -120.82430980249848,
              38.76642008021223,
              280.84463987807646
            ],
            [
              -120.82438686248022,
              38.76646779029829,
              280.74703987807493
            ],
            [
              -120.82445404311773,
              38.76654196208018,
              280.6275398780749
            ],
            [
              -120.8245111118232,
              38.766596219530186,
              280.5352398780752
            ],
            [
              -120.82455136188132,
              38.76666614533028,
              280.4366398780777
            ],
            [
              -120.82456050537523,
              38.76671069439114,
              280.38393987807785
            ],
            [
              -120.82457064956522,
              38.76676725423595,
              280.334339878079
            ],
            [
              -120.82462460078071,
              38.766885680836886,
              280.092339878078
            ],
            [
              -120.82465394343495,
              38.76693341296683,
              279.98923987807905
            ],
            [
              -120.82468863680647,
              38.76698737617969,
              279.8715398780752
            ],
            [
              -120.82471839107986,
              38.76705457117274,
              279.78043987807587
            ],
            [
              -120.82474279588179,
              38.76711553418103,
              279.77373987807806
            ],
            [
              -120.82477690138577,
              38.76717694947488,
              279.76653987807566
            ],
            [
              -120.82481277098039,
              38.7672160102347,
              279.76143987807836
            ],
            [
              -120.82483264866872,
              38.76724094840867,
              279.75827288641085
            ],
            [
              -120.82481928384449,
              38.76768089021594,
              279.7084704909035
            ],
            [
              -120.82476978838442,
              38.767637288891315,
              279.71463987807607
            ],
            [
              -120.82461719339248,
              38.76747314039,
              279.7454398780775
            ],
            [
              -120.82455395023575,
              38.767373725239324,
              279.757339878077
            ],
            [
              -120.82453621231863,
              38.76732723589315,
              279.76243987807874
            ],
            [
              -120.82447417567455,
              38.767169233338585,
              279.77973987807565
            ],
            [
              -120.82445194780884,
              38.767105380449394,
              279.8463398780757
            ],
            [
              -120.82442022449447,
              38.767050806670234,
              279.96283987807914
            ],
            [
              -120.82435960730956,
              38.766998237657845,
              280.09753987807534
            ],
            [
              -120.82430336122258,
              38.766982906798255,
              280.1654398780758
            ],
            [
              -120.82424394128033,
              38.766958453178184,
              280.25123987807785
            ],
            [
              -120.82418590262024,
              38.76692882945422,
              280.3821398780772
            ],
            [
              -120.82414191925363,
              38.766893877518726,
              280.4460398780764
            ],
            [
              -120.82407373803734,
              38.766807692967625,
              280.5788398780764
            ],
            [
              -120.82397006993428,
              38.7666652647142,
              280.7928398780769
            ],
            [
              -120.8238739578254,
              38.766562823203586,
              280.88763987807755
            ],
            [
              -120.82374912158052,
              38.76644184449203,
              280.9429398780783
            ],
            [
              -120.82359141531087,
              38.76631783956379,
              281.21813987807707
            ],
            [
              -120.82348127940301,
              38.76625737318979,
              281.3917398780774
            ],
            [
              -120.823423760829,
              38.76622265767185,
              281.4485398780786
            ],
            [
              -120.82338542183604,
              38.7661936818956,
              281.4543398780761
            ],
            [
              -120.82336538205,
              38.76617121087209,
              281.4579398780773
            ],
            [
              -120.82331207760015,
              38.766118623526616,
              281.4670398780759
            ],
            [
              -120.82325977478872,
              38.76607804966726,
              281.47493987807854
            ],
            [
              -120.82318053922691,
              38.766033229533434,
              281.4853398780776
            ],
            [
              -120.82314943458947,
              38.76600784973834,
              281.50373987807484
            ],
            [
              -120.82309971749561,
              38.765983847968606,
              281.5148398780786
            ],
            [
              -120.82302783220875,
              38.76596928408196,
              281.5296398780791
            ],
            [
              -120.82296961772354,
              38.76596657383421,
              281.54103987807844
            ],
            [
              -120.82289952714292,
              38.765966301818686,
              281.59303987807806
            ],
            [
              -120.82282290743152,
              38.76597470005659,
              281.68263987807694
            ],
            [
              -120.82275401979953,
              38.76599617197014,
              281.7632398780773
            ],
            [
              -120.82269801090098,
              38.76602721642817,
              281.828739878077
            ],
            [
              -120.82267466501695,
              38.76605155664856,
              281.8561398780773
            ],
            [
              -120.82264358818018,
              38.76606282314293,
              281.89243987807606
            ],
            [
              -120.82259766414452,
              38.76607713829768,
              281.9461398780763
            ],
            [
              -120.82245412720764,
              38.76609438593187,
              282.0758398780752
            ],
            [
              -120.82231335524,
              38.766101292408266,
              282.11693987807564
            ],
            [
              -120.82205477155641,
              38.766107949169786,
              282.1643398780782
            ],
            [
              -120.82182376908021,
              38.76613750817848,
              282.1755398780775
            ],
            [
              -120.82178391831877,
              38.76614677086605,
              282.1776398780782
            ],
            [
              -120.82157194906041,
              38.7662228377232,
              282.21113987807604
            ],
            [
              -120.82153607688852,
              38.76623985645685,
              282.219939878079
            ],
            [
              -120.8214809737349,
              38.766279813621345,
              282.2349398780751
            ],
            [
              -120.8214324135498,
              38.76630554992738,
              282.2471398780748
            ],
            [
              -120.82134590496963,
              38.7663292070867,
              282.2661398780767
            ],
            [
              -120.82124752668435,
              38.766366504755865,
              282.29613987807784
            ],
            [
              -120.82110775100712,
              38.76643478001263,
              282.3386398780787
            ],
            [
              -120.82103986248157,
              38.76646826262381,
              282.35933987807675
            ],
            [
              -120.8209125833842,
              38.76651393630473,
              282.41393987807726
            ],
            [
              -120.820860923514,
              38.76653920122401,
              282.44363987807833
            ],
            [
              -120.82081323358558,
              38.76657586743456,
              282.47523987807557
            ],
            [
              -120.82076671814023,
              38.76659763212789,
              282.50163987807554
            ],
            [
              -120.82071585353141,
              38.76662517725962,
              282.5317398780767
            ],
            [
              -120.8206044201778,
              38.76667981478213,
              282.5957398780759
            ],
            [
              -120.82051436123622,
              38.76672273451045,
              282.602039878078
            ],
            [
              -120.82046073225786,
              38.76676062047885,
              282.6042398780787
            ],
            [
              -120.82041621537086,
              38.7668064084616,
              282.606339878075
            ],
            [
              -120.82037804865054,
              38.76687044123962,
              282.6086398780758
            ],
            [
              -120.82026628588116,
              38.767015553031996,
              282.6621398780759
            ],
            [
              -120.82021641841726,
              38.767055109643,
              282.7134398780753
            ],
            [
              -120.82017366779536,
              38.76707854489098,
              282.7518398780748
            ],
            [
              -120.82012318540964,
              38.76708890622333,
              282.78803987807805
            ],
            [
              -120.82000993161138,
              38.76709260657053,
              282.85883987807506
            ],
            [
              -120.81996359501153,
              38.7670874568733,
              282.8843398780792
            ],
            [
              -120.81994134557686,
              38.767090643476955,
              282.89953987807536
            ],
            [
              -120.81990817138909,
              38.76711104968864,
              282.93053987807684
            ],
            [
              -120.81987156393598,
              38.76714299729611,
              283.03253987807545
            ],
            [
              -120.81983257731314,
              38.76716810321084,
              283.11413987807606
            ],
            [
              -120.81979417571192,
              38.767185759696744,
              283.1856398780778
            ],
            [
              -120.81974013584257,
              38.767204181533224,
              283.2783398780777
            ],
            [
              -120.819691829075,
              38.76721165292989,
              283.35003987807505
            ],
            [
              -120.81966648554352,
              38.76721196822297,
              283.3831398780772
            ],
            [
              -120.81964469937574,
              38.76720422284437,
              283.4512398780778
            ],
            [
              -120.81961559283488,
              38.767202867338014,
              283.4585398780758
            ],
            [
              -120.81960312442757,
              38.76721275550736,
              283.4655398780781
            ],
            [
              -120.81957721724028,
              38.76725716837284,
              283.4889398780771
            ],
            [
              -120.81953132017354,
              38.76730812695717,
              283.5201398780786
            ],
            [
              -120.81949174362592,
              38.767340683926264,
              283.54273987807727
            ],
            [
              -120.81943514366061,
              38.767379178888156,
              283.56913987807724
            ],
            [
              -120.8193615179347,
              38.76742361179456,
              283.56983987807746
            ],
            [
              -120.81930650505747,
              38.76746666723174,
              283.5707398780778
            ],
            [
              -120.81924772909439,
              38.767508051841666,
              283.5716398780781
            ],
            [
              -120.81918460030974,
              38.7675552158851,
              283.5725398780784
            ],
            [
              -120.81913532045445,
              38.76758732175194,
              283.5733398780786
            ],
            [
              -120.81903855340418,
              38.76766582451975,
              283.57483987807916
            ],
            [
              -120.81899942407966,
              38.76770739447799,
              283.575639878075
            ],
            [
              -120.81895199344078,
              38.767749548463776,
              283.57643987807523
            ],
            [
              -120.81886125145958,
              38.76781461254989,
              283.57753987807564
            ],
            [
              -120.81881805512006,
              38.76784490620119,
              283.5781894879198
            ],
            [
              -120.8188412241207,
              38.767084330427124,
              283.5712869362111
            ],
            [
              -120.81884261136186,
              38.767073452368166,
              283.57113987807793
            ]
          ]
        ]
      }
    }
  ]
}