{
  "type": "FeatureCollection",
  "features": [
    {
      "type": "Feature",
      "id": "chili_bar_bridge_to_salmon_falls_candidate",
      "properties": {
        "axis_id": "chili_bar_imaged_bridge_metric_v2_candidate",
        "station_start_m": 0,
        "station_end_m": 33692.950561243786,
        "authority": "NHD_directed_geometry_clipped_at_orthophoto_bridge",
        "production_promoted": false,
        "removed_upstream_length_m": 15423.171053407646
      },
      "geometry": {
        "type": "LineString",
        "coordinates": [
          [
            -120.82187173035261,
            38.76608755803534
          ],
          [
            -120.82209580000001,
            38.7660493
          ],
          [
            -120.8223747,
            38.7660337
          ],
          [
            -120.82316380000002,
            38.7659897
          ],
          [
            -120.8241623,
            38.766545
          ],
          [
            -120.8249911,
            38.76767339999999
          ],
          [
            -120.8262996,
            38.768055399999994
          ],
          [
            -120.8266419,
            38.7681093
          ],
          [
            -120.8275881,
            38.76825829999999
          ],
          [
            -120.82846529999999,
            38.76863239999999
          ],
          [
            -120.8298536,
            38.7688967
          ],
          [
            -120.8304896,
            38.76912239999999
          ],
          [
            -120.83106089999998,
            38.7693251
          ],
          [
            -120.8318629,
            38.7696097
          ],
          [
            -120.8330803,
            38.77048690000001
          ],
          [
            -120.8335905,
            38.7708481
          ],
          [
            -120.83380100000001,
            38.7709971
          ],
          [
            -120.83459860000002,
            38.7714889
          ],
          [
            -120.83507339999998,
            38.77173619999999
          ],
          [
            -120.83620740000002,
            38.772015499999995
          ],
          [
            -120.83749960000002,
            38.7720991
          ],
          [
            -120.83892239999999,
            38.7720658
          ],
          [
            -120.84022479999999,
            38.77181169999999
          ],
          [
            -120.84114490000002,
            38.77160999999999
          ],
          [
            -120.84231020000001,
            38.7716912
          ],
          [
            -120.84284609999999,
            38.77160169999999
          ],
          [
            -120.84343870000001,
            38.77131459999999
          ],
          [
            -120.8435527,
            38.770899299999996
          ],
          [
            -120.84432649999998,
            38.7704963
          ],
          [
            -120.84573760000002,
            38.7700056
          ],
          [
            -120.84615449999998,
            38.769880099999995
          ],
          [
            -120.84660869999999,
            38.7697434
          ],
          [
            -120.8476029,
            38.7696027
          ],
          [
            -120.84854170000001,
            38.769619999999996
          ],
          [
            -120.84929450000001,
            38.76991209999999
          ],
          [
            -120.8495781,
            38.77061299999999
          ],
          [
            -120.8495173,
            38.770793999999995
          ],
          [
            -120.84929930000001,
            38.77144249999999
          ],
          [
            -120.84840619999999,
            38.7724397
          ],
          [
            -120.84741330000001,
            38.773375300000005
          ],
          [
            -120.8463956,
            38.7742906
          ],
          [
            -120.8460059,
            38.77497000000002
          ],
          [
            -120.8457525,
            38.77541170000001
          ],
          [
            -120.8454658,
            38.7764994
          ],
          [
            -120.84561239999998,
            38.7775356
          ],
          [
            -120.84610940000002,
            38.778737199999995
          ],
          [
            -120.8463137,
            38.7790342
          ],
          [
            -120.8470094,
            38.7800456
          ],
          [
            -120.8479805,
            38.780899399999996
          ],
          [
            -120.84839470000001,
            38.781263599999996
          ],
          [
            -120.849439,
            38.78199829999999
          ],
          [
            -120.8502874,
            38.7824909
          ],
          [
            -120.8513975,
            38.78273
          ],
          [
            -120.85327490000002,
            38.782784299999996
          ],
          [
            -120.85441869999998,
            38.782776000000005
          ],
          [
            -120.8548241,
            38.7827731
          ],
          [
            -120.85593529999998,
            38.78297229999999
          ],
          [
            -120.85603330000002,
            38.7830059
          ],
          [
            -120.8569155,
            38.7833084
          ],
          [
            -120.8569477,
            38.7833282
          ],
          [
            -120.85751390000001,
            38.783677100000006
          ],
          [
            -120.8576093,
            38.78473209999999
          ],
          [
            -120.85759049999999,
            38.7849435
          ],
          [
            -120.8574944,
            38.7860218
          ],
          [
            -120.85763759999999,
            38.78640279999999
          ],
          [
            -120.8576825,
            38.78652219999999
          ],
          [
            -120.85807919999999,
            38.786847400000006
          ],
          [
            -120.8583989,
            38.78719120000001
          ],
          [
            -120.8587169,
            38.78759449999999
          ],
          [
            -120.859467,
            38.787985799999994
          ],
          [
            -120.86064740000002,
            38.788424799999994
          ],
          [
            -120.86188510000001,
            38.7886463
          ],
          [
            -120.8625003,
            38.788766599999995
          ],
          [
            -120.8636775,
            38.788996999999995
          ],
          [
            -120.86529360000002,
            38.789304800000004
          ],
          [
            -120.8659499,
            38.789433
          ],
          [
            -120.86630340000002,
            38.7895021
          ],
          [
            -120.86763430000002,
            38.7900034
          ],
          [
            -120.8694488,
            38.790473799999994
          ],
          [
            -120.8699525,
            38.79052949999999
          ],
          [
            -120.8703093,
            38.79056899999999
          ],
          [
            -120.8710371,
            38.790448899999994
          ],
          [
            -120.87117700000002,
            38.79042579999999
          ],
          [
            -120.8716282,
            38.790357699999994
          ],
          [
            -120.8717637,
            38.790337199999996
          ],
          [
            -120.87330600000001,
            38.7905639
          ],
          [
            -120.87500480000001,
            38.790764
          ],
          [
            -120.8758273,
            38.7908385
          ],
          [
            -120.87604859999999,
            38.791042100000006
          ],
          [
            -120.87647289999998,
            38.79114739999999
          ],
          [
            -120.87669060000002,
            38.7912887
          ],
          [
            -120.8771975,
            38.79161760000001
          ],
          [
            -120.87806179999998,
            38.7920096
          ],
          [
            -120.87862700000001,
            38.79226520000001
          ],
          [
            -120.87895999999999,
            38.79241570000001
          ],
          [
            -120.87966809999999,
            38.7928587
          ],
          [
            -120.88047699999998,
            38.79338409999999
          ],
          [
            -120.88069380000002,
            38.7937084
          ],
          [
            -120.88090459999998,
            38.7940237
          ],
          [
            -120.8813195,
            38.795093099999995
          ],
          [
            -120.8814146,
            38.795941600000006
          ],
          [
            -120.88137550000002,
            38.7961248
          ],
          [
            -120.8812949,
            38.796503900000005
          ],
          [
            -120.88140070000001,
            38.79698969999999
          ],
          [
            -120.88137799999998,
            38.7972159
          ],
          [
            -120.88138519999998,
            38.7976156
          ],
          [
            -120.88144940000001,
            38.797894
          ],
          [
            -120.8814708,
            38.7979868
          ],
          [
            -120.881586,
            38.79827
          ],
          [
            -120.88184800000002,
            38.79870489999999
          ],
          [
            -120.88190300000001,
            38.7987636
          ],
          [
            -120.8822976,
            38.7991835
          ],
          [
            -120.88286900000001,
            38.79961059999999
          ],
          [
            -120.8836547,
            38.7997592
          ],
          [
            -120.88476300000002,
            38.8000347
          ],
          [
            -120.8855795,
            38.80030479999999
          ],
          [
            -120.88634729999998,
            38.80047999999999
          ],
          [
            -120.8884499,
            38.80082719999999
          ],
          [
            -120.8889101,
            38.80094309999999
          ],
          [
            -120.8896866,
            38.8011184
          ],
          [
            -120.890672,
            38.80148570000001
          ],
          [
            -120.8915905,
            38.8023759
          ],
          [
            -120.89214649999998,
            38.803326799999994
          ],
          [
            -120.8923284,
            38.804150099999994
          ],
          [
            -120.89254930000001,
            38.80481269999999
          ],
          [
            -120.8927828,
            38.80503229999999
          ],
          [
            -120.89311760000001,
            38.80534719999999
          ],
          [
            -120.8939638,
            38.8057791
          ],
          [
            -120.89407920000001,
            38.805942399999985
          ],
          [
            -120.89467049999999,
            38.806571399999996
          ],
          [
            -120.8954293,
            38.80705559999999
          ],
          [
            -120.89597809999998,
            38.807670300000005
          ],
          [
            -120.89608780000002,
            38.80861320000001
          ],
          [
            -120.8961812,
            38.808816500000006
          ],
          [
            -120.89657929999998,
            38.80968340000001
          ],
          [
            -120.89647990000002,
            38.809902599999994
          ],
          [
            -120.89645020000002,
            38.8101287
          ],
          [
            -120.89669410000002,
            38.810432
          ],
          [
            -120.8968845,
            38.81068779999999
          ],
          [
            -120.897057,
            38.81096740000001
          ],
          [
            -120.8976736,
            38.81163909999999
          ],
          [
            -120.89801250000001,
            38.8123845
          ],
          [
            -120.89818439999999,
            38.8129656
          ],
          [
            -120.8982415,
            38.8129991
          ],
          [
            -120.8991302,
            38.8135203
          ],
          [
            -120.89996449999998,
            38.813777200000004
          ],
          [
            -120.901117,
            38.813730699999994
          ],
          [
            -120.9014949,
            38.8138133
          ],
          [
            -120.9019876,
            38.813921099999995
          ],
          [
            -120.9030623,
            38.81418229999999
          ],
          [
            -120.9040582,
            38.814200299999996
          ],
          [
            -120.90441020000002,
            38.81406719999999
          ],
          [
            -120.9048052,
            38.8139179
          ],
          [
            -120.90560979999998,
            38.813551
          ],
          [
            -120.90579780000002,
            38.81346529999999
          ],
          [
            -120.90627280000001,
            38.813083999999996
          ],
          [
            -120.90634140000002,
            38.8127787
          ],
          [
            -120.90641109999999,
            38.81246809999999
          ],
          [
            -120.9057479,
            38.8116498
          ],
          [
            -120.9049259,
            38.8109764
          ],
          [
            -120.9038013,
            38.8106605
          ],
          [
            -120.9033431,
            38.8104642
          ],
          [
            -120.9029654,
            38.8104574
          ],
          [
            -120.9025253,
            38.81023439999999
          ],
          [
            -120.9021226,
            38.80990460000001
          ],
          [
            -120.90181020000001,
            38.8094285
          ],
          [
            -120.90146660000002,
            38.80884439999999
          ],
          [
            -120.9011514,
            38.808462399999996
          ],
          [
            -120.90119810000002,
            38.8080465
          ],
          [
            -120.9011587,
            38.80762910000001
          ],
          [
            -120.9011314,
            38.80715290000001
          ],
          [
            -120.90111920000001,
            38.8069879
          ],
          [
            -120.90121919999999,
            38.806743
          ],
          [
            -120.90220710000001,
            38.805860299999985
          ],
          [
            -120.9030236,
            38.8052567
          ],
          [
            -120.90387410000001,
            38.80491209999999
          ],
          [
            -120.90394489999998,
            38.8048833
          ],
          [
            -120.9046677,
            38.8048426
          ],
          [
            -120.9053903,
            38.80480179999999
          ],
          [
            -120.90582159999998,
            38.804742299999994
          ],
          [
            -120.9061664,
            38.80469479999999
          ],
          [
            -120.906527,
            38.8047012
          ],
          [
            -120.9067363,
            38.8046062
          ],
          [
            -120.90684040000001,
            38.804559
          ],
          [
            -120.90734299999998,
            38.8044067
          ],
          [
            -120.9082897,
            38.804342899999995
          ],
          [
            -120.9093035,
            38.80433419999999
          ],
          [
            -120.90983880000002,
            38.804236299999985
          ],
          [
            -120.9104117,
            38.804031499999994
          ],
          [
            -120.9107094,
            38.8038352
          ],
          [
            -120.91072000000001,
            38.8034725
          ],
          [
            -120.91072939999998,
            38.80315
          ],
          [
            -120.9108135,
            38.80262739999999
          ],
          [
            -120.91088530000002,
            38.80252109999999
          ],
          [
            -120.9110777,
            38.8024036
          ],
          [
            -120.91125290000001,
            38.802285700000006
          ],
          [
            -120.9115882,
            38.8017004
          ],
          [
            -120.91231130000001,
            38.8009008
          ],
          [
            -120.9128159,
            38.80062710000001
          ],
          [
            -120.9133361,
            38.800603499999994
          ],
          [
            -120.9136523,
            38.8005891
          ],
          [
            -120.91495880000001,
            38.800683099999986
          ],
          [
            -120.915811,
            38.80087499999999
          ],
          [
            -120.91639559999999,
            38.800955999999985
          ],
          [
            -120.91688789999999,
            38.8011062
          ],
          [
            -120.91704059999999,
            38.801285500000006
          ],
          [
            -120.91712370000002,
            38.80153429999999
          ],
          [
            -120.9172702,
            38.8019256
          ],
          [
            -120.9173908,
            38.802439899999996
          ],
          [
            -120.91750300000001,
            38.8032368
          ],
          [
            -120.9176204,
            38.803857100000016
          ],
          [
            -120.91771929999999,
            38.8043358
          ],
          [
            -120.91771000000001,
            38.80465360000001
          ],
          [
            -120.91715669999999,
            38.80505000000001
          ],
          [
            -120.9168781,
            38.805310099999986
          ],
          [
            -120.91691250000001,
            38.80568159999999
          ],
          [
            -120.91710270000002,
            38.8061266
          ],
          [
            -120.9173852,
            38.8065026
          ],
          [
            -120.9178293,
            38.8067578
          ],
          [
            -120.9186616,
            38.806860900000004
          ],
          [
            -120.91964730000001,
            38.8071258
          ],
          [
            -120.92026109999999,
            38.80775500000001
          ],
          [
            -120.9207503,
            38.808011
          ],
          [
            -120.9209667,
            38.808158799999994
          ],
          [
            -120.9211488,
            38.808283100000004
          ],
          [
            -120.9212,
            38.80884919999999
          ],
          [
            -120.9212528,
            38.80936239999999
          ],
          [
            -120.92171329999998,
            38.8098299
          ],
          [
            -120.9224025,
            38.81019539999999
          ],
          [
            -120.92300510000001,
            38.8104358
          ],
          [
            -120.9234913,
            38.8107977
          ],
          [
            -120.9239513,
            38.8112828
          ],
          [
            -120.9246144,
            38.81177149999999
          ],
          [
            -120.9255299,
            38.8121234
          ],
          [
            -120.9266458,
            38.81256719999999
          ],
          [
            -120.92737829999999,
            38.81300409999999
          ],
          [
            -120.9276953,
            38.8134396
          ],
          [
            -120.92796450000002,
            38.81380939999998
          ],
          [
            -120.9281681,
            38.814572599999984
          ],
          [
            -120.9282692,
            38.81498070000001
          ],
          [
            -120.9289109,
            38.81543369999999
          ],
          [
            -120.92926059999999,
            38.81582850000001
          ],
          [
            -120.92943259999998,
            38.8161013
          ],
          [
            -120.9295197,
            38.8162394
          ],
          [
            -120.9296484,
            38.8164712
          ],
          [
            -120.9298936,
            38.81658159999999
          ],
          [
            -120.9303198,
            38.816677500000004
          ],
          [
            -120.9308732,
            38.817058200000005
          ],
          [
            -120.9315196,
            38.817352299999996
          ],
          [
            -120.93221250000002,
            38.817594199999995
          ],
          [
            -120.9328203,
            38.81765790000001
          ],
          [
            -120.9334497,
            38.8177574
          ],
          [
            -120.93406,
            38.81773290000001
          ],
          [
            -120.9355568,
            38.81729180000001
          ],
          [
            -120.9356996,
            38.8172496
          ],
          [
            -120.93635560000001,
            38.81720819999999
          ],
          [
            -120.9371619,
            38.81743449999999
          ],
          [
            -120.93745900000002,
            38.8178772
          ],
          [
            -120.93751850000001,
            38.81803190000001
          ],
          [
            -120.93758389999999,
            38.818138999999995
          ],
          [
            -120.93762559999999,
            38.8182103
          ],
          [
            -120.93768509999998,
            38.81830550000001
          ],
          [
            -120.937804,
            38.8183947
          ],
          [
            -120.93792299999998,
            38.8184483
          ],
          [
            -120.9380598,
            38.818472099999994
          ],
          [
            -120.9381715,
            38.81844149999999
          ],
          [
            -120.93864090000001,
            38.8186087
          ],
          [
            -120.9395585,
            38.8188899
          ],
          [
            -120.93995410000001,
            38.819267800000006
          ],
          [
            -120.93989209999998,
            38.81984959999999
          ],
          [
            -120.9399948,
            38.82020469999999
          ],
          [
            -120.94005540000002,
            38.8204531
          ],
          [
            -120.93910820000002,
            38.82119599999999
          ],
          [
            -120.93873839999999,
            38.8214897
          ],
          [
            -120.93812820000001,
            38.82229149999999
          ],
          [
            -120.9376974,
            38.82274309999999
          ],
          [
            -120.93766160000001,
            38.8232018
          ],
          [
            -120.93780980000001,
            38.82354
          ],
          [
            -120.93788990000002,
            38.823894700000004
          ],
          [
            -120.9381532,
            38.8241644
          ],
          [
            -120.938425,
            38.82427670000001
          ],
          [
            -120.9388226,
            38.824441099999994
          ],
          [
            -120.93987670000001,
            38.8246894
          ],
          [
            -120.94091239999999,
            38.8247959
          ],
          [
            -120.94140380000002,
            38.82498129999999
          ],
          [
            -120.9416937,
            38.82511
          ],
          [
            -120.9429632,
            38.8249381
          ],
          [
            -120.94426090000002,
            38.82457239999999
          ],
          [
            -120.9451914,
            38.824412
          ],
          [
            -120.9453995,
            38.82427680000001
          ],
          [
            -120.94572059999999,
            38.82406809999999
          ],
          [
            -120.9462184,
            38.823246600000004
          ],
          [
            -120.9465233,
            38.82206849999999
          ],
          [
            -120.9466526,
            38.8207106
          ],
          [
            -120.94694,
            38.81935549999999
          ],
          [
            -120.94734400000002,
            38.818656
          ],
          [
            -120.9476465,
            38.81854939999999
          ],
          [
            -120.9478686,
            38.818471
          ],
          [
            -120.9484569,
            38.81842840000001
          ],
          [
            -120.94909379999999,
            38.81826279999999
          ],
          [
            -120.949636,
            38.81825469999998
          ],
          [
            -120.950672,
            38.8183436
          ],
          [
            -120.95114340000002,
            38.81844019999999
          ],
          [
            -120.9515492,
            38.818464999999996
          ],
          [
            -120.9523531,
            38.81877939999999
          ],
          [
            -120.952822,
            38.818964199999996
          ],
          [
            -120.95363130000001,
            38.8190844
          ],
          [
            -120.9543044,
            38.8192375
          ],
          [
            -120.9548841,
            38.8194949
          ],
          [
            -120.95539960000002,
            38.8196277
          ],
          [
            -120.9558249,
            38.819758699999994
          ],
          [
            -120.9569883,
            38.82013239999999
          ],
          [
            -120.9574357,
            38.82028150000001
          ],
          [
            -120.9579262,
            38.82050210000001
          ],
          [
            -120.958551,
            38.820760299999996
          ],
          [
            -120.95881570000002,
            38.8207151
          ],
          [
            -120.95920910000001,
            38.8206481
          ],
          [
            -120.9599824,
            38.8204497
          ],
          [
            -120.9606516,
            38.8199491
          ],
          [
            -120.96105390000001,
            38.8197308
          ],
          [
            -120.96115620000002,
            38.81967530000001
          ],
          [
            -120.9615594,
            38.8189934
          ],
          [
            -120.96254650000002,
            38.81842780000001
          ],
          [
            -120.96310519999999,
            38.8181272
          ],
          [
            -120.9635326,
            38.81789729999999
          ],
          [
            -120.9644202,
            38.81764789999999
          ],
          [
            -120.9655583,
            38.817332099999994
          ],
          [
            -120.9665227,
            38.816766
          ],
          [
            -120.96698660000001,
            38.8163325
          ],
          [
            -120.9676691,
            38.81615000000001
          ],
          [
            -120.9680809,
            38.815962899999995
          ],
          [
            -120.96794550000001,
            38.81516559999999
          ],
          [
            -120.96781640000002,
            38.814755899999994
          ],
          [
            -120.96773840000002,
            38.81450840000001
          ],
          [
            -120.9675604,
            38.8136221
          ],
          [
            -120.9672179,
            38.8129626
          ],
          [
            -120.9669835,
            38.8120753
          ],
          [
            -120.96676630000002,
            38.81177129999998
          ],
          [
            -120.9667303,
            38.81145269999998
          ],
          [
            -120.96662749999999,
            38.81109759999999
          ],
          [
            -120.9664375,
            38.810635000000005
          ],
          [
            -120.9663869,
            38.8100336
          ],
          [
            -120.96692150000001,
            38.8094952
          ],
          [
            -120.9672985,
            38.80917780000001
          ],
          [
            -120.96747659999998,
            38.80902799999999
          ],
          [
            -120.9677093,
            38.8088355
          ],
          [
            -120.9679159,
            38.80866459999999
          ],
          [
            -120.96841659999998,
            38.8081258
          ],
          [
            -120.9684697,
            38.8078441
          ],
          [
            -120.9687997,
            38.807355199999996
          ],
          [
            -120.96915180000002,
            38.806884399999994
          ],
          [
            -120.969362,
            38.80656119999999
          ],
          [
            -120.96945859999998,
            38.8064128
          ],
          [
            -120.96998560000002,
            38.80613929999999
          ],
          [
            -120.9705096,
            38.8059718
          ],
          [
            -120.97091630000001,
            38.80596119999999
          ],
          [
            -120.971053,
            38.80592959999999
          ],
          [
            -120.9714844,
            38.8058298
          ],
          [
            -120.97222800000002,
            38.805878099999994
          ],
          [
            -120.9730595,
            38.806016099999994
          ],
          [
            -120.9733667,
            38.8059872
          ],
          [
            -120.9738516,
            38.8059416
          ],
          [
            -120.9744378,
            38.8059694
          ],
          [
            -120.97515689999999,
            38.8060878
          ],
          [
            -120.9758303,
            38.80622309999999
          ],
          [
            -120.97655649999999,
            38.8060944
          ],
          [
            -120.9770103,
            38.80601399999999
          ],
          [
            -120.9775077,
            38.805987300000005
          ],
          [
            -120.97811990000001,
            38.80589189999999
          ],
          [
            -120.9784207,
            38.805865799999985
          ],
          [
            -120.9784594,
            38.8058625
          ],
          [
            -120.9791468,
            38.80550339999999
          ],
          [
            -120.9794476,
            38.8052436
          ],
          [
            -120.9798416,
            38.80487949999999
          ],
          [
            -120.9800537,
            38.8045651
          ],
          [
            -120.98009670000002,
            38.80384170000001
          ],
          [
            -120.98017590000002,
            38.8034368
          ],
          [
            -120.9806466,
            38.802755999999995
          ],
          [
            -120.9807774,
            38.80212240000001
          ],
          [
            -120.9810376,
            38.80170300000001
          ],
          [
            -120.9810726,
            38.80126199999999
          ],
          [
            -120.98136530000001,
            38.800489799999994
          ],
          [
            -120.98157020000001,
            38.7996278
          ],
          [
            -120.9817717,
            38.798889300000006
          ],
          [
            -120.98167219999999,
            38.798410700000005
          ],
          [
            -120.98197109999998,
            38.798221500000004
          ],
          [
            -120.98200460000001,
            38.7978335
          ],
          [
            -120.981574,
            38.7970316
          ],
          [
            -120.9814685,
            38.79683500000001
          ],
          [
            -120.98102260000002,
            38.795838200000006
          ],
          [
            -120.9808811,
            38.795252699999985
          ],
          [
            -120.98088070000001,
            38.79524279999999
          ],
          [
            -120.98085350000001,
            38.794633999999995
          ],
          [
            -120.98155070000001,
            38.79392179999999
          ],
          [
            -120.9819412,
            38.7936813
          ],
          [
            -120.9825067,
            38.79363800000001
          ],
          [
            -120.9829379,
            38.793557199999995
          ],
          [
            -120.98317300000001,
            38.79322559999999
          ],
          [
            -120.9833498,
            38.7925575
          ],
          [
            -120.983358,
            38.7924177
          ],
          [
            -120.9833773,
            38.792087099999996
          ],
          [
            -120.98339320000001,
            38.79181630000001
          ],
          [
            -120.9831214,
            38.791052
          ],
          [
            -120.9825964,
            38.79046009999999
          ],
          [
            -120.9825916,
            38.790404299999985
          ],
          [
            -120.9825281,
            38.78968160000001
          ],
          [
            -120.98217449999999,
            38.78861559999999
          ],
          [
            -120.9818485,
            38.788168399999996
          ],
          [
            -120.9814249,
            38.7879845
          ],
          [
            -120.9812744,
            38.7877169
          ],
          [
            -120.9812157,
            38.78739799999999
          ],
          [
            -120.9813012,
            38.7859686
          ],
          [
            -120.98125000000002,
            38.7853848
          ],
          [
            -120.9812709,
            38.7846432
          ],
          [
            -120.98133,
            38.7841497
          ],
          [
            -120.98140960000002,
            38.7837271
          ],
          [
            -120.9814342,
            38.7836569
          ],
          [
            -120.9814725,
            38.7836211
          ],
          [
            -120.98152690000002,
            38.7835701
          ],
          [
            -120.9817324,
            38.7834854
          ],
          [
            -120.98200560000001,
            38.7834018
          ],
          [
            -120.9822667,
            38.782947
          ],
          [
            -120.98282250000001,
            38.7824444
          ],
          [
            -120.98326060000001,
            38.78211629999999
          ],
          [
            -120.9837467,
            38.7816831
          ],
          [
            -120.98393310000002,
            38.78147429999999
          ],
          [
            -120.9839797,
            38.78142209999999
          ],
          [
            -120.9843275,
            38.7810926
          ],
          [
            -120.9845826,
            38.7808496
          ],
          [
            -120.9851781,
            38.780541899999996
          ],
          [
            -120.98563559999998,
            38.78032019999999
          ],
          [
            -120.98591270000001,
            38.78009529999999
          ],
          [
            -120.9863357,
            38.7795021
          ],
          [
            -120.9867772,
            38.7790504
          ],
          [
            -120.9872157,
            38.77870469999999
          ],
          [
            -120.9877424,
            38.77843109999999
          ],
          [
            -120.98835979999998,
            38.77814149999999
          ],
          [
            -120.98895320000001,
            38.77790439999998
          ],
          [
            -120.9895663,
            38.777773599999996
          ],
          [
            -120.99026789999999,
            38.7776974
          ],
          [
            -120.9908363,
            38.7775481
          ],
          [
            -120.9916788,
            38.7772801
          ],
          [
            -120.991998,
            38.77716180000001
          ],
          [
            -120.99255079999999,
            38.776765000000005
          ],
          [
            -120.9929416,
            38.77650690000001
          ],
          [
            -120.9931717,
            38.776351800000015
          ],
          [
            -120.9931711,
            38.776347799999996
          ],
          [
            -120.99313400000001,
            38.776086199999995
          ],
          [
            -120.9932291,
            38.775911199999996
          ],
          [
            -120.9933778,
            38.77559599999999
          ],
          [
            -120.99357410000002,
            38.77535209999999
          ],
          [
            -120.9937645,
            38.775209300000014
          ],
          [
            -120.99387750000001,
            38.7750666
          ],
          [
            -120.99402030000002,
            38.7749059
          ],
          [
            -120.9942106,
            38.774703699999996
          ],
          [
            -120.99453189999998,
            38.77446569999999
          ],
          [
            -120.99482340000002,
            38.774346800000004
          ],
          [
            -120.9950961,
            38.774281099999996
          ],
          [
            -120.99532630000002,
            38.77413750000001
          ],
          [
            -120.995546,
            38.773937800000006
          ],
          [
            -120.9960165,
            38.7736399
          ],
          [
            -120.9961521,
            38.773539899999996
          ],
          [
            -120.99661610000001,
            38.77331149999999
          ],
          [
            -120.9973462,
            38.77299909999999
          ],
          [
            -120.9981212,
            38.7726292
          ],
          [
            -120.99839049999999,
            38.7725221
          ],
          [
            -120.99841320000002,
            38.7725131
          ],
          [
            -120.99861300000002,
            38.77243360000001
          ],
          [
            -120.99898720000002,
            38.77228490000001
          ],
          [
            -120.9992316,
            38.7721564
          ],
          [
            -120.9993314,
            38.7719786
          ],
          [
            -120.9993885,
            38.771850099999995
          ],
          [
            -120.9995455,
            38.77137539999999
          ],
          [
            -120.9995634,
            38.771250499999994
          ],
          [
            -120.9995741,
            38.77104709999999
          ],
          [
            -120.9995991,
            38.770936400000004
          ],
          [
            -120.99961690000002,
            38.7707401
          ],
          [
            -120.99965260000002,
            38.770586599999994
          ],
          [
            -120.9997026,
            38.7704225
          ],
          [
            -120.9997668,
            38.7700905
          ],
          [
            -120.9998132,
            38.7700013
          ],
          [
            -120.9999132,
            38.76990140000001
          ],
          [
            -120.9999846,
            38.76982999999999
          ],
          [
            -121.0001809,
            38.769580099999985
          ],
          [
            -121.0003807,
            38.76930529999999
          ],
          [
            -121.00045079999998,
            38.7691942
          ],
          [
            -121.0005271,
            38.769073299999995
          ],
          [
            -121.0005306,
            38.768991199999995
          ],
          [
            -121.00058060000002,
            38.768887699999986
          ],
          [
            -121.0006591,
            38.76875209999999
          ],
          [
            -121.0007377,
            38.768637899999995
          ],
          [
            -121.0008412,
            38.7685165
          ],
          [
            -121.0009375,
            38.768409399999996
          ],
          [
            -121.00113030000001,
            38.7682488
          ],
          [
            -121.0014389,
            38.76792809999999
          ],
          [
            -121.0019771,
            38.767471099999995
          ],
          [
            -121.00354669999999,
            38.7664559
          ],
          [
            -121.0047257,
            38.765625899999996
          ],
          [
            -121.0053331,
            38.765197499999985
          ],
          [
            -121.0059429,
            38.76468679999999
          ],
          [
            -121.0067991,
            38.7641256
          ],
          [
            -121.00725970000002,
            38.7639414
          ],
          [
            -121.00763900000001,
            38.763825200000014
          ],
          [
            -121.0076836,
            38.76381159999999
          ],
          [
            -121.00803900000001,
            38.7636257
          ],
          [
            -121.00837320000001,
            38.7629457
          ],
          [
            -121.00869969999998,
            38.76254000000001
          ],
          [
            -121.0096823,
            38.76247450000001
          ],
          [
            -121.0105194,
            38.76259850000001
          ],
          [
            -121.0108233,
            38.7627288
          ],
          [
            -121.01138480000002,
            38.7629696
          ],
          [
            -121.0118689,
            38.7631973
          ],
          [
            -121.01213679999998,
            38.7636407
          ],
          [
            -121.0121566,
            38.7641895
          ],
          [
            -121.01214740000002,
            38.76451840000001
          ],
          [
            -121.0121459,
            38.76457320000001
          ],
          [
            -121.0123834,
            38.764851500000006
          ],
          [
            -121.0127975,
            38.76507790000001
          ],
          [
            -121.0129634,
            38.7654098
          ],
          [
            -121.0131224,
            38.7659885
          ],
          [
            -121.0133165,
            38.7665676
          ],
          [
            -121.0136141,
            38.7672034
          ],
          [
            -121.01368330000001,
            38.7674856
          ],
          [
            -121.01370849999999,
            38.767588999999994
          ],
          [
            -121.0139018,
            38.76819559999999
          ],
          [
            -121.0140678,
            38.76852749999999
          ],
          [
            -121.01409379999998,
            38.76885709999999
          ],
          [
            -121.01422310000001,
            38.76924320000001
          ],
          [
            -121.0142734,
            38.7699571
          ],
          [
            -121.0143297,
            38.770451599999994
          ],
          [
            -121.01434339999999,
            38.77121970000001
          ],
          [
            -121.01436170000001,
            38.77182339999999
          ],
          [
            -121.01448500000001,
            38.7724287
          ],
          [
            -121.01463730000002,
            38.773254099999996
          ],
          [
            -121.01476520000001,
            38.77369509999999
          ],
          [
            -121.0148932,
            38.774136
          ],
          [
            -121.01523560000001,
            38.774416099999996
          ],
          [
            -121.0157578,
            38.77453460000001
          ],
          [
            -121.01609240000002,
            38.774730399999996
          ],
          [
            -121.01624049999998,
            38.774817099999986
          ],
          [
            -121.0169324,
            38.7751305
          ],
          [
            -121.0177668,
            38.77536409999999
          ],
          [
            -121.0184056,
            38.77545849999999
          ],
          [
            -121.0185448,
            38.7754791
          ],
          [
            -121.0186041,
            38.7754879
          ],
          [
            -121.01930220000001,
            38.775582
          ],
          [
            -121.0200748,
            38.7755129
          ],
          [
            -121.0209875,
            38.77544610000001
          ],
          [
            -121.0216909,
            38.7753483
          ],
          [
            -121.02236150000002,
            38.77516769999999
          ],
          [
            -121.0228973,
            38.774792899999994
          ],
          [
            -121.02396600000002,
            38.7741527
          ],
          [
            -121.02493120000001,
            38.773456
          ],
          [
            -121.025505,
            38.77297209999999
          ],
          [
            -121.0262175,
            38.7725454
          ],
          [
            -121.02695799999998,
            38.772365999999984
          ],
          [
            -121.0281516,
            38.7722764
          ],
          [
            -121.0288496,
            38.7723705
          ],
          [
            -121.02962000000001,
            38.77238349999999
          ],
          [
            -121.03011470000001,
            38.772227300000004
          ],
          [
            -121.03071450000002,
            38.7720729
          ],
          [
            -121.03159210000001,
            38.77200539999999
          ],
          [
            -121.03222240000001,
            38.772015999999994
          ],
          [
            -121.03285340000001,
            38.77199920000001
          ],
          [
            -121.0332385,
            38.77200569999999
          ],
          [
            -121.03337870000001,
            38.772008
          ],
          [
            -121.03435350000001,
            38.7720453
          ],
          [
            -121.0352404,
            38.7722349
          ],
          [
            -121.0352631,
            38.7722464
          ],
          [
            -121.03599070000001,
            38.7726176
          ],
          [
            -121.0364033,
            38.77282809999999
          ],
          [
            -121.03817730000002,
            38.773207199999995
          ],
          [
            -121.0391202,
            38.7731684
          ],
          [
            -121.03990000000002,
            38.7731363
          ],
          [
            -121.04123570000002,
            38.7732336
          ],
          [
            -121.0430303,
            38.772864500000004
          ],
          [
            -121.04335300000001,
            38.77279570000002
          ]
        ]
      }
    },
    {
      "type": "Feature",
      "properties": {
        "label": "Chili Bar Hole",
        "station_m": 0.0,
        "authority": "approximate_guide_mile_from_corrected_origin_not_verified_rapid",
        "published_river_mile_alias": 0.0,
        "production_promoted": false
      },
      "geometry": {
        "type": "Point",
        "coordinates": [
          -120.82187173035261,
          38.76608755803534
        ]
      }
    },
    {
      "type": "Feature",
      "properties": {
        "label": "Meat Grinder",
        "station_m": 965.6064,
        "authority": "approximate_guide_mile_from_corrected_origin_not_verified_rapid",
        "published_river_mile_alias": 0.6,
        "production_promoted": false
      },
      "geometry": {
        "type": "Point",
        "coordinates": [
          -120.83147864584197,
          38.76947334343459
        ]
      }
    },
    {
      "type": "Feature",
      "properties": {
        "label": "Racehorse Bend",
        "station_m": 2092.1472000000003,
        "authority": "approximate_guide_mile_from_corrected_origin_not_verified_rapid",
        "published_river_mile_alias": 1.3,
        "production_promoted": false
      },
      "geometry": {
        "type": "Point",
        "coordinates": [
          -120.84318995821556,
          38.77143510988413
        ]
      }
    },
    {
      "type": "Feature",
      "properties": {
        "label": "Maya",
        "station_m": 2414.016,
        "authority": "approximate_guide_mile_from_corrected_origin_not_verified_rapid",
        "published_river_mile_alias": 1.5,
        "production_promoted": false
      },
      "geometry": {
        "type": "Point",
        "coordinates": [
          -120.84610625708918,
          38.76989462273209
        ]
      }
    },
    {
      "type": "Feature",
      "properties": {
        "label": "Rock Garden",
        "station_m": 2735.8848,
        "authority": "approximate_guide_mile_from_corrected_origin_not_verified_rapid",
        "published_river_mile_alias": 1.7,
        "production_promoted": false
      },
      "geometry": {
        "type": "Point",
        "coordinates": [
          -120.84940793532242,
          38.7701924500745
        ]
      }
    },
    {
      "type": "Feature",
      "properties": {
        "label": "African Queen",
        "station_m": 3218.688,
        "authority": "approximate_guide_mile_from_corrected_origin_not_verified_rapid",
        "published_river_mile_alias": 2.0,
        "production_promoted": false
      },
      "geometry": {
        "type": "Point",
        "coordinates": [
          -120.84689674940444,
          38.77383987992846
        ]
      }
    },
    {
      "type": "Feature",
      "properties": {
        "label": "Triple Threat",
        "station_m": 4988.9664,
        "authority": "approximate_guide_mile_from_corrected_origin_not_verified_rapid",
        "published_river_mile_alias": 3.1,
        "production_promoted": false
      },
      "geometry": {
        "type": "Point",
        "coordinates": [
          -120.85726375895158,
          38.78352296049092
        ]
      }
    },
    {
      "type": "Feature",
      "properties": {
        "label": "Troublemaker",
        "station_m": 8331.567170562725,
        "authority": "orthophoto_crux_candidate_not_exact_hole_lip",
        "published_river_mile_alias": 5.2,
        "production_promoted": false
      },
      "geometry": {
        "type": "Point",
        "coordinates": [
          -120.88338395276332,
          38.79970799404425
        ]
      }
    },
    {
      "type": "Feature",
      "properties": {
        "label": "Fowler's Rock",
        "station_m": 25427.6352,
        "authority": "approximate_guide_mile_from_corrected_origin_not_verified_rapid",
        "published_river_mile_alias": 15.8,
        "production_promoted": false
      },
      "geometry": {
        "type": "Point",
        "coordinates": [
          -120.98192778596461,
          38.78827716341329
        ]
      }
    },
    {
      "type": "Feature",
      "properties": {
        "label": "Upper Haystack Canyon",
        "station_m": 26071.3728,
        "authority": "approximate_guide_mile_from_corrected_origin_not_verified_rapid",
        "published_river_mile_alias": 16.2,
        "production_promoted": false
      },
      "geometry": {
        "type": "Point",
        "coordinates": [
          -120.98221610883631,
          38.78303512331354
        ]
      }
    },
    {
      "type": "Feature",
      "properties": {
        "label": "Lost Hat",
        "station_m": 26876.0448,
        "authority": "approximate_guide_mile_from_corrected_origin_not_verified_rapid",
        "published_river_mile_alias": 16.7,
        "production_promoted": false
      },
      "geometry": {
        "type": "Point",
        "coordinates": [
          -120.98869009266718,
          38.77800952822711
        ]
      }
    },
    {
      "type": "Feature",
      "properties": {
        "label": "Satan's Cesspool",
        "station_m": 27197.9136,
        "authority": "approximate_guide_mile_from_corrected_origin_not_verified_rapid",
        "published_river_mile_alias": 16.9,
        "production_promoted": false
      },
      "geometry": {
        "type": "Point",
        "coordinates": [
          -120.99214747816075,
          38.777054505242525
        ]
      }
    },
    {
      "type": "Feature",
      "properties": {
        "label": "Son of Satan",
        "station_m": 27358.848,
        "authority": "approximate_guide_mile_from_corrected_origin_not_verified_rapid",
        "published_river_mile_alias": 17.0,
        "production_promoted": false
      },
      "geometry": {
        "type": "Point",
        "coordinates": [
          -120.99319211572907,
          38.7759792573972
        ]
      }
    },
    {
      "type": "Feature",
      "properties": {
        "label": "Scissors",
        "station_m": 28002.5856,
        "authority": "approximate_guide_mile_from_corrected_origin_not_verified_rapid",
        "published_river_mile_alias": 17.4,
        "production_promoted": false
      },
      "geometry": {
        "type": "Point",
        "coordinates": [
          -120.99874546211895,
          38.7723809622713
        ]
      }
    },
    {
      "type": "Feature",
      "properties": {
        "label": "Lower Haystack Canyon",
        "station_m": 28324.454400000002,
        "authority": "approximate_guide_mile_from_corrected_origin_not_verified_rapid",
        "published_river_mile_alias": 17.6,
        "production_promoted": false
      },
      "geometry": {
        "type": "Point",
        "coordinates": [
          -121.00000019787974,
          38.76981014317524
        ]
      }
    },
    {
      "type": "Feature",
      "properties": {
        "label": "Bouncing Rock",
        "station_m": 29290.0608,
        "authority": "approximate_guide_mile_from_corrected_origin_not_verified_rapid",
        "published_river_mile_alias": 18.2,
        "production_promoted": false
      },
      "geometry": {
        "type": "Point",
        "coordinates": [
          -121.0077385159611,
          38.76378287510212
        ]
      }
    },
    {
      "type": "Feature",
      "properties": {
        "label": "Pre-Op",
        "station_m": 29611.9296,
        "authority": "approximate_guide_mile_from_corrected_origin_not_verified_rapid",
        "published_river_mile_alias": 18.4,
        "production_promoted": false
      },
      "geometry": {
        "type": "Point",
        "coordinates": [
          -121.0104809185336,
          38.76259279986323
        ]
      }
    },
    {
      "type": "Feature",
      "properties": {
        "label": "Hospital Bar",
        "station_m": 29933.798400000003,
        "authority": "approximate_guide_mile_from_corrected_origin_not_verified_rapid",
        "published_river_mile_alias": 18.6,
        "production_promoted": false
      },
      "geometry": {
        "type": "Point",
        "coordinates": [
          -121.01230971560987,
          38.76476515768333
        ]
      }
    },
    {
      "type": "Feature",
      "properties": {
        "label": "Recovery Room",
        "station_m": 30255.667200000004,
        "authority": "approximate_guide_mile_from_corrected_origin_not_verified_rapid",
        "published_river_mile_alias": 18.8,
        "production_promoted": false
      },
      "geometry": {
        "type": "Point",
        "coordinates": [
          -121.0136564975255,
          38.76737629882576
        ]
      }
    },
    {
      "type": "Feature",
      "properties": {
        "label": "Surprise",
        "station_m": 31060.339200000002,
        "authority": "approximate_guide_mile_from_corrected_origin_not_verified_rapid",
        "published_river_mile_alias": 19.3,
        "production_promoted": false
      },
      "geometry": {
        "type": "Point",
        "coordinates": [
          -121.015234534931,
          38.77441522872614
        ]
      }
    },
    {
      "type": "Feature",
      "id": "chili_bar_bridge_channel_crossing",
      "properties": {
        "id": "chili_bar_bridge_channel_crossing",
        "image": "chili_bar",
        "pixel_xy": [
          751,
          819
        ],
        "interpretation": "Highway 193 bridge crosses the main channel here; station-zero reference, not exact raft launch.",
        "estimated_horizontal_uncertainty_m": 8,
        "role": "route_origin",
        "metric_xy": [
          689242.1090319772,
          4293052.712264732
        ],
        "source_acquisition_date": "2022-07-21"
      },
      "geometry": {
        "type": "Point",
        "coordinates": [
          -120.82182201956284,
          38.76590910207332
        ]
      }
    },
    {
      "type": "Feature",
      "id": "troublemaker_crux_search",
      "properties": {
        "id": "troublemaker_crux_search",
        "image": "troublemaker",
        "pixel_xy": [
          823,
          887
        ],
        "interpretation": "Constricted whitewater between exposed bedrock masses; refine the hole lip from low-flow imagery and footage before final hydraulic calibration.",
        "estimated_horizontal_uncertainty_m": 15,
        "role": "rapid_crux_candidate",
        "metric_xy": [
          683805.1336302214,
          4296673.447587562
        ],
        "source_acquisition_date": "2022-07-21"
      },
      "geometry": {
        "type": "Point",
        "coordinates": [
          -120.88339721792708,
          38.79966504465925
        ]
      }
    }
  ]
}