{
  "type": "FeatureCollection",
  "features": [
    {
      "type": "Feature",
      "properties": {
        "source_fid": 395,
        "authority": "USGS_2019_2020_lidar_hydrobreakline",
        "vertical_datum": "NAVD88",
        "z_units": "metres",
        "is_bathymetry": false
      },
      "geometry": {
        "type": "Polygon",
        "coordinates": [
          [
            [
              -120.88162812253395,
              38.79692150697988,
              231.89433987807521
            ],
            [
              -120.88164236339847,
              38.79695886468548,
              231.88893987807785
            ],
            [
              -120.88165278807563,
              38.796975048672174,
              231.8866398780771
            ],
            [
              -120.88168377211878,
              38.79702732772709,
              231.87903987807897
            ],
            [
              -120.88169041191992,
              38.797091945856884,
              231.8698398780759
            ],
            [
              -120.88168315213458,
              38.797134984141344,
              231.86373987807832
            ],
            [
              -120.88165806820346,
              38.797181689676265,
              231.85883987807668
            ],
            [
              -120.88164921650318,
              38.797220168283715,
              231.78323987807804
            ],
            [
              -120.88164768152502,
              38.797252254009145,
              231.7161398780778
            ],
            [
              -120.88165373901555,
              38.79732432361587,
              231.5655398780763
            ],
            [
              -120.88164053779391,
              38.79736858401276,
              231.47313987807647
            ],
            [
              -120.8816220354959,
              38.7974432613579,
              231.31723987807763
            ],
            [
              -120.88160846612872,
              38.797504705446215,
              231.1889398780791
            ],
            [
              -120.88158524614688,
              38.79760234736782,
              230.98103987807622
            ],
            [
              -120.88155783389145,
              38.79767885879268,
              230.87713987807697
            ],
            [
              -120.88154999165303,
              38.797729348542056,
              230.80803987807607
            ],
            [
              -120.88155286417663,
              38.79779229698697,
              230.72123987807814
            ],
            [
              -120.88152948895431,
              38.797916853897355,
              230.55103987807894
            ],
            [
              -120.88153293556526,
              38.79802030694446,
              230.35803987807657
            ],
            [
              -120.88154448706041,
              38.79806799416303,
              230.29003987807604
            ],
            [
              -120.88155253284623,
              38.798083183128874,
              230.2669398780772
            ],
            [
              -120.88158134194624,
              38.79813835309384,
              230.18333987807588
            ],
            [
              -120.88161630678353,
              38.798202031355046,
              230.0916398780763
            ],
            [
              -120.88164628173267,
              38.79824229926446,
              230.08143987807733
            ],
            [
              -120.8817423613691,
              38.798371610330456,
              230.03543987807527
            ],
            [
              -120.88180999995443,
              38.798428568622064,
              230.01813987807836
            ],
            [
              -120.88187126982483,
              38.79846728547632,
              230.0046398780783
            ],
            [
              -120.88190400152601,
              38.79849721003639,
              229.99093987807817
            ],
            [
              -120.88194013137243,
              38.79854598614565,
              229.97883987807856
            ],
            [
              -120.88198803428456,
              38.79862867706824,
              229.95993987807668
            ],
            [
              -120.88199737479259,
              38.79863409425439,
              229.957939878076
            ],
            [
              -120.8820579878983,
              38.7986537479947,
              229.94753987807695
            ],
            [
              -120.88209195042683,
              38.798663610498295,
              229.9419398780751
            ],
            [
              -120.88211117265111,
              38.79868095845545,
              229.93683987807782
            ],
            [
              -120.88214230749853,
              38.79871558309518,
              229.92763987807476
            ],
            [
              -120.88218063326936,
              38.79875790610776,
              229.91743987807578
            ],
            [
              -120.88222801636026,
              38.79884417676333,
              229.85343987807659
            ],
            [
              -120.88223327406271,
              38.79885562156261,
              229.8453398780783
            ],
            [
              -120.8823558470807,
              38.798998118298215,
              229.7246398780779
            ],
            [
              -120.88238285319076,
              38.79903899620094,
              229.6962398780773
            ],
            [
              -120.88242492284512,
              38.79908655088247,
              229.65983987807846
            ],
            [
              -120.88247192433984,
              38.7991208713484,
              229.62843987807682
            ],
            [
              -120.88253834127413,
              38.79915608586484,
              229.58303987807497
            ],
            [
              -120.8826021564922,
              38.79917473044267,
              229.5526398780781
            ],
            [
              -120.88271275911023,
              38.79921796043484,
              229.49513987807666
            ],
            [
              -120.8827716438735,
              38.79924983733922,
              229.4605398780784
            ],
            [
              -120.88281132534053,
              38.79929055148587,
              229.42853987807658
            ],
            [
              -120.88287366615245,
              38.79937792526277,
              229.2725398780777
            ],
            [
              -120.88290098614215,
              38.79940639921231,
              229.233639878078
            ],
            [
              -120.88294732748595,
              38.79943388670694,
              229.1792398780776
            ],
            [
              -120.88300114043369,
              38.79944212538955,
              229.12923987807864
            ],
            [
              -120.88302729173768,
              38.799444077003436,
              229.1060398780753
            ],
            [
              -120.88306097544385,
              38.799449366967956,
              228.99013987807652
            ],
            [
              -120.88313667186856,
              38.799465565051584,
              228.6912398780787
            ],
            [
              -120.88319331014944,
              38.79946764766565,
              228.48513987807638
            ],
            [
              -120.88323809305142,
              38.79946425294663,
              228.3309398780781
            ],
            [
              -120.88329155881432,
              38.79945325398551,
              228.15893987807831
            ],
            [
              -120.88332423264225,
              38.799446532739445,
              228.0538398780787
            ],
            [
              -120.88336705982475,
              38.79944883292664,
              227.89663987807498
            ],
            [
              -120.88339833707543,
              38.79945817100169,
              227.76853987807655
            ],
            [
              -120.88345700788469,
              38.79948031534313,
              227.5202398780779
            ],
            [
              -120.8835030013556,
              38.7995026242689,
              227.3169398780765
            ],
            [
              -120.88352602645803,
              38.79953210186581,
              227.2529398780773
            ],
            [
              -120.88356200365217,
              38.79960779156646,
              227.14583987807703
            ],
            [
              -120.8835663757548,
              38.79963840880134,
              227.1071398780774
            ],
            [
              -120.88360431273149,
              38.79965644725627,
              227.03183987807887
            ],
            [
              -120.8836359863605,
              38.79965675174718,
              226.9843398780763
            ],
            [
              -120.88367746887124,
              38.79965333594155,
              226.9262398780791
            ],
            [
              -120.88371419831482,
              38.79964224707386,
              226.883139878078
            ],
            [
              -120.8837827809391,
              38.79962002243344,
              226.753439878079
            ],
            [
              -120.88383394910647,
              38.79962051425024,
              226.74423987807594
            ],
            [
              -120.88393857392425,
              38.7996310553589,
              226.72483987807834
            ],
            [
              -120.88402836757051,
              38.79965480037305,
              226.70713987807687
            ],
            [
              -120.88412766972779,
              38.799693895905136,
              226.68683987807896
            ],
            [
              -120.88418837523103,
              38.799707828436524,
              226.675039878075
            ],
            [
              -120.88428337203042,
              38.799710648463176,
              226.65603987807754
            ],
            [
              -120.88428464169677,
              38.79971425901581,
              226.6556398780774
            ],
            [
              -120.88449006446878,
              38.799683398611634,
              226.6203398780789
            ],
            [
              -120.88460501903081,
              38.79964982742087,
              226.60153987807706
            ],
            [
              -120.88465187268164,
              38.79964844672655,
              226.5931398780787
            ],
            [
              -120.8846898348937,
              38.79965542422742,
              226.5859398780763
            ],
            [
              -120.88471280780335,
              38.79966675525181,
              226.5811398780791
            ],
            [
              -120.88477800039884,
              38.799680226041694,
              226.56853987807492
            ],
            [
              -120.88497468828324,
              38.79966908806089,
              226.48703987807875
            ],
            [
              -120.88515397862538,
              38.79968108103355,
              226.41133987807564
            ],
            [
              -120.88538122377521,
              38.799702756940235,
              226.31653987807502
            ],
            [
              -120.88552964631529,
              38.79973576298036,
              226.2923398780758
            ],
            [
              -120.88563330320468,
              38.7997682023224,
              226.275339878079
            ],
            [
              -120.88571255319536,
              38.799776336973075,
              226.26263987807476
            ],
            [
              -120.88583020368192,
              38.79976679508103,
              226.24413987807745
            ],
            [
              -120.88590887066935,
              38.79978238108228,
              226.23133987807762
            ],
            [
              -120.88606283625626,
              38.79979913080398,
              226.20583987807797
            ],
            [
              -120.88612769097102,
              38.79979641581323,
              226.19553987807896
            ],
            [
              -120.88614960880373,
              38.79979346104084,
              226.19213987807782
            ],
            [
              -120.88621203294166,
              38.799793768767096,
              226.18223987807895
            ],
            [
              -120.88622623793015,
              38.7997977349016,
              226.17983987807816
            ],
            [
              -120.88626222462625,
              38.79980824624526,
              226.17393987807617
            ],
            [
              -120.88632095651583,
              38.799816345865835,
              226.16453987807748
            ],
            [
              -120.88638553367943,
              38.79981628313847,
              226.15423987807847
            ],
            [
              -120.88648361647188,
              38.799832762173445,
              226.13843987807763
            ],
            [
              -120.88658583368561,
              38.79983372604223,
              226.13423987807622
            ],
            [
              -120.88666370535508,
              38.79984703173461,
              226.12233987807667
            ],
            [
              -120.8867940939427,
              38.79987397110906,
              226.0961398780768
            ],
            [
              -120.88688427516657,
              38.799904293575985,
              226.0771398780749
            ],
            [
              -120.88692578761041,
              38.79991955878085,
              226.0683398780764
            ],
            [
              -120.88696257731262,
              38.79993357685194,
              226.06053987807823
            ],
            [
              -120.88701068148427,
              38.799951906234504,
              226.0502398780748
            ],
            [
              -120.88706353394623,
              38.79996205552476,
              226.03963987807566
            ],
            [
              -120.88717279671259,
              38.799964682862175,
              226.01903987807768
            ],
            [
              -120.88726233666253,
              38.79996581204952,
              226.0022398780765
            ],
            [
              -120.88735564181407,
              38.79996860884445,
              225.98463987807506
            ],
            [
              -120.88741569156284,
              38.799985580374866,
              225.97073987807482
            ],
            [
              -120.88741928722582,
              38.79998625641337,
              225.97050607263446
            ],
            [
              -120.88739589201708,
              38.800778276938416,
              225.96282107066153
            ],
            [
              -120.88729751625661,
              38.80075039176496,
              225.9693398780788
            ],
            [
              -120.8872013910716,
              38.80072129110897,
              225.9757398780765
            ],
            [
              -120.88713460362386,
              38.80070326027001,
              225.97713987807697
            ],
            [
              -120.8870391234453,
              38.80070335519931,
              225.9919398780775
            ],
            [
              -120.88699349912656,
              38.800701256603375,
              226.00053987807593
            ],
            [
              -120.88695872164564,
              38.800694587877146,
              226.00753987807826
            ],
            [
              -120.88693509889788,
              38.80068809903181,
              226.01243987807547
            ],
            [
              -120.88689308487956,
              38.800677192278215,
              226.02103987807834
            ],
            [
              -120.8868437519567,
              38.800672678694625,
              226.03053987807706
            ],
            [
              -120.8867908676145,
              38.80067622779018,
              226.04013987807585
            ],
            [
              -120.88675145524871,
              38.8006818925804,
              226.04713987807818
            ],
            [
              -120.88670429640216,
              38.80067448794212,
              226.05643987807684
            ],
            [
              -120.88667611593654,
              38.8006629749563,
              226.0625398780789
            ],
            [
              -120.88662734277513,
              38.80064866892899,
              226.07263987807784
            ],
            [
              -120.88656478257552,
              38.80063964984471,
              226.0849398780775
            ],
            [
              -120.88653505208484,
              38.800628895869906,
              226.09123987807516
            ],
            [
              -120.88650677745206,
              38.80060244436105,
              226.09843987807758
            ],
            [
              -120.88648939049013,
              38.800569625793415,
              226.10393987807498
            ],
            [
              -120.88648063246723,
              38.800544545246815,
              226.10733987807612
            ],
            [
              -120.88648608488023,
              38.800487213080245,
              226.11043987807716
            ],
            [
              -120.88647711312927,
              38.80045240123686,
              226.11453987807852
            ],
            [
              -120.88646024064019,
              38.80043143405209,
              226.11913987807563
            ],
            [
              -120.88641801197812,
              38.8004107949181,
              226.12853987807875
            ],
            [
              -120.88628364248912,
              38.80037245610359,
              226.16033987807606
            ],
            [
              -120.88613543081136,
              38.80034918231498,
              226.1843398780752
            ],
            [
              -120.8860561801198,
              38.80034104885402,
              226.19703987807503
            ],
            [
              -120.88597099019904,
              38.80033413679708,
              226.21063987807514
            ],
            [
              -120.88591905500445,
              38.800313051195474,
              226.21933987807805
            ],
            [
              -120.88586908027767,
              38.80027934329394,
              226.22783987807645
            ],
            [
              -120.8858214933547,
              38.800252474789716,
              226.23563987807904
            ],
            [
              -120.88574558184233,
              38.8002265471592,
              226.2482398780788
            ],
            [
              -120.88568850306781,
              38.800208963604526,
              226.25763987807753
            ],
            [
              -120.88557715939943,
              38.800200099321195,
              226.27543987807903
            ],
            [
              -120.88551695519104,
              38.80021004183173,
              226.28473987807772
            ],
            [
              -120.88547834080826,
              38.80021798601696,
              226.29073987807527
            ],
            [
              -120.88543537817185,
              38.8002317139328,
              226.29723987807745
            ],
            [
              -120.88538292127932,
              38.80025472408356,
              226.3050398780756
            ],
            [
              -120.88534075299931,
              38.80027072995734,
              226.31143987807775
            ],
            [
              -120.88526845429814,
              38.80027338476983,
              226.32283987807713
            ],
            [
              -120.8851959408769,
              38.800266308227265,
              226.3372398780775
            ],
            [
              -120.88516363408009,
              38.800255848098374,
              226.35163987807786
            ],
            [
              -120.88510300269341,
              38.80024632599469,
              226.37773987807773
            ],
            [
              -120.88497898268817,
              38.80023762593625,
              226.43023987807751
            ],
            [
              -120.88480324258717,
              38.80021757095523,
              226.50523987807594
            ],
            [
              -120.88473290340556,
              38.80020760316445,
              226.53543987807717
            ],
            [
              -120.88468298894061,
              38.80021054015256,
              226.55583987807512
            ],
            [
              -120.88458475212548,
              38.800220974598396,
              226.57223987807615
            ],
            [
              -120.88451128824919,
              38.800238531906444,
              226.58443987807578
            ],
            [
              -120.88446890633277,
              38.80024480526267,
              226.59173987807824
            ],
            [
              -120.88444355132266,
              38.800245134697455,
              226.59633987807533
            ],
            [
              -120.88440153794822,
              38.80023422704212,
              226.60453987807807
            ],
            [
              -120.8843646695437,
              38.80021981639273,
              226.61203987807613
            ],
            [
              -120.88433475163954,
              38.800216196393855,
              226.61763987807802
            ],
            [
              -120.88431316408202,
              38.800218193596706,
              226.62143987807485
            ],
            [
              -120.88425969559965,
              38.80022919300533,
              226.63043987807785
            ],
            [
              -120.88417772416484,
              38.8002414888604,
              226.64453987807812
            ],
            [
              -120.88417755995074,
              38.80024168188551,
              226.64453987807812
            ],
            [
              -120.88417650318091,
              38.800241672632524,
              226.64473987807818
            ],
            [
              -120.88416906331271,
              38.80024160024519,
              226.64603987807862
            ],
            [
              -120.8841434479091,
              38.800241355015636,
              226.65073987807577
            ],
            [
              -120.88414152007628,
              38.800239186848756,
              226.6511398780759
            ],
            [
              -120.88414104084899,
              38.800239424596825,
              226.65123987807593
            ],
            [
              -120.88407807859625,
              38.80021402842257,
              226.6626398780753
            ],
            [
              -120.88404209812671,
              38.80017744956608,
              226.67053987807793
            ],
            [
              -120.88401595422185,
              38.80013524515918,
              226.677939878076
            ],
            [
              -120.88399703037886,
              38.80009883019933,
              226.68373987807792
            ],
            [
              -120.88397557980497,
              38.80006811192227,
              226.6895398780754
            ],
            [
              -120.88393936121828,
              38.800046786360205,
              226.69743987807806
            ],
            [
              -120.88389802581392,
              38.80004066902751,
              226.7052398780762
            ],
            [
              -120.8838398180621,
              38.80002294667506,
              226.71683987807566
            ],
            [
              -120.88379388155393,
              38.79999962127417,
              226.72663987807894
            ],
            [
              -120.8837650913894,
              38.799970739699496,
              226.73363987807684
            ],
            [
              -120.88373642097437,
              38.799934231009544,
              226.7411398780749
            ],
            [
              -120.88368807867182,
              38.799908975150416,
              226.75143987807834
            ],
            [
              -120.88363976517594,
              38.79988181315866,
              226.75963987807665
            ],
            [
              -120.88355067797698,
              38.79984305416576,
              226.91583987807562
            ],
            [
              -120.88351164705469,
              38.79982832243807,
              226.989439878078
            ],
            [
              -120.88345790758858,
              38.799792943883666,
              227.10643987807717
            ],
            [
              -120.88340735225884,
              38.79976668640496,
              227.20923987807603
            ],
            [
              -120.88338688748838,
              38.7997620020478,
              227.28013987807753
            ],
            [
              -120.88332997524691,
              38.799767012699974,
              227.47483987807604
            ],
            [
              -120.88330238000859,
              38.79977606216366,
              227.55773987807711
            ],
            [
              -120.88326318232669,
              38.79979145618359,
              227.67103987807502
            ],
            [
              -120.88320478462516,
              38.799815688461216,
              227.83763987807745
            ],
            [
              -120.8831537048968,
              38.799833527745776,
              227.98923987807487
            ],
            [
              -120.88312776787647,
              38.799841307474566,
              228.06833987807912
            ],
            [
              -120.88308596821582,
              38.79984013064597,
              228.2198398780765
            ],
            [
              -120.88302454200688,
              38.7998283285362,
              228.46003987807688
            ],
            [
              -120.88300194354017,
              38.799818313447304,
              228.55833987807867
            ],
            [
              -120.88294783424085,
              38.79980011833121,
              228.78343987807844
            ],
            [
              -120.88291791776483,
              38.799796496176704,
              228.89673987807637
            ],
            [
              -120.8828822729373,
              38.799803829298426,
              229.01143987807478
            ],
            [
              -120.88285553932597,
              38.799809328231795,
              229.0782398780749
            ],
            [
              -120.8828250394749,
              38.799813159324465,
              229.0782398780749
            ],
            [
              -120.88279055902974,
              38.799805589457115,
              229.10483987807493
            ],
            [
              -120.88274594437335,
              38.79977810860455,
              229.15783987807487
            ],
            [
              -120.88267077249435,
              38.79971781249442,
              229.25483987807624
            ],
            [
              -120.88262674014145,
              38.79968288101686,
              229.3114398780774
            ],
            [
              -120.88256923501889,
              38.79964583330893,
              229.38063987807834
            ],
            [
              -120.88249151901753,
              38.79960561167282,
              229.4082398780787
            ],
            [
              -120.88245603488474,
              38.79958499363995,
              229.41813987807754
            ],
            [
              -120.88241846170223,
              38.79955576863065,
              229.4442398780774
            ],
            [
              -120.88238143862435,
              38.79951828187594,
              229.47383987807842
            ],
            [
              -120.88233697904617,
              38.79946388766734,
              229.5136398780784
            ],
            [
              -120.88231637476021,
              38.79944069376257,
              229.53113987807538
            ],
            [
              -120.88227899802718,
              38.799410698491506,
              229.55753987807532
            ],
            [
              -120.88223305490254,
              38.79938506779455,
              229.58483987807557
            ],
            [
              -120.88215034922642,
              38.79932143291308,
              229.62973987807726
            ],
            [
              -120.88208191526618,
              38.79926219500677,
              229.67993987807628
            ],
            [
              -120.88203984342087,
              38.79921464108034,
              229.71633987807513
            ],
            [
              -120.88202392397243,
              38.79916903808863,
              229.74363987807538
            ],
            [
              -120.88200561602734,
              38.7991165964864,
              229.76913987807504
            ],
            [
              -120.88198571618865,
              38.799059593410114,
              229.80783987807908
            ],
            [
              -120.8819674094652,
              38.79900715091162,
              229.84333987807764
            ],
            [
              -120.88195090667743,
              38.7989689993747,
              229.87023987807777
            ],
            [
              -120.88191716509627,
              38.79892706278155,
              229.904739878076
            ],
            [
              -120.88186464982732,
              38.79891342774158,
              229.92983987807548
            ],
            [
              -120.88182502494797,
              38.79890935955463,
              229.93523987807728
            ],
            [
              -120.88180624187859,
              38.79890728221253,
              229.93783987807817
            ],
            [
              -120.8817626146767,
              38.79888881627866,
              229.94603987807648
            ],
            [
              -120.88171160877519,
              38.798839822984434,
              229.95993987807668
            ],
            [
              -120.88163006996314,
              38.79876128569035,
              229.98223987807526
            ],
            [
              -120.88156497468212,
              38.798684253615065,
              229.9980398780761
            ],
            [
              -120.88155383134959,
              38.798652332284796,
              230.0049398780784
            ],
            [
              -120.88150120041234,
              38.79856540446475,
              230.0261398780766
            ],
            [
              -120.88145217947033,
              38.79850706039006,
              230.0418398780774
            ],
            [
              -120.88136666217845,
              38.79841712282136,
              230.0656398780765
            ],
            [
              -120.8812872984654,
              38.798335693487765,
              230.07943987807667
            ],
            [
              -120.88120946896701,
              38.79822217927217,
              230.18893987807775
            ],
            [
              -120.88109906258804,
              38.798051826113046,
              230.45393987807756
            ],
            [
              -120.88103189182964,
              38.79791412421372,
              230.579039878075
            ],
            [
              -120.88101475083062,
              38.797846779515346,
              230.67253987807518
            ],
            [
              -120.8810093328783,
              38.797803904705255,
              230.73183987807724
            ],
            [
              -120.8809950073996,
              38.79776286216208,
              230.7890398780786
            ],
            [
              -120.88097516759946,
              38.79774250522792,
              230.81793987807495
            ],
            [
              -120.88094381436329,
              38.797707408768346,
              230.8678398780783
            ],
            [
              -120.88091341293274,
              38.797647678947584,
              230.9514398780752
            ],
            [
              -120.88089473796396,
              38.79761241815416,
              231.0009398780784
            ],
            [
              -120.88086099763505,
              38.79757048215011,
              231.05783987807524
            ],
            [
              -120.88083319646151,
              38.79752732403998,
              231.14833987807887
            ],
            [
              -120.88081966533288,
              38.79748856130041,
              231.2294398780749
            ],
            [
              -120.88082279251398,
              38.797461036173296,
              231.28693987807637
            ],
            [
              -120.88082591854149,
              38.797433511034946,
              231.34443987807782
            ],
            [
              -120.88082904225024,
              38.79740598677501,
              231.40193987807487
            ],
            [
              -120.88081710525685,
              38.79737178554436,
              231.47343987807656
            ],
            [
              -120.88080219645103,
              38.797338193535985,
              231.5438398780779
            ],
            [
              -120.88079280083849,
              38.79728391771337,
              231.6573398780759
            ],
            [
              -120.8808055755278,
              38.797220193881685,
              231.79033987807597
            ],
            [
              -120.88082704816694,
              38.79714490561731,
              231.86753987807515
            ],
            [
              -120.88084655835569,
              38.797082240433454,
              231.87623987807805
            ],
            [
              -120.88087041921824,
              38.79701379259503,
              231.8858398780768
            ],
            [
              -120.88089629893379,
              38.79696936796733,
              231.89193987807886
            ],
            [
              -120.88091305246382,
              38.79691704422998,
              231.89923987807686
            ],
            [
              -120.88092392919562,
              38.79688603380616,
              231.90357760969727
            ],
            [
              -120.88162401860748,
              38.79689873334438,
              231.8975731982467
            ],
            [
              -120.88162812253395,
              38.79692150697988,
              231.89433987807521
            ]
          ]
        ]
      }
    }
  ]
}