{
  "type": "FeatureCollection",
  "features": [
    {
      "type": "Feature",
      "properties": {
        "source_fid": 479,
        "authority": "USGS_2019_2020_lidar_hydrobreakline",
        "vertical_datum": "NAVD88",
        "z_units": "metres",
        "is_bathymetry": false
      },
      "geometry": {
        "type": "Polygon",
        "coordinates": [
          [
            [
              -121.0145525876799,
              38.77208722729635,
              138.71713987807584
            ],
            [
              -121.01455664311294,
              38.77212420964173,
              138.70623987807662
            ],
            [
              -121.01455613137603,
              38.77216115231493,
              138.69573987807755
            ],
            [
              -121.01455863140109,
              38.772200505308874,
              138.6843398780782
            ],
            [
              -121.01455959543168,
              38.77221332737761,
              138.6805398780769
            ],
            [
              -121.01456610065657,
              38.77224518622528,
              138.6711398780782
            ],
            [
              -121.01457091012314,
              38.7722588905118,
              138.6669398780768
            ],
            [
              -121.01457152180777,
              38.77225901462674,
              138.66683987807676
            ],
            [
              -121.01458586768838,
              38.772301516013776,
              138.6539398780769
            ],
            [
              -121.01460662208912,
              38.7723630038786,
              138.63523987807508
            ],
            [
              -121.0146115835148,
              38.77237479498318,
              138.63163987807832
            ],
            [
              -121.01464789115393,
              38.7724610867493,
              138.60503987807832
            ],
            [
              -121.01465825201362,
              38.77248262756793,
              138.59833987807608
            ],
            [
              -121.01467916835738,
              38.77251140953922,
              138.5890398780774
            ],
            [
              -121.01469983598166,
              38.77255806739047,
              138.57463987807702
            ],
            [
              -121.01471746112438,
              38.77260469941419,
              138.5603398780767
            ],
            [
              -121.01472619828236,
              38.772633378003135,
              138.55163987807822
            ],
            [
              -121.01473784822507,
              38.77267161582357,
              138.5401398780788
            ],
            [
              -121.01473876110074,
              38.772715722144845,
              138.527439878079
            ],
            [
              -121.01473973885055,
              38.77275506131105,
              138.51613987807522
            ],
            [
              -121.01473929205218,
              38.77278723862999,
              138.5069398780766
            ],
            [
              -121.01473882992319,
              38.77282060594331,
              138.49863987807825
            ],
            [
              -121.01473830292062,
              38.77285874041136,
              138.47323987807863
            ],
            [
              -121.01473807877375,
              38.77287492456264,
              138.46213987807494
            ],
            [
              -121.01474810977412,
              38.77292261558068,
              138.42863987807704
            ],
            [
              -121.01477312401435,
              38.77299389660345,
              138.37763987807776
            ],
            [
              -121.01477596762265,
              38.772997316331036,
              138.37503987807688
            ],
            [
              -121.01479393951833,
              38.77301892173092,
              138.35873987807588
            ],
            [
              -121.01482542931562,
              38.773053752139184,
              138.33213987807585
            ],
            [
              -121.01484027272542,
              38.773081291513726,
              138.31203987807802
            ],
            [
              -121.01484290613747,
              38.77311110931762,
              138.29133987807555
            ],
            [
              -121.01484252540075,
              38.77313851949103,
              138.27263987807817
            ],
            [
              -121.01483132502554,
              38.77317775530454,
              138.2467398780784
            ],
            [
              -121.0148234488773,
              38.77319675838291,
              138.23433987807869
            ],
            [
              -121.01481241235487,
              38.77322407812375,
              138.2166398780772
            ],
            [
              -121.01481059288676,
              38.77324551465336,
              138.2021398780768
            ],
            [
              -121.01481185122833,
              38.773264596153695,
              138.1889398780768
            ],
            [
              -121.01481770986388,
              38.773281331040806,
              138.17693987807723
            ],
            [
              -121.01483417476518,
              38.773301732618485,
              138.16153987807652
            ],
            [
              -121.01485064081416,
              38.7733221351044,
              138.14613987807581
            ],
            [
              -121.01486707275146,
              38.7733449184482,
              138.12913987807903
            ],
            [
              -121.01487589257957,
              38.77336763809307,
              138.112839878078
            ],
            [
              -121.01488616882078,
              38.77339513780149,
              138.09303987807584
            ],
            [
              -121.0148978542701,
              38.77343099295153,
              138.0675398780762
            ],
            [
              -121.01490357976215,
              38.77345726211425,
              138.04903987807887
            ],
            [
              -121.01491766305497,
              38.773539619130986,
              137.9914398780774
            ],
            [
              -121.01492047541547,
              38.77355842912357,
              137.9782398780774
            ],
            [
              -121.01494554319066,
              38.77362130130506,
              137.93303987807562
            ],
            [
              -121.01495415934238,
              38.77364585169987,
              137.91553987807865
            ],
            [
              -121.01501904153186,
              38.77380507167554,
              137.78033987807783
            ],
            [
              -121.01507830186388,
              38.77392356796662,
              137.69203987807495
            ],
            [
              -121.01513479798977,
              38.77402177983002,
              137.61733987807662
            ],
            [
              -121.01522326796865,
              38.77415283771636,
              137.45953987807712
            ],
            [
              -121.01523055802933,
              38.77416129079069,
              137.45293987807494
            ],
            [
              -121.0153104980879,
              38.77423031680777,
              137.39063987807629
            ],
            [
              -121.0154321184272,
              38.774327388063924,
              137.2989398780767
            ],
            [
              -121.0155031542326,
              38.77436724119265,
              137.25223987807885
            ],
            [
              -121.01559792633402,
              38.77440141430953,
              137.19753987807832
            ],
            [
              -121.01585575843467,
              38.7745191947007,
              137.11343987807686
            ],
            [
              -121.01600602119689,
              38.77456633284728,
              137.08813987807727
            ],
            [
              -121.0161528737229,
              38.77465818281567,
              137.0580398780761
            ],
            [
              -121.0162641070241,
              38.77475740395303,
              137.03173987807617
            ],
            [
              -121.0163458696559,
              38.77480893697679,
              137.00993987807777
            ],
            [
              -121.01645891485678,
              38.774858887182624,
              136.98373987807787
            ],
            [
              -121.01654501489345,
              38.774904634122684,
              136.96283987807533
            ],
            [
              -121.01672588729771,
              38.77498455408434,
              136.92083987807905
            ],
            [
              -121.01682637212859,
              38.77501477085395,
              136.89923987807626
            ],
            [
              -121.01692139448666,
              38.775037271689875,
              136.87953987807856
            ],
            [
              -121.01699091356285,
              38.77505048956979,
              136.86553987807832
            ],
            [
              -121.01705253992995,
              38.7750594512704,
              136.85353987807875
            ],
            [
              -121.0171313891582,
              38.77508276366632,
              136.8132398780786
            ],
            [
              -121.0171920041493,
              38.77510353868761,
              136.78293987807734
            ],
            [
              -121.01725864201825,
              38.77512913146563,
              136.7491398780749
            ],
            [
              -121.01730855162631,
              38.775153391576524,
              136.722839878075
            ],
            [
              -121.01734637920961,
              38.77517039784108,
              136.7031398780773
            ],
            [
              -121.01737746159577,
              38.77518597308633,
              136.68663987807622
            ],
            [
              -121.01738024147852,
              38.77518685610024,
              136.68523987807575
            ],
            [
              -121.01742445682983,
              38.775196928821366,
              136.6642398780776
            ],
            [
              -121.01748496036778,
              38.77521720363135,
              136.63413987807644
            ],
            [
              -121.01755696629003,
              38.77523429277694,
              136.59973987807825
            ],
            [
              -121.01762975114184,
              38.775237566455004,
              136.56783987807646
            ],
            [
              -121.0176872540956,
              38.77524761007194,
              136.5410398780764
            ],
            [
              -121.01778875583595,
              38.77527900130589,
              136.49113987807746
            ],
            [
              -121.01782957175205,
              38.775298894938494,
              136.4695398780791
            ],
            [
              -121.01791840899729,
              38.77533429614305,
              136.4242398780773
            ],
            [
              -121.01796210736015,
              38.7753519843201,
              136.40183987807868
            ],
            [
              -121.01806080132158,
              38.77537752797327,
              136.3228398780789
            ],
            [
              -121.01812530296765,
              38.7753794916006,
              136.24633987807553
            ],
            [
              -121.01820272770851,
              38.77539640429852,
              136.1489673602697
            ],
            [
              -121.0181964816634,
              38.77562202637096,
              136.07053806115275
            ],
            [
              -121.01816694005724,
              38.7756183261841,
              136.10663987807766
            ],
            [
              -121.01812385930614,
              38.77561015889468,
              136.16033987807785
            ],
            [
              -121.01792876880823,
              38.77558151961653,
              136.36953987807675
            ],
            [
              -121.01767071782076,
              38.775517572404496,
              136.4933398780782
            ],
            [
              -121.01739599489937,
              38.775442406609734,
              136.62663987807835
            ],
            [
              -121.01712080948897,
              38.77534777803267,
              136.76393987807543
            ],
            [
              -121.0167965328637,
              38.775258417880046,
              136.87503987807705
            ],
            [
              -121.01656610484218,
              38.77516430577703,
              136.9276398780769
            ],
            [
              -121.01635668562079,
              38.77507562362702,
              136.97573987807522
            ],
            [
              -121.01618448663721,
              38.77498412941443,
              137.01753987807587
            ],
            [
              -121.01606297984901,
              38.77489192403519,
              137.04273987807542
            ],
            [
              -121.01597321856238,
              38.77481759803618,
              137.06323987807784
            ],
            [
              -121.01590955165331,
              38.77477122369731,
              137.077039878078
            ],
            [
              -121.01582752632869,
              38.774733712862115,
              137.09223987807863
            ],
            [
              -121.01572159411157,
              38.774685271035025,
              137.11193987807636
            ],
            [
              -121.01564983241985,
              38.77464003966347,
              137.12663987807682
            ],
            [
              -121.01556693318948,
              38.774603408644026,
              137.14183987807746
            ],
            [
              -121.01547422455344,
              38.77459325549528,
              137.17383987807486
            ],
            [
              -121.01542993163034,
              38.77461220021847,
              137.18533987807868
            ],
            [
              -121.01542509017276,
              38.774618662046095,
              137.18483987807852
            ],
            [
              -121.01542312712934,
              38.77464723991135,
              137.17413987807495
            ],
            [
              -121.01542971947096,
              38.77466602969386,
              137.16373987807592
            ],
            [
              -121.01545691513338,
              38.774743522921156,
              137.1401398780769
            ],
            [
              -121.01552306512833,
              38.77489261881096,
              137.11413987807708
            ],
            [
              -121.01552316700119,
              38.774892742200905,
              137.11403987807705
            ],
            [
              -121.01557673504526,
              38.774982585516405,
              137.09653987807565
            ],
            [
              -121.015588435294,
              38.77501724878677,
              137.09093987807822
            ],
            [
              -121.01559105143593,
              38.77504825924643,
              137.0870398780769
            ],
            [
              -121.01558756125502,
              38.77508040985155,
              137.0837398780758
            ],
            [
              -121.01556901369676,
              38.77510051441147,
              137.08383987807585
            ],
            [
              -121.01554450823566,
              38.77511103303612,
              137.08593987807654
            ],
            [
              -121.01550944335195,
              38.775114311451475,
              137.09013987807793
            ],
            [
              -121.01544861442584,
              38.77510902787098,
              137.0988398780764
            ],
            [
              -121.01540924722443,
              38.775093199851845,
              137.10583987807874
            ],
            [
              -121.01535924048056,
              38.77507608965108,
              137.11443987807718
            ],
            [
              -121.0153170098539,
              38.77504712702726,
              137.12343987807574
            ],
            [
              -121.01528245868603,
              38.77501346182445,
              137.13183987807855
            ],
            [
              -121.01525094901058,
              38.77497982241131,
              137.13993987807683
            ],
            [
              -121.01521793799857,
              38.774944979228174,
              137.14653987807904
            ],
            [
              -121.01518814520655,
              38.77490629115324,
              137.1715398780785
            ],
            [
              -121.01518021193084,
              38.77489857138064,
              137.17813987807628
            ],
            [
              -121.01505149737955,
              38.77478508695757,
              137.27943987807907
            ],
            [
              -121.01493329791943,
              38.77467508270233,
              137.37483987807545
            ],
            [
              -121.01487304220198,
              38.77457142517455,
              137.44253987807588
            ],
            [
              -121.01486131006239,
              38.77446995062485,
              137.4884398780779
            ],
            [
              -121.01483731382291,
              38.77440157295152,
              137.5004398780775
            ],
            [
              -121.01477821453133,
              38.7743465707284,
              137.5004398780775
            ],
            [
              -121.0147579288719,
              38.77433760732003,
              137.5004398780775
            ],
            [
              -121.01470168190578,
              38.77427626691911,
              137.53983987807734
            ],
            [
              -121.01465343951445,
              38.77419514521201,
              137.60183987807588
            ],
            [
              -121.01462171096848,
              38.77403668935208,
              137.71043987807667
            ],
            [
              -121.01455821621326,
              38.77383535088419,
              137.85303987807552
            ],
            [
              -121.01455252243055,
              38.77370486004528,
              137.9097398780767
            ],
            [
              -121.01455309817956,
              38.773659724890386,
              137.9405398780781
            ],
            [
              -121.0145373675666,
              38.773546853862264,
              138.0192398780778
            ],
            [
              -121.01455613337252,
              38.7734837356611,
              138.06083987807838
            ],
            [
              -121.01456877763422,
              38.773462077502735,
              138.07463987807856
            ],
            [
              -121.01458075649626,
              38.77343270626473,
              138.09363987807603
            ],
            [
              -121.01457492637772,
              38.77340701999749,
              138.11173987807766
            ],
            [
              -121.01455996058982,
              38.77337344604284,
              138.1360398780769
            ],
            [
              -121.01455253062768,
              38.77334320101688,
              138.15743987807517
            ],
            [
              -121.01454350194311,
              38.77330839904416,
              138.18203987807894
            ],
            [
              -121.01453870239312,
              38.77329472187013,
              138.1918398780778
            ],
            [
              -121.01452316731091,
              38.773268600049676,
              138.21103987807533
            ],
            [
              -121.01450700518009,
              38.773248780293414,
              138.2260398780759
            ],
            [
              -121.01448829577382,
              38.773214286233504,
              138.25123987807544
            ],
            [
              -121.01445475902707,
              38.77313000269066,
              138.31183987807796
            ],
            [
              -121.01445071371829,
              38.772959706662135,
              138.4288398780771
            ],
            [
              -121.01445008955525,
              38.77277647894064,
              138.52463987807806
            ],
            [
              -121.01444769695932,
              38.77271010175066,
              138.5438398780756
            ],
            [
              -121.0144245872777,
              38.77257954771713,
              138.58243987807518
            ],
            [
              -121.01436779438826,
              38.772451241996784,
              138.62213987807513
            ],
            [
              -121.01427781392002,
              38.77219482550434,
              138.70013987807903
            ],
            [
              -121.014255132066,
              38.772053194844474,
              138.74112525487027
            ],
            [
              -121.01454659698923,
              38.77205814856429,
              138.72570612549129
            ],
            [
              -121.0145525876799,
              38.77208722729635,
              138.71713987807584
            ]
          ]
        ]
      }
    }
  ]
}