{
  "type": "FeatureCollection",
  "features": [
    {
      "type": "Feature",
      "properties": {
        "source_fid": 395,
        "authority": "USGS_2019_2020_lidar_hydrobreakline",
        "vertical_datum": "NAVD88",
        "z_units": "metres",
        "is_bathymetry": false
      },
      "geometry": {
        "type": "Polygon",
        "coordinates": [
          [
            [
              -120.82851989855642,
              38.76851473069936,
              278.3738398780762
            ],
            [
              -120.82857652634515,
              38.76851287773964,
              278.373339878076
            ],
            [
              -120.828609399186,
              38.768515901519656,
              278.37303987807593
            ],
            [
              -120.82863871215268,
              38.76852698709748,
              278.37273987807583
            ],
            [
              -120.82865673641011,
              38.76853306029139,
              278.37253987807577
            ],
            [
              -120.8286824941353,
              38.7685522068113,
              278.3722398780756
            ],
            [
              -120.82871736630761,
              38.768579255624395,
              278.37173987807546
            ],
            [
              -120.82876332267385,
              38.768601583578494,
              278.3712398780753
            ],
            [
              -120.8289506761449,
              38.768646193273945,
              278.36943987807916
            ],
            [
              -120.82909624822678,
              38.76868960729231,
              278.36793987807863
            ],
            [
              -120.82919903965794,
              38.76871981417008,
              278.3669398780783
            ],
            [
              -120.82926381398536,
              38.768750496129144,
              278.3662398780781
            ],
            [
              -120.82932085589617,
              38.76876810567889,
              278.3656398780779
            ],
            [
              -120.82936936854206,
              38.76877036170053,
              278.3651398780777
            ],
            [
              -120.82947568652268,
              38.768755861866545,
              278.3642398780774
            ],
            [
              -120.8296334870569,
              38.76874300721831,
              278.36283987807695
            ],
            [
              -120.82984932768146,
              38.76875977415037,
              278.36083987807626
            ],
            [
              -120.82991394923627,
              38.768769186401954,
              278.3602398780761
            ],
            [
              -120.82996013946668,
              38.7687813129873,
              278.3597398780759
            ],
            [
              -120.82999925249544,
              38.76879740717327,
              278.3593398780758
            ],
            [
              -120.83008937243532,
              38.76882777203487,
              278.35843987807544
            ],
            [
              -120.83012393754956,
              38.76883756234935,
              278.3580398780753
            ],
            [
              -120.83017267469776,
              38.76884205645241,
              278.3576398780752
            ],
            [
              -120.83020442349257,
              38.7688383554798,
              278.3573398780751
            ],
            [
              -120.83025887610418,
              38.76883939164311,
              278.35683987807494
            ],
            [
              -120.83029333596149,
              38.76884697622409,
              278.35653987807484
            ],
            [
              -120.83034402523035,
              38.76884634190456,
              278.34923987807684
            ],
            [
              -120.83036995786921,
              38.76883857395784,
              278.3451398780755
            ],
            [
              -120.83043014325607,
              38.76882865821074,
              278.33503987807654
            ],
            [
              -120.83046895389103,
              38.76883046284357,
              278.3278398780786
            ],
            [
              -120.83050203178162,
              38.76884321839927,
              278.32083987807624
            ],
            [
              -120.83052105683144,
              38.76886130292452,
              278.315939878079
            ],
            [
              -120.83055354731304,
              38.76888151060187,
              278.30853987807654
            ],
            [
              -120.83058545274403,
              38.768909166826845,
              278.3005398780783
            ],
            [
              -120.8306411119822,
              38.76893194675401,
              278.28863987807875
            ],
            [
              -120.83072094170785,
              38.76896931143789,
              278.2712398780774
            ],
            [
              -120.83081306338275,
              38.769023698975026,
              278.2502398780748
            ],
            [
              -120.83089785275266,
              38.769041492627586,
              278.2335398780781
            ],
            [
              -120.8309457794222,
              38.769051198338566,
              278.2240398780749
            ],
            [
              -120.83098835355331,
              38.76905467412011,
              278.210839878075
            ],
            [
              -120.83102716547636,
              38.76905647857791,
              278.14453987807497
            ],
            [
              -120.83109288826331,
              38.769068864479394,
              278.0228398780787
            ],
            [
              -120.83113763894,
              38.769069449356664,
              277.9478398780758
            ],
            [
              -120.83116992362648,
              38.76907992453926,
              277.88363987807656
            ],
            [
              -120.83120676514258,
              38.76909435030826,
              277.8077398780778
            ],
            [
              -120.83124481572963,
              38.769130520024646,
              277.7078398780755
            ],
            [
              -120.83128207062913,
              38.76916440862302,
              277.6115398780788
            ],
            [
              -120.83131912061386,
              38.76918856580024,
              277.5255398780767
            ],
            [
              -120.83141082965211,
              38.76922349000911,
              277.37723987807595
            ],
            [
              -120.83145737457644,
              38.769238367457206,
              277.330239878078
            ],
            [
              -120.83153641048965,
              38.769273450486736,
              277.24493987807614
            ],
            [
              -120.83158337119944,
              38.76930779075952,
              277.1865398780788
            ],
            [
              -120.83162497705462,
              38.76933589930835,
              277.13613987807526
            ],
            [
              -120.8316773412766,
              38.76936713970957,
              277.075039878077
            ],
            [
              -120.8317783075503,
              38.7693860433303,
              276.96883987807706
            ],
            [
              -120.83185951911463,
              38.7694182370671,
              276.8716398780756
            ],
            [
              -120.83202729745403,
              38.76948885335417,
              276.6682398780786
            ],
            [
              -120.83209721899583,
              38.769516033962624,
              276.5849398780774
            ],
            [
              -120.83220950886745,
              38.76953695754279,
              276.46493987807725
            ],
            [
              -120.83228257410825,
              38.76953661415191,
              276.42983987807884
            ],
            [
              -120.83235999000213,
              38.76953049074717,
              276.41753987807476
            ],
            [
              -120.832414062198,
              38.76954870856258,
              276.4063398780754
            ],
            [
              -120.83246813557221,
              38.769566926364384,
              276.3951398780761
            ],
            [
              -120.83250856865573,
              38.7696099361968,
              276.38333987807664
            ],
            [
              -120.83253991749443,
              38.76964492630203,
              276.3739398780779
            ],
            [
              -120.83261155027391,
              38.76965621125423,
              276.3606398780779
            ],
            [
              -120.83267314954259,
              38.76967776878293,
              276.3477398780781
            ],
            [
              -120.83270280752028,
              38.76969945645156,
              276.34293987807644
            ],
            [
              -120.83274847764707,
              38.76970820623694,
              276.3174398780768
            ],
            [
              -120.832770819773,
              38.76970513433116,
              276.30523987807715
            ],
            [
              -120.83280092967387,
              38.7697184990513,
              276.2797398780775
            ],
            [
              -120.83284174275407,
              38.76974432699206,
              276.24113987807795
            ],
            [
              -120.83287364828129,
              38.76977198437634,
              276.20713987807545
            ],
            [
              -120.83291378063224,
              38.7697921691127,
              276.171939878077
            ],
            [
              -120.83292987614057,
              38.76979364992967,
              276.1611398780778
            ],
            [
              -120.83295839797167,
              38.769802453356185,
              276.13893987807484
            ],
            [
              -120.83298394983304,
              38.76981186749084,
              276.1183398780768
            ],
            [
              -120.8330029757727,
              38.76982995160797,
              276.09723987807865
            ],
            [
              -120.83302141338923,
              38.769855487858884,
              276.0726398780749
            ],
            [
              -120.83305590704097,
              38.76989971713,
              276.0285398780779
            ],
            [
              -120.83308166644491,
              38.769918862671744,
              276.0027398780781
            ],
            [
              -120.83311951092607,
              38.76994530034283,
              275.96563987807906
            ],
            [
              -120.8331931979614,
              38.76997415065278,
              275.9223398780779
            ],
            [
              -120.8332248962285,
              38.76999207561086,
              275.9223398780779
            ],
            [
              -120.83326888595776,
              38.77002702499717,
              275.84893987807556
            ],
            [
              -120.83336674335595,
              38.770070459431885,
              275.7142398780749
            ],
            [
              -120.83349215504447,
              38.770147331895735,
              275.5170398780756
            ],
            [
              -120.83357457690369,
              38.770201267452414,
              275.3453398780759
            ],
            [
              -120.83363224145606,
              38.77024806914098,
              275.2428398780771
            ],
            [
              -120.83370299352953,
              38.770314174478536,
              275.10803987807645
            ],
            [
              -120.83384048890923,
              38.770398339515104,
              274.8922398780754
            ],
            [
              -120.83384991169306,
              38.77040650577473,
              274.87493987807846
            ],
            [
              -120.83394986015087,
              38.770461791067554,
              274.71083987807685
            ],
            [
              -120.83400838744058,
              38.770513630323755,
              274.57043987807873
            ],
            [
              -120.83407456435675,
              38.77056316247489,
              274.4236398780785
            ],
            [
              -120.8341993470518,
              38.770659765812916,
              274.1426398780778
            ],
            [
              -120.8342581480745,
              38.77069492122498,
              274.02393987807807
            ],
            [
              -120.83431688945075,
              38.77073365006939,
              273.90053987807676
            ],
            [
              -120.83434840923819,
              38.77076138154485,
              273.81783987807574
            ],
            [
              -120.83438425946416,
              38.77080345724742,
              273.68043987807863
            ],
            [
              -120.8344377468729,
              38.77082893060762,
              273.5446096935341
            ],
            [
              -120.83442003804291,
              38.77141437850425,
              272.32871676144083
            ],
            [
              -120.8344016630326,
              38.77140553660115,
              272.40593987807875
            ],
            [
              -120.83426913613557,
              38.77136053051874,
              272.83553987807585
            ],
            [
              -120.83409866535902,
              38.77128322709279,
              273.2611398780761
            ],
            [
              -120.83404919487042,
              38.771254898111465,
              273.3956398780767
            ],
            [
              -120.83390062878965,
              38.77114298914991,
              273.84923987807736
            ],
            [
              -120.83376530376398,
              38.771055934144755,
              274.1520398780765
            ],
            [
              -120.83369258315916,
              38.77100245028432,
              274.3120398780767
            ],
            [
              -120.83354790369805,
              38.770861117095556,
              274.67663987807873
            ],
            [
              -120.83348288368508,
              38.770784059684345,
              274.82253987807866
            ],
            [
              -120.83345912444454,
              38.77075555546512,
              274.87443987807825
            ],
            [
              -120.83342193958023,
              38.77072423058943,
              274.9417398780786
            ],
            [
              -120.83338796091664,
              38.77070336910463,
              274.99513987807865
            ],
            [
              -120.83328095316726,
              38.77061538633021,
              275.1865398780761
            ],
            [
              -120.83321237767498,
              38.770546389847986,
              275.32233987807706
            ],
            [
              -120.83314262799581,
              38.770492295820816,
              275.44363987807765
            ],
            [
              -120.83302432922902,
              38.77039930174546,
              275.62863987807737
            ],
            [
              -120.83294999271834,
              38.77032864169498,
              275.7745398780773
            ],
            [
              -120.83289396524943,
              38.77028919344835,
              275.8685398780777
            ],
            [
              -120.83286204106257,
              38.77027135712508,
              275.9572398780762
            ],
            [
              -120.83277409342749,
              38.770238105328566,
              276.02873987807794
            ],
            [
              -120.83266810723879,
              38.77019266692435,
              276.11773987807663
            ],
            [
              -120.8325765846319,
              38.77013694180248,
              276.20313987807856
            ],
            [
              -120.83249595798186,
              38.77009729821341,
              276.2734398780754
            ],
            [
              -120.83240483566897,
              38.770054923631285,
              276.3487398780784
            ],
            [
              -120.83225328509084,
              38.7699760869348,
              276.38333987807664
            ],
            [
              -120.8321841576505,
              38.769951187508866,
              276.39793987807707
            ],
            [
              -120.83212117528396,
              38.76993479896383,
              276.4103398780768
            ],
            [
              -120.83206195754465,
              38.76992008078163,
              276.42203987807625
            ],
            [
              -120.83200057535467,
              38.76990457588452,
              276.4341398780759
            ],
            [
              -120.83194855716935,
              38.76988327838315,
              276.50143987807616
            ],
            [
              -120.83190250080284,
              38.7698550855287,
              276.56263987807887
            ],
            [
              -120.83180348687961,
              38.76979833209709,
              276.6919398780777
            ],
            [
              -120.83175546475866,
              38.76978416969431,
              276.74643987807815
            ],
            [
              -120.83171749264821,
              38.769780676549395,
              276.78473987807763
            ],
            [
              -120.83162460697952,
              38.76976065415331,
              276.88563987807584
            ],
            [
              -120.83154418970605,
              38.76973074224582,
              276.9807398780766
            ],
            [
              -120.83149049649411,
              38.7696953413422,
              277.0417398780748
            ],
            [
              -120.83142571919552,
              38.76966466061629,
              277.1127398780763
            ],
            [
              -120.8313207179678,
              38.76960070016486,
              277.2360398780776
            ],
            [
              -120.83128487137618,
              38.76957648303145,
              277.2794398780788
            ],
            [
              -120.83122800666902,
              38.769553763359426,
              277.33943987807663
            ],
            [
              -120.83117393477306,
              38.76953554499153,
              277.4144398780751
            ],
            [
              -120.83106934609724,
              38.769491047153615,
              277.6333398780772
            ],
            [
              -120.83100615832119,
              38.76946492748293,
              277.76483987807677
            ],
            [
              -120.83087362890363,
              38.76941054756656,
              278.0402398780756
            ],
            [
              -120.83080608936437,
              38.76939020678666,
              278.17303987807566
            ],
            [
              -120.83072332210143,
              38.76939009834433,
              278.2373398780749
            ],
            [
              -120.83065519636385,
              38.76937720872453,
              278.25063987807494
            ],
            [
              -120.83052774389539,
              38.7693528496164,
              278.27563987807883
            ],
            [
              -120.83046408347248,
              38.76932455810325,
              278.289439878079
            ],
            [
              -120.83041059936791,
              38.76929888904519,
              278.3011398780785
            ],
            [
              -120.83035196995418,
              38.76927671875517,
              278.3135398780782
            ],
            [
              -120.83029651648523,
              38.769263671013235,
              278.3245398780775
            ],
            [
              -120.83023236025295,
              38.76926218391108,
              278.3362398780769
            ],
            [
              -120.83020175531057,
              38.76925936904582,
              278.3420398780789
            ],
            [
              -120.83014922285368,
              38.76924638130265,
              278.35253987807795
            ],
            [
              -120.8300786709719,
              38.769222880740884,
              278.35723987807506
            ],
            [
              -120.82998855052124,
              38.76919251677274,
              278.35813987807535
            ],
            [
              -120.82992992132671,
              38.76917034626933,
              278.3587398780756
            ],
            [
              -120.82985464852398,
              38.76913693259125,
              278.35953987807585
            ],
            [
              -120.82984339073117,
              38.76913345766287,
              278.3596398780759
            ],
            [
              -120.82983969855644,
              38.76913319700715,
              278.3596398780759
            ],
            [
              -120.8295757569675,
              38.769074517631836,
              278.36223987807676
            ],
            [
              -120.82948003473898,
              38.76906282570845,
              278.3632398780771
            ],
            [
              -120.82937373607292,
              38.76904626012236,
              278.3642398780774
            ],
            [
              -120.82930387099404,
              38.76903601897139,
              278.3649398780776
            ],
            [
              -120.82924766730584,
              38.76902830128104,
              278.3654398780778
            ],
            [
              -120.82921482904844,
              38.76902176162927,
              278.36573987807793
            ],
            [
              -120.82916572427085,
              38.769011980251335,
              278.3662398780781
            ],
            [
              -120.82912758184526,
              38.7690048825414,
              278.3666398780782
            ],
            [
              -120.8290776909589,
              38.76899559772792,
              278.36703987807834
            ],
            [
              -120.8290151147184,
              38.768983294678726,
              278.36773987807857
            ],
            [
              -120.82895628728397,
              38.76897172765113,
              278.3682398780787
            ],
            [
              -120.82895594276657,
              38.76897196292698,
              278.3682398780787
            ],
            [
              -120.82888922381082,
              38.768955801595105,
              278.368939878079
            ],
            [
              -120.8288244405615,
              38.768937963268094,
              278.36953987807476
            ],
            [
              -120.82877730877996,
              38.768930535990684,
              278.3700398780749
            ],
            [
              -120.8287165035576,
              38.76891125568019,
              278.3706398780751
            ],
            [
              -120.82866084493706,
              38.768888475730954,
              278.3712398780753
            ],
            [
              -120.82861429967579,
              38.768873597149586,
              278.37173987807546
            ],
            [
              -120.82852832551188,
              38.76882771989239,
              278.37253987807577
            ],
            [
              -120.8285024136683,
              38.76881208327318,
              278.3728257675171
            ],
            [
              -120.82851141928741,
              38.76851514710732,
              278.37391577236934
            ],
            [
              -120.82851989855642,
              38.76851473069936,
              278.3738398780762
            ]
          ]
        ]
      }
    }
  ]
}